<?xml version="1.0" encoding="UTF-8"?>
<gpx version="1.1" creator="RouteHistory - https://www.ateow.com" xmlns="http://www.topografix.com/GPX/1/1" xmlns:rh="http://www.ateow.com/routehistory">
<metadata>
<name>大森　葵</name>
<desc></desc>
<extensions>
<rh:id>1</rh:id>
</extensions>
</metadata>
<trk>
<trkseg>
<trkpt lat="35.862402216198966" lon="139.9716789418676">
<time>2026-06-02T08:28:50Z</time>
<ele>27.547956676222384</ele>
</trkpt>
<trkpt lat="35.86245784849958" lon="139.97177421473896">
<time>2026-06-02T08:28:59Z</time>
<ele>26.805459746159613</ele>
</trkpt>
<trkpt lat="35.86252125566228" lon="139.97186440605785">
<time>2026-06-02T08:29:09Z</time>
<ele>25.825198338367045</ele>
</trkpt>
<trkpt lat="35.86255758632088" lon="139.97196710032142">
<time>2026-06-02T08:29:16Z</time>
<ele>26.574303722940385</ele>
</trkpt>
<trkpt lat="35.862613158438144" lon="139.97205472003415">
<time>2026-06-02T08:29:24Z</time>
<ele>26.378161100670695</ele>
</trkpt>
<trkpt lat="35.86264085366091" lon="139.97216035956566">
<time>2026-06-02T08:29:33Z</time>
<ele>26.348162052221596</ele>
</trkpt>
<trkpt lat="35.86265943236964" lon="139.97227699354244">
<time>2026-06-02T08:29:43Z</time>
<ele>25.599846282973886</ele>
</trkpt>
<trkpt lat="35.862693526693135" lon="139.97238037597594">
<time>2026-06-02T08:30:16Z</time>
<ele>25.483047684654593</ele>
</trkpt>
<trkpt lat="35.862767500959194" lon="139.97246070565">
<time>2026-06-02T08:30:24Z</time>
<ele>25.37767698429525</ele>
</trkpt>
<trkpt lat="35.862743823859795" lon="139.97258235311597">
<time>2026-06-02T08:30:41Z</time>
<ele>25.03423499315977</ele>
</trkpt>
<trkpt lat="35.862678475937294" lon="139.97267807510622">
<time>2026-06-02T08:30:48Z</time>
<ele>24.71682161744684</ele>
</trkpt>
<trkpt lat="35.862656337943335" lon="139.97278707768595">
<time>2026-06-02T08:30:58Z</time>
<ele>25.262123095802963</ele>
</trkpt>
<trkpt lat="35.86266754401564" lon="139.97291753569982">
<time>2026-06-02T08:31:11Z</time>
<ele>25.105101756751537</ele>
</trkpt>
<trkpt lat="35.86267962271351" lon="139.97304044481692">
<time>2026-06-02T08:31:18Z</time>
<ele>25.01028025522828</ele>
</trkpt>
<trkpt lat="35.862667503045834" lon="139.9731607895146">
<time>2026-06-02T08:31:26Z</time>
<ele>25.146013247780502</ele>
</trkpt>
<trkpt lat="35.862642623830396" lon="139.97327338253166">
<time>2026-06-02T08:31:33Z</time>
<ele>25.265105278231204</ele>
</trkpt>
<trkpt lat="35.86262153483613" lon="139.97339250425094">
<time>2026-06-02T08:31:41Z</time>
<ele>25.404390024021268</ele>
</trkpt>
<trkpt lat="35.86265667039177" lon="139.97349595589748">
<time>2026-06-02T08:31:48Z</time>
<ele>25.13740258757025</ele>
</trkpt>
<trkpt lat="35.862642358351444" lon="139.97360938710736">
<time>2026-06-02T08:31:58Z</time>
<ele>25.48938171286136</ele>
</trkpt>
<trkpt lat="35.86256977275789" lon="139.97368669245313">
<time>2026-06-02T08:32:06Z</time>
<ele>24.268302624113858</ele>
</trkpt>
<trkpt lat="35.86251037878955" lon="139.97377014159687">
<time>2026-06-02T08:32:14Z</time>
<ele>23.140155599452555</ele>
</trkpt>
<trkpt lat="35.86253573959124" lon="139.97389363735846">
<time>2026-06-02T08:32:28Z</time>
<ele>25.04517532326281</ele>
</trkpt>
<trkpt lat="35.86251783878212" lon="139.97401024638933">
<time>2026-06-02T08:32:38Z</time>
<ele>24.487294819206</ele>
</trkpt>
<trkpt lat="35.86248771083743" lon="139.97411983767432">
<time>2026-06-02T08:32:45Z</time>
<ele>25.33624139148742</ele>
</trkpt>
<trkpt lat="35.86248395428849" lon="139.97423524358308">
<time>2026-06-02T08:32:53Z</time>
<ele>25.68766359053552</ele>
</trkpt>
<trkpt lat="35.86247301390248" lon="139.97435292399243">
<time>2026-06-02T08:33:01Z</time>
<ele>25.46734254527837</ele>
</trkpt>
<trkpt lat="35.86246687498571" lon="139.9744750256639">
<time>2026-06-02T08:33:10Z</time>
<ele>24.75464183278382</ele>
</trkpt>
<trkpt lat="35.8624422743145" lon="139.97458829475235">
<time>2026-06-02T08:33:18Z</time>
<ele>25.528827232308686</ele>
</trkpt>
<trkpt lat="35.86241385197424" lon="139.97469619570228">
<time>2026-06-02T08:33:26Z</time>
<ele>25.110561720095575</ele>
</trkpt>
<trkpt lat="35.86241677668919" lon="139.97483218621568">
<time>2026-06-02T08:33:36Z</time>
<ele>26.97085161600262</ele>
</trkpt>
<trkpt lat="35.86239482004862" lon="139.97495602658097">
<time>2026-06-02T08:33:49Z</time>
<ele>25.818217085674405</ele>
</trkpt>
<trkpt lat="35.86237019222005" lon="139.97506832304015">
<time>2026-06-02T08:33:57Z</time>
<ele>25.301603381522</ele>
</trkpt>
<trkpt lat="35.86236637760734" lon="139.97518092879386">
<time>2026-06-02T08:34:05Z</time>
<ele>25.249151988886297</ele>
</trkpt>
<trkpt lat="35.862367083909085" lon="139.97530542532246">
<time>2026-06-02T08:34:14Z</time>
<ele>24.60008751694113</ele>
</trkpt>
<trkpt lat="35.862330954009835" lon="139.97541910755749">
<time>2026-06-02T08:34:23Z</time>
<ele>24.814722661860287</ele>
</trkpt>
<trkpt lat="35.86227214283349" lon="139.97550332440417">
<time>2026-06-02T08:35:32Z</time>
<ele>24.64067721925676</ele>
</trkpt>
<trkpt lat="35.86218108029903" lon="139.9754754354636">
<time>2026-06-02T08:35:40Z</time>
<ele>24.806025261059403</ele>
</trkpt>
<trkpt lat="35.86209532351762" lon="139.97543494100302">
<time>2026-06-02T08:35:46Z</time>
<ele>25.285842787474394</ele>
</trkpt>
<trkpt lat="35.86200054372819" lon="139.97540903300631">
<time>2026-06-02T08:35:56Z</time>
<ele>24.94336579181254</ele>
</trkpt>
<trkpt lat="35.86190723329703" lon="139.97538824803954">
<time>2026-06-02T08:36:04Z</time>
<ele>25.39573524147272</ele>
</trkpt>
<trkpt lat="35.86181576227222" lon="139.97539994938668">
<time>2026-06-02T08:36:13Z</time>
<ele>24.616503609344363</ele>
</trkpt>
<trkpt lat="35.86172379560208" lon="139.97537654531175">
<time>2026-06-02T08:36:21Z</time>
<ele>25.515197397209704</ele>
</trkpt>
<trkpt lat="35.861631267172584" lon="139.97534350434125">
<time>2026-06-02T08:36:29Z</time>
<ele>24.87062155455351</ele>
</trkpt>
<trkpt lat="35.861540842221615" lon="139.97529007664198">
<time>2026-06-02T08:36:37Z</time>
<ele>24.833341849036515</ele>
</trkpt>
<trkpt lat="35.861450467845" lon="139.97525633254415">
<time>2026-06-02T08:36:45Z</time>
<ele>25.804750299081206</ele>
</trkpt>
<trkpt lat="35.86135380506095" lon="139.9752345572633">
<time>2026-06-02T08:36:53Z</time>
<ele>25.077766845934093</ele>
</trkpt>
<trkpt lat="35.86127097204786" lon="139.97517321004506">
<time>2026-06-02T08:37:03Z</time>
<ele>25.753045849502087</ele>
</trkpt>
<trkpt lat="35.86118689557035" lon="139.97511012385226">
<time>2026-06-02T08:37:11Z</time>
<ele>25.693940745666623</ele>
</trkpt>
<trkpt lat="35.86112338857866" lon="139.97502088565514">
<time>2026-06-02T08:37:20Z</time>
<ele>25.728151181712747</ele>
</trkpt>
<trkpt lat="35.86103868347609" lon="139.9749525217676">
<time>2026-06-02T08:37:29Z</time>
<ele>25.947623250074685</ele>
</trkpt>
<trkpt lat="35.86097612130357" lon="139.97486958880899">
<time>2026-06-02T08:37:37Z</time>
<ele>25.895353275351226</ele>
</trkpt>
<trkpt lat="35.86093894153158" lon="139.9747643763517">
<time>2026-06-02T08:37:44Z</time>
<ele>24.92246613278985</ele>
</trkpt>
<trkpt lat="35.86088712122469" lon="139.97466243628725">
<time>2026-06-02T08:37:52Z</time>
<ele>25.72538921236992</ele>
</trkpt>
<trkpt lat="35.860825368155595" lon="139.97456744213514">
<time>2026-06-02T08:37:59Z</time>
<ele>26.07268986850977</ele>
</trkpt>
<trkpt lat="35.86078109949448" lon="139.97446788327431">
<time>2026-06-02T08:38:09Z</time>
<ele>26.32392186205834</ele>
</trkpt>
<trkpt lat="35.86074916108102" lon="139.97436257656565">
<time>2026-06-02T08:38:17Z</time>
<ele>26.641047990880907</ele>
</trkpt>
<trkpt lat="35.860725884434636" lon="139.97425048079694">
<time>2026-06-02T08:38:26Z</time>
<ele>26.344589888118207</ele>
</trkpt>
<trkpt lat="35.860675743870615" lon="139.974150800128">
<time>2026-06-02T08:38:32Z</time>
<ele>26.30246628727764</ele>
</trkpt>
<trkpt lat="35.860644880152066" lon="139.97404421990362">
<time>2026-06-02T08:38:40Z</time>
<ele>26.306053719483316</ele>
</trkpt>
<trkpt lat="35.860569267264026" lon="139.97394883248523">
<time>2026-06-02T08:38:49Z</time>
<ele>27.229559085331857</ele>
</trkpt>
<trkpt lat="35.860476936844385" lon="139.97390664292743">
<time>2026-06-02T08:38:55Z</time>
<ele>26.52972628828138</ele>
</trkpt>
<trkpt lat="35.86037070164839" lon="139.97387280202534">
<time>2026-06-02T08:39:01Z</time>
<ele>26.707042400725186</ele>
</trkpt>
<trkpt lat="35.86029481613327" lon="139.9737901950113">
<time>2026-06-02T08:39:40Z</time>
<ele>26.8937418917194</ele>
</trkpt>
<trkpt lat="35.860232668827855" lon="139.97370091353898">
<time>2026-06-02T08:39:54Z</time>
<ele>26.64874670188874</ele>
</trkpt>
<trkpt lat="35.86018457566484" lon="139.97360599356495">
<time>2026-06-02T08:40:02Z</time>
<ele>27.229502107948065</ele>
</trkpt>
<trkpt lat="35.86012106803806" lon="139.9735224926252">
<time>2026-06-02T08:40:15Z</time>
<ele>27.093071340583265</ele>
</trkpt>
<trkpt lat="35.860051591834164" lon="139.97345020531247">
<time>2026-06-02T08:40:28Z</time>
<ele>26.80180046427995</ele>
</trkpt>
<trkpt lat="35.859979522585995" lon="139.97338322055873">
<time>2026-06-02T08:40:38Z</time>
<ele>26.79725056886673</ele>
</trkpt>
<trkpt lat="35.85991939379136" lon="139.97329236838453">
<time>2026-06-02T08:40:46Z</time>
<ele>26.351726207882166</ele>
</trkpt>
<trkpt lat="35.85985655373572" lon="139.97320897104208">
<time>2026-06-02T08:40:56Z</time>
<ele>26.72783686965704</ele>
</trkpt>
<trkpt lat="35.859774555034534" lon="139.97312463465832">
<time>2026-06-02T08:41:05Z</time>
<ele>26.94907241873443</ele>
</trkpt>
<trkpt lat="35.85975952497018" lon="139.973003222369">
<time>2026-06-02T08:41:24Z</time>
<ele>24.95818625949323</ele>
</trkpt>
<trkpt lat="35.859769315610386" lon="139.97287059953968">
<time>2026-06-02T08:41:36Z</time>
<ele>25.865072648972273</ele>
</trkpt>
<trkpt lat="35.859807096192135" lon="139.97276974096056">
<time>2026-06-02T08:41:43Z</time>
<ele>25.674109985120595</ele>
</trkpt>
<trkpt lat="35.8598389387852" lon="139.9726552525015">
<time>2026-06-02T08:41:51Z</time>
<ele>25.25167569424957</ele>
</trkpt>
<trkpt lat="35.85989322226736" lon="139.9725463793131">
<time>2026-06-02T08:41:59Z</time>
<ele>25.744614887051284</ele>
</trkpt>
<trkpt lat="35.85992990486175" lon="139.97244287743078">
<time>2026-06-02T08:42:06Z</time>
<ele>26.003971221856773</ele>
</trkpt>
<trkpt lat="35.859976442723415" lon="139.97234497222527">
<time>2026-06-02T08:42:14Z</time>
<ele>25.793434890918434</ele>
</trkpt>
<trkpt lat="35.860034083557096" lon="139.97224548811772">
<time>2026-06-02T08:42:25Z</time>
<ele>25.582122593186796</ele>
</trkpt>
<trkpt lat="35.86008702347788" lon="139.97215588364213">
<time>2026-06-02T08:42:36Z</time>
<ele>24.980283194221556</ele>
</trkpt>
<trkpt lat="35.86009784268073" lon="139.9720355626764">
<time>2026-06-02T08:42:46Z</time>
<ele>25.962436662055552</ele>
</trkpt>
<trkpt lat="35.86011766571247" lon="139.97192198580643">
<time>2026-06-02T08:42:55Z</time>
<ele>26.207888283766806</ele>
</trkpt>
<trkpt lat="35.860138926027055" lon="139.9717985323332">
<time>2026-06-02T08:43:04Z</time>
<ele>25.482031376101077</ele>
</trkpt>
<trkpt lat="35.860165083728916" lon="139.97168650588924">
<time>2026-06-02T08:43:12Z</time>
<ele>25.249631610698998</ele>
</trkpt>
<trkpt lat="35.86014092002057" lon="139.9715711160153">
<time>2026-06-02T08:43:21Z</time>
<ele>25.07675070501864</ele>
</trkpt>
<trkpt lat="35.860149799724034" lon="139.97145778458568">
<time>2026-06-02T08:43:30Z</time>
<ele>24.344057430513203</ele>
</trkpt>
<trkpt lat="35.86018533507871" lon="139.97135162061406">
<time>2026-06-02T08:43:38Z</time>
<ele>24.323550933972</ele>
</trkpt>
<trkpt lat="35.860188357593245" lon="139.9712299364601">
<time>2026-06-02T08:43:46Z</time>
<ele>24.473290329799056</ele>
</trkpt>
<trkpt lat="35.86018626779598" lon="139.97110581034832">
<time>2026-06-02T08:43:54Z</time>
<ele>24.61670610588044</ele>
</trkpt>
<trkpt lat="35.86020579210691" lon="139.97099509173182">
<time>2026-06-02T08:44:02Z</time>
<ele>24.49569103308022</ele>
</trkpt>
<trkpt lat="35.860308499365395" lon="139.97096062084705">
<time>2026-06-02T08:44:13Z</time>
<ele>24.984161857515574</ele>
</trkpt>
<trkpt lat="35.86040953643234" lon="139.97095221666615">
<time>2026-06-02T08:44:22Z</time>
<ele>30.137115478515625</ele>
</trkpt>
<trkpt lat="35.860500649060555" lon="139.9709685979848">
<time>2026-06-02T08:44:33Z</time>
<ele>24.284502838738263</ele>
</trkpt>
<trkpt lat="35.86059507663992" lon="139.97102203164258">
<time>2026-06-02T08:44:41Z</time>
<ele>24.32275498844683</ele>
</trkpt>
<trkpt lat="35.86068983466682" lon="139.97105375335875">
<time>2026-06-02T08:44:49Z</time>
<ele>24.633655298501253</ele>
</trkpt>
<trkpt lat="35.86078025921091" lon="139.9711012454945">
<time>2026-06-02T08:44:59Z</time>
<ele>25.168006000109017</ele>
</trkpt>
<trkpt lat="35.860867346304055" lon="139.9710566496596">
<time>2026-06-02T08:45:28Z</time>
<ele>25.12681492138654</ele>
</trkpt>
<trkpt lat="35.860895509858864" lon="139.97116890859388">
<time>2026-06-02T08:45:46Z</time>
<ele>25.263536171987653</ele>
</trkpt>
<trkpt lat="35.860881252535194" lon="139.97128235659753">
<time>2026-06-02T08:45:57Z</time>
<ele>25.614859961904585</ele>
</trkpt>
<trkpt lat="35.86080418226555" lon="139.9713405396475">
<time>2026-06-02T08:46:04Z</time>
<ele>25.46552221942693</ele>
</trkpt>
<trkpt lat="35.8607388623837" lon="139.97143200874348">
<time>2026-06-02T08:46:08Z</time>
<ele>25.582598321139812</ele>
</trkpt>
<trkpt lat="35.86073878977249" lon="139.97154511229297">
<time>2026-06-02T08:46:22Z</time>
<ele>25.916524787433445</ele>
</trkpt>
<trkpt lat="35.86077091707555" lon="139.97166689219728">
<time>2026-06-02T08:46:30Z</time>
<ele>25.904455851763487</ele>
</trkpt>
<trkpt lat="35.86074794239158" lon="139.97178154800417">
<time>2026-06-02T08:46:40Z</time>
<ele>26.22505090199411</ele>
</trkpt>
<trkpt lat="35.8608462660867" lon="139.97178961950954">
<time>2026-06-02T08:46:45Z</time>
<ele>26.29016118682921</ele>
</trkpt>
<trkpt lat="35.860949584978435" lon="139.97179133786614">
<time>2026-06-02T08:46:47Z</time>
<ele>26.37173734419048</ele>
</trkpt>
<trkpt lat="35.86105534091867" lon="139.97185247410516">
<time>2026-06-02T08:46:54Z</time>
<ele>26.79109826590866</ele>
</trkpt>
<trkpt lat="35.86116391887069" lon="139.97189137968718">
<time>2026-06-02T08:47:03Z</time>
<ele>27.254546988755465</ele>
</trkpt>
<trkpt lat="35.86125576777871" lon="139.97189805090903">
<time>2026-06-02T08:47:16Z</time>
<ele>26.96718931104988</ele>
</trkpt>
<trkpt lat="35.86132525431929" lon="139.97198087105477">
<time>2026-06-02T08:47:24Z</time>
<ele>27.23780227918178</ele>
</trkpt>
<trkpt lat="35.86143129991426" lon="139.97203009696577">
<time>2026-06-02T08:47:39Z</time>
<ele>27.01497278828174</ele>
</trkpt>
<trkpt lat="35.86152673823553" lon="139.9720250996897">
<time>2026-06-02T08:47:45Z</time>
<ele>26.74114707764238</ele>
</trkpt>
<trkpt lat="35.86161156198891" lon="139.97197584705725">
<time>2026-06-02T08:47:51Z</time>
<ele>26.964983308687806</ele>
</trkpt>
<trkpt lat="35.86155132380347" lon="139.97207013523192">
<time>2026-06-02T08:48:45Z</time>
<ele>26.979984461329877</ele>
</trkpt>
<trkpt lat="35.86149033662166" lon="139.97215959550778">
<time>2026-06-02T08:48:54Z</time>
<ele>27.25838151667267</ele>
</trkpt>
<trkpt lat="35.861421014605845" lon="139.97223451084605">
<time>2026-06-02T08:49:03Z</time>
<ele>27.553993050009012</ele>
</trkpt>
<trkpt lat="35.86136744932773" lon="139.97234597488412">
<time>2026-06-02T08:49:15Z</time>
<ele>27.095797466114163</ele>
</trkpt>
<trkpt lat="35.86131253562159" lon="139.97245254519584">
<time>2026-06-02T08:49:23Z</time>
<ele>27.03243686351925</ele>
</trkpt>
<trkpt lat="35.86126549162837" lon="139.97255095744842">
<time>2026-06-02T08:49:35Z</time>
<ele>26.590503003448248</ele>
</trkpt>
<trkpt lat="35.86119058155508" lon="139.9726192605844">
<time>2026-06-02T08:49:43Z</time>
<ele>27.33501106966287</ele>
</trkpt>
<trkpt lat="35.861135454269" lon="139.97271580471948">
<time>2026-06-02T08:50:01Z</time>
<ele>26.95131092146039</ele>
</trkpt>
<trkpt lat="35.861072961013946" lon="139.97280570315078">
<time>2026-06-02T08:50:23Z</time>
<ele>27.10647898633033</ele>
</trkpt>
<trkpt lat="35.86100951948196" lon="139.97288547838633">
<time>2026-06-02T08:50:26Z</time>
<ele>26.807886748574674</ele>
</trkpt>
<trkpt lat="35.86101840719864" lon="139.97300746427175">
<time>2026-06-02T08:50:31Z</time>
<ele>26.568553210236132</ele>
</trkpt>
<trkpt lat="35.860935774357806" lon="139.9730895038189">
<time>2026-06-02T08:50:35Z</time>
<ele>25.694335665553808</ele>
</trkpt>
<trkpt lat="35.86086567482393" lon="139.97316847031263">
<time>2026-06-02T08:50:40Z</time>
<ele>26.12548364698887</ele>
</trkpt>
<trkpt lat="35.86077382156854" lon="139.97322624535244">
<time>2026-06-02T08:50:44Z</time>
<ele>25.653677148744464</ele>
</trkpt>
<trkpt lat="35.860674659907936" lon="139.9733097082735">
<time>2026-06-02T08:50:49Z</time>
<ele>25.107964740134776</ele>
</trkpt>
<trkpt lat="35.86058667993492" lon="139.9733801783582">
<time>2026-06-02T08:50:52Z</time>
<ele>24.63334204722196</ele>
</trkpt>
<trkpt lat="35.86051337394491" lon="139.9734569901696">
<time>2026-06-02T08:51:00Z</time>
<ele>24.53114267345518</ele>
</trkpt>
<trkpt lat="35.86042394042294" lon="139.9734892278375">
<time>2026-06-02T08:51:08Z</time>
<ele>26.23395213112235</ele>
</trkpt>
<trkpt lat="35.86047043257067" lon="139.97338490262294">
<time>2026-06-02T08:51:23Z</time>
<ele>26.651763938367367</ele>
</trkpt>
<trkpt lat="35.86056855282347" lon="139.97334199203004">
<time>2026-06-02T08:51:32Z</time>
<ele>26.93631503265351</ele>
</trkpt>
<trkpt lat="35.860641702287054" lon="139.9732599492747">
<time>2026-06-02T08:51:42Z</time>
<ele>26.930390964262187</ele>
</trkpt>
<trkpt lat="35.86072524503475" lon="139.97320823004023">
<time>2026-06-02T08:51:50Z</time>
<ele>26.924290078692138</ele>
</trkpt>
<trkpt lat="35.86079509163715" lon="139.9731215591147">
<time>2026-06-02T08:52:01Z</time>
<ele>26.66180918738246</ele>
</trkpt>
<trkpt lat="35.86085912408796" lon="139.97303819507098">
<time>2026-06-02T08:52:11Z</time>
<ele>26.249790179543197</ele>
</trkpt>
<trkpt lat="35.8609232088922" lon="139.9729505556074">
<time>2026-06-02T08:52:18Z</time>
<ele>25.9212675280869</ele>
</trkpt>
<trkpt lat="35.860986910985325" lon="139.97286536107083">
<time>2026-06-02T08:52:27Z</time>
<ele>26.24713682476431</ele>
</trkpt>
<trkpt lat="35.861070135378746" lon="139.97280983041298">
<time>2026-06-02T08:52:36Z</time>
<ele>26.840305137448013</ele>
</trkpt>
<trkpt lat="35.861140485496584" lon="139.9727302436852">
<time>2026-06-02T08:52:45Z</time>
<ele>27.124501601792872</ele>
</trkpt>
<trkpt lat="35.86122493161764" lon="139.9726432088939">
<time>2026-06-02T08:52:56Z</time>
<ele>26.232547326013446</ele>
</trkpt>
<trkpt lat="35.86129786430897" lon="139.97256124127682">
<time>2026-06-02T08:53:05Z</time>
<ele>26.965631783008575</ele>
</trkpt>
<trkpt lat="35.861361278343566" lon="139.97247996633925">
<time>2026-06-02T08:53:16Z</time>
<ele>26.56677297782153</ele>
</trkpt>
<trkpt lat="35.86142672330601" lon="139.97240131779768">
<time>2026-06-02T08:53:25Z</time>
<ele>26.213123874738812</ele>
</trkpt>
<trkpt lat="35.86149983306277" lon="139.9723013325534">
<time>2026-06-02T08:53:32Z</time>
<ele>26.110219742171466</ele>
</trkpt>
<trkpt lat="35.861548770177144" lon="139.9722066045067">
<time>2026-06-02T08:53:38Z</time>
<ele>26.00016156490892</ele>
</trkpt>
<trkpt lat="35.86161306240387" lon="139.97211250968047">
<time>2026-06-02T08:53:46Z</time>
<ele>27.518530149944127</ele>
</trkpt>
<trkpt lat="35.86166497155494" lon="139.97201798273267">
<time>2026-06-02T08:53:54Z</time>
<ele>27.008028719574213</ele>
</trkpt>
<trkpt lat="35.86171849432522" lon="139.97191607805695">
<time>2026-06-02T08:54:05Z</time>
<ele>27.174651343375444</ele>
</trkpt>
<trkpt lat="35.8618019975786" lon="139.9718507975727">
<time>2026-06-02T08:54:18Z</time>
<ele>27.3039019536227</ele>
</trkpt>
<trkpt lat="35.86187384404098" lon="139.9717829509265">
<time>2026-06-02T08:54:38Z</time>
<ele>28.223798749037087</ele>
</trkpt>
<trkpt lat="35.86195297083119" lon="139.97172811938609">
<time>2026-06-02T08:55:10Z</time>
<ele>28.13363101053983</ele>
</trkpt>
<trkpt lat="35.862036519311346" lon="139.97168199020928">
<time>2026-06-02T08:55:19Z</time>
<ele>27.221073342487216</ele>
</trkpt>
<trkpt lat="35.86212525250217" lon="139.97165962150265">
<time>2026-06-02T08:55:31Z</time>
<ele>26.846196777187288</ele>
</trkpt>
<trkpt lat="35.86219533151221" lon="139.97157781661946">
<time>2026-06-02T08:55:36Z</time>
<ele>26.602827024646103</ele>
</trkpt>
<trkpt lat="35.862258614249946" lon="139.97148737697847">
<time>2026-06-02T08:55:43Z</time>
<ele>26.849431260488927</ele>
</trkpt>
<trkpt lat="35.86229974966791" lon="139.97138864222043">
<time>2026-06-02T08:55:53Z</time>
<ele>27.146683763712645</ele>
</trkpt>
<trkpt lat="35.86234700503963" lon="139.97129050429126">
<time>2026-06-02T08:55:57Z</time>
<ele>27.190650407224894</ele>
</trkpt>
<trkpt lat="35.86239568842051" lon="139.9711944745203">
<time>2026-06-02T08:56:13Z</time>
<ele>26.96248710900545</ele>
</trkpt>
<trkpt lat="35.86250917310761" lon="139.9710255522157">
<time>2026-06-02T08:56:32Z</time>
<ele>26.895879947580397</ele>
</trkpt>
<trkpt lat="35.86233588349591" lon="139.9712336504885">
<time>2026-06-02T08:56:34Z</time>
<ele>36.4885562537238</ele>
</trkpt>
<trkpt lat="35.86242118407483" lon="139.97080662461767">
<time>2026-06-02T08:56:52Z</time>
<ele>29.008751743347858</ele>
</trkpt>
<trkpt lat="35.8625807870199" lon="139.97050735683644">
<time>2026-06-02T08:56:58Z</time>
<ele>30.991895294189447</ele>
</trkpt>
<trkpt lat="35.86264061718829" lon="139.9703840161032">
<time>2026-06-02T08:57:06Z</time>
<ele>25.534623264335096</ele>
</trkpt>
<trkpt lat="35.862726390630016" lon="139.9703178940465">
<time>2026-06-02T08:57:11Z</time>
<ele>25.01845942530781</ele>
</trkpt>
<trkpt lat="35.86271849685888" lon="139.9702069439835">
<time>2026-06-02T08:57:57Z</time>
<ele>23.307975173927844</ele>
</trkpt>
<trkpt lat="35.86266030921398" lon="139.97010491957545">
<time>2026-06-02T08:58:06Z</time>
<ele>24.08452849742025</ele>
</trkpt>
<trkpt lat="35.86258661329093" lon="139.9700231287225">
<time>2026-06-02T08:58:11Z</time>
<ele>23.912243640981615</ele>
</trkpt>
<trkpt lat="35.862567371219335" lon="139.96990520088667">
<time>2026-06-02T08:58:25Z</time>
<ele>23.7100940188393</ele>
</trkpt>
<trkpt lat="35.86250768027857" lon="139.96979697981362">
<time>2026-06-02T08:58:31Z</time>
<ele>23.542467625811696</ele>
</trkpt>
<trkpt lat="35.86243936393618" lon="139.9697067135224">
<time>2026-06-02T08:58:37Z</time>
<ele>22.93285858631134</ele>
</trkpt>
<trkpt lat="35.86237271755754" lon="139.96961590378066">
<time>2026-06-02T08:58:44Z</time>
<ele>22.312358988448977</ele>
</trkpt>
<trkpt lat="35.862311276921915" lon="139.96952884868656">
<time>2026-06-02T08:58:52Z</time>
<ele>22.412712382152677</ele>
</trkpt>
<trkpt lat="35.86229540065142" lon="139.96941050612946">
<time>2026-06-02T08:59:01Z</time>
<ele>21.768086165189743</ele>
</trkpt>
<trkpt lat="35.862289315288436" lon="139.96929420806902">
<time>2026-06-02T08:59:08Z</time>
<ele>21.559941040351987</ele>
</trkpt>
<trkpt lat="35.86238103872138" lon="139.9692774294726">
<time>2026-06-02T08:59:18Z</time>
<ele>22.24767670687288</ele>
</trkpt>
<trkpt lat="35.86246800136376" lon="139.96924607930893">
<time>2026-06-02T08:59:24Z</time>
<ele>22.209356906823814</ele>
</trkpt>
<trkpt lat="35.862568401856265" lon="139.9692469388291">
<time>2026-06-02T08:59:30Z</time>
<ele>22.220536241307855</ele>
</trkpt>
<trkpt lat="35.86263448290508" lon="139.96933616096703">
<time>2026-06-02T08:59:38Z</time>
<ele>22.056649821810424</ele>
</trkpt>
<trkpt lat="35.862718237940754" lon="139.9694018623746">
<time>2026-06-02T08:59:50Z</time>
<ele>22.431559124030173</ele>
</trkpt>
<trkpt lat="35.86280354880169" lon="139.9694602030596">
<time>2026-06-02T08:59:54Z</time>
<ele>22.18519384879619</ele>
</trkpt>
<trkpt lat="35.86290379799499" lon="139.96940744314614">
<time>2026-06-02T09:00:06Z</time>
<ele>21.771006291732192</ele>
</trkpt>
<trkpt lat="35.86291393528779" lon="139.96929311857673">
<time>2026-06-02T09:00:13Z</time>
<ele>21.097667144611478</ele>
</trkpt>
<trkpt lat="35.86298403786652" lon="139.96921144623286">
<time>2026-06-02T09:00:21Z</time>
<ele>21.868230699561536</ele>
</trkpt>
<trkpt lat="35.86306018162691" lon="139.96914207740411">
<time>2026-06-02T09:00:27Z</time>
<ele>21.85011821333319</ele>
</trkpt>
<trkpt lat="35.863119210288076" lon="139.96905588477907">
<time>2026-06-02T09:00:34Z</time>
<ele>21.69351769052446</ele>
</trkpt>
<trkpt lat="35.86319033731769" lon="139.96897705889037">
<time>2026-06-02T09:00:42Z</time>
<ele>21.220034235157073</ele>
</trkpt>
<trkpt lat="35.86319312319617" lon="139.96886120372457">
<time>2026-06-02T09:00:50Z</time>
<ele>20.827141710557044</ele>
</trkpt>
<trkpt lat="35.86324281695313" lon="139.96876473664105">
<time>2026-06-02T09:00:57Z</time>
<ele>19.900631301105022</ele>
</trkpt>
<trkpt lat="35.863294768832716" lon="139.96866698514248">
<time>2026-06-02T09:01:05Z</time>
<ele>19.752135154791176</ele>
</trkpt>
<trkpt lat="35.863333009279984" lon="139.96856123460938">
<time>2026-06-02T09:01:14Z</time>
<ele>20.396859257481992</ele>
</trkpt>
<trkpt lat="35.863387659694816" lon="139.96846196171603">
<time>2026-06-02T09:01:22Z</time>
<ele>20.157948533073068</ele>
</trkpt>
<trkpt lat="35.86343448726546" lon="139.96835201990086">
<time>2026-06-02T09:01:29Z</time>
<ele>20.644151782616973</ele>
</trkpt>
<trkpt lat="35.86346743013139" lon="139.96824895935262">
<time>2026-06-02T09:01:37Z</time>
<ele>20.471349836327136</ele>
</trkpt>
<trkpt lat="35.86356212232414" lon="139.96822413268853">
<time>2026-06-02T09:01:48Z</time>
<ele>20.73585112206638</ele>
</trkpt>
<trkpt lat="35.863661873178145" lon="139.9682056246087">
<time>2026-06-02T09:03:14Z</time>
<ele>21.34219801891595</ele>
</trkpt>
<trkpt lat="35.863753196355184" lon="139.96823594720377">
<time>2026-06-02T09:03:24Z</time>
<ele>20.766563183628023</ele>
</trkpt>
<trkpt lat="35.863848372651944" lon="139.9682705944582">
<time>2026-06-02T09:03:31Z</time>
<ele>20.686882503330708</ele>
</trkpt>
<trkpt lat="35.86393931723476" lon="139.96831454720214">
<time>2026-06-02T09:03:39Z</time>
<ele>21.587076134979725</ele>
</trkpt>
<trkpt lat="35.86402120235709" lon="139.96836800334646">
<time>2026-06-02T09:03:46Z</time>
<ele>21.555115710012615</ele>
</trkpt>
<trkpt lat="35.864115330146554" lon="139.9684043741351">
<time>2026-06-02T09:03:56Z</time>
<ele>21.535142742097378</ele>
</trkpt>
<trkpt lat="35.86420647234941" lon="139.96842874798705">
<time>2026-06-02T09:04:03Z</time>
<ele>21.43553018104285</ele>
</trkpt>
<trkpt lat="35.86429428043538" lon="139.96848210533423">
<time>2026-06-02T09:04:10Z</time>
<ele>21.698738407343626</ele>
</trkpt>
<trkpt lat="35.864378405332154" lon="139.9685290344551">
<time>2026-06-02T09:04:20Z</time>
<ele>21.741097909398377</ele>
</trkpt>
<trkpt lat="35.86445581485015" lon="139.9685900486074">
<time>2026-06-02T09:04:26Z</time>
<ele>22.08496573101729</ele>
</trkpt>
<trkpt lat="35.864528060248134" lon="139.96866753630007">
<time>2026-06-02T09:04:34Z</time>
<ele>22.018854323774576</ele>
</trkpt>
<trkpt lat="35.86460779254172" lon="139.9687232492088">
<time>2026-06-02T09:04:42Z</time>
<ele>22.415971657261252</ele>
</trkpt>
<trkpt lat="35.86468816126282" lon="139.96878979269576">
<time>2026-06-02T09:04:50Z</time>
<ele>22.343414649367332</ele>
</trkpt>
<trkpt lat="35.86474768359225" lon="139.96889212632885">
<time>2026-06-02T09:04:59Z</time>
<ele>22.464462141506374</ele>
</trkpt>
<trkpt lat="35.86483758103569" lon="139.96892963273459">
<time>2026-06-02T09:05:07Z</time>
<ele>22.354395494796336</ele>
</trkpt>
<trkpt lat="35.86492029716068" lon="139.96899372806985">
<time>2026-06-02T09:05:18Z</time>
<ele>21.649577328003943</ele>
</trkpt>
<trkpt lat="35.86499537648623" lon="139.9690622472807">
<time>2026-06-02T09:05:24Z</time>
<ele>22.86434260662645</ele>
</trkpt>
<trkpt lat="35.86506092784876" lon="139.9691438579699">
<time>2026-06-02T09:05:33Z</time>
<ele>21.57659378554672</ele>
</trkpt>
<trkpt lat="35.86509827140058" lon="139.96924948864694">
<time>2026-06-02T09:05:42Z</time>
<ele>22.386387741193175</ele>
</trkpt>
<trkpt lat="35.86515560112206" lon="139.96934764841382">
<time>2026-06-02T09:05:50Z</time>
<ele>22.97515712212771</ele>
</trkpt>
<trkpt lat="35.86520991621604" lon="139.96944727734288">
<time>2026-06-02T09:05:58Z</time>
<ele>23.031836729496717</ele>
</trkpt>
<trkpt lat="35.865236015818255" lon="139.96957508556653">
<time>2026-06-02T09:06:06Z</time>
<ele>23.31421017833054</ele>
</trkpt>
<trkpt lat="35.865146096323095" lon="139.969628878559">
<time>2026-06-02T09:06:16Z</time>
<ele>23.212867157533765</ele>
</trkpt>
<trkpt lat="35.86505448390065" lon="139.96967309878895">
<time>2026-06-02T09:06:23Z</time>
<ele>22.3591098068282</ele>
</trkpt>
<trkpt lat="35.86496981203442" lon="139.9697476712627">
<time>2026-06-02T09:06:31Z</time>
<ele>23.204936274327338</ele>
</trkpt>
<trkpt lat="35.86487298870498" lon="139.9697823730994">
<time>2026-06-02T09:06:40Z</time>
<ele>21.686121124774218</ele>
</trkpt>
<trkpt lat="35.86479025183331" lon="139.96983769822052">
<time>2026-06-02T09:06:47Z</time>
<ele>22.021136741153896</ele>
</trkpt>
<trkpt lat="35.86470202765892" lon="139.96988822386717">
<time>2026-06-02T09:06:54Z</time>
<ele>22.38822713494301</ele>
</trkpt>
<trkpt lat="35.86461049816444" lon="139.96992795060237">
<time>2026-06-02T09:07:03Z</time>
<ele>22.422208801843226</ele>
</trkpt>
<trkpt lat="35.86451216419024" lon="139.96994832099497">
<time>2026-06-02T09:07:11Z</time>
<ele>22.421285714954138</ele>
</trkpt>
<trkpt lat="35.8644198405884" lon="139.9699746631585">
<time>2026-06-02T09:07:20Z</time>
<ele>22.312023828737438</ele>
</trkpt>
<trkpt lat="35.86432203712982" lon="139.96996838255993">
<time>2026-06-02T09:07:28Z</time>
<ele>22.413974690251052</ele>
</trkpt>
<trkpt lat="35.864232770085636" lon="139.96999081868407">
<time>2026-06-02T09:07:36Z</time>
<ele>21.895467969588935</ele>
</trkpt>
<trkpt lat="35.864138694932684" lon="139.970012607611">
<time>2026-06-02T09:07:45Z</time>
<ele>22.277187035419047</ele>
</trkpt>
<trkpt lat="35.86404872047651" lon="139.97002293024198">
<time>2026-06-02T09:07:53Z</time>
<ele>22.19449243694544</ele>
</trkpt>
<trkpt lat="35.86396082064518" lon="139.9700609676412">
<time>2026-06-02T09:08:03Z</time>
<ele>21.67344355676323</ele>
</trkpt>
<trkpt lat="35.863864349870994" lon="139.9700875440594">
<time>2026-06-02T09:08:12Z</time>
<ele>21.965852647088468</ele>
</trkpt>
<trkpt lat="35.863766391093634" lon="139.97010252050387">
<time>2026-06-02T09:08:20Z</time>
<ele>22.472240591421723</ele>
</trkpt>
<trkpt lat="35.863677501584164" lon="139.97012208705593">
<time>2026-06-02T09:08:29Z</time>
<ele>22.87368345540017</ele>
</trkpt>
<trkpt lat="35.86359625207082" lon="139.97018311152976">
<time>2026-06-02T09:08:37Z</time>
<ele>22.92257576622069</ele>
</trkpt>
<trkpt lat="35.86350218321175" lon="139.97021425098575">
<time>2026-06-02T09:08:44Z</time>
<ele>23.641970617696643</ele>
</trkpt>
<trkpt lat="35.863401755906665" lon="139.97025208186082">
<time>2026-06-02T09:08:53Z</time>
<ele>23.805512852966785</ele>
</trkpt>
<trkpt lat="35.86330239911511" lon="139.97029302051692">
<time>2026-06-02T09:09:02Z</time>
<ele>23.523775378242135</ele>
</trkpt>
<trkpt lat="35.86320715392941" lon="139.9702581276913">
<time>2026-06-02T09:09:10Z</time>
<ele>23.42178795207292</ele>
</trkpt>
<trkpt lat="35.86311365065147" lon="139.97026912973266">
<time>2026-06-02T09:09:16Z</time>
<ele>23.208072777837515</ele>
</trkpt>
<trkpt lat="35.86302360991948" lon="139.9702621440509">
<time>2026-06-02T09:09:22Z</time>
<ele>23.487935652956367</ele>
</trkpt>
<trkpt lat="35.86293294223431" lon="139.97024810640235">
<time>2026-06-02T09:09:29Z</time>
<ele>23.798094213940203</ele>
</trkpt>
<trkpt lat="35.86278493166502" lon="139.9702782626714">
<time>2026-06-02T09:10:44Z</time>
<ele>24.457412589341402</ele>
</trkpt>
<trkpt lat="35.86268679759628" lon="139.97009093225495">
<time>2026-06-02T09:11:11Z</time>
<ele>21.753009796142578</ele>
</trkpt>
<trkpt lat="35.862627359259164" lon="139.97020400278498">
<time>2026-06-02T09:11:14Z</time>
<ele>24.590359969064593</ele>
</trkpt>
<trkpt lat="35.862591324657004" lon="139.97032041005332">
<time>2026-06-02T09:11:15Z</time>
<ele>24.66429613623768</ele>
</trkpt>
<trkpt lat="35.86250578582358" lon="139.97042660925916">
<time>2026-06-02T09:11:16Z</time>
<ele>25.120936921797693</ele>
</trkpt>
<trkpt lat="35.86250439279411" lon="139.97056819558298">
<time>2026-06-02T09:11:17Z</time>
<ele>25.05780099797994</ele>
</trkpt>
<trkpt lat="35.86246872604424" lon="139.9707873867478">
<time>2026-06-02T09:11:24Z</time>
<ele>25.829290378838778</ele>
</trkpt>
<trkpt lat="35.862456131614614" lon="139.97091285597352">
<time>2026-06-02T09:11:27Z</time>
<ele>26.37144284043461</ele>
</trkpt>
<trkpt lat="35.86243916562162" lon="139.97102518521433">
<time>2026-06-02T09:11:31Z</time>
<ele>26.65542062651366</ele>
</trkpt>
<trkpt lat="35.86241097462862" lon="139.97113089665788">
<time>2026-06-02T09:11:36Z</time>
<ele>26.915580411441624</ele>
</trkpt>
<trkpt lat="35.8623513146676" lon="139.97122223424066">
<time>2026-06-02T09:11:48Z</time>
<ele>26.903814484365284</ele>
</trkpt>
<trkpt lat="35.86229186811764" lon="139.97133752769187">
<time>2026-06-02T09:11:55Z</time>
<ele>26.92655842937529</ele>
</trkpt>
<trkpt lat="35.86231778285659" lon="139.9714452149401">
<time>2026-06-02T09:11:59Z</time>
<ele>27.517903538420796</ele>
</trkpt>
</trkseg>
</trk>
</gpx>