<?xml version="1.0" encoding="UTF-8"?>
<gpx version="1.1" creator="RouteHistory - https://www.ateow.com" xmlns="http://www.topografix.com/GPX/1/1" xmlns:rh="http://www.ateow.com/routehistory">
<trk>
<trkseg>
<trkpt lat="35.86224413740454" lon="139.971661247863">
<time>2026-06-02T08:28:11Z</time>
<ele>67.40528570488095</ele>
</trkpt>
<trkpt lat="35.862202131850246" lon="139.9716076291008">
<time>2026-06-02T08:28:29Z</time>
<ele>64.89007920119911</ele>
</trkpt>
<trkpt lat="35.86210466935192" lon="139.97160144877847">
<time>2026-06-02T08:28:42Z</time>
<ele>62.50510124862194</ele>
</trkpt>
<trkpt lat="35.86200936911793" lon="139.9716279576243">
<time>2026-06-02T08:28:54Z</time>
<ele>61.22475417051464</ele>
</trkpt>
<trkpt lat="35.86192191500936" lon="139.9715734855737">
<time>2026-06-02T08:29:07Z</time>
<ele>59.315669174306095</ele>
</trkpt>
<trkpt lat="35.86192686582583" lon="139.9716860236677">
<time>2026-06-02T08:29:17Z</time>
<ele>38.85298436600715</ele>
</trkpt>
<trkpt lat="35.86186344839718" lon="139.97176999565514">
<time>2026-06-02T08:29:32Z</time>
<ele>25.40438347030431</ele>
</trkpt>
<trkpt lat="35.861796346521324" lon="139.97184464376093">
<time>2026-06-02T08:29:49Z</time>
<ele>25.982788138091564</ele>
</trkpt>
<trkpt lat="35.86173108810631" lon="139.97192230301116">
<time>2026-06-02T08:29:59Z</time>
<ele>27.24643421266228</ele>
</trkpt>
<trkpt lat="35.86164438850779" lon="139.97198898661821">
<time>2026-06-02T08:30:05Z</time>
<ele>26.66920781787485</ele>
</trkpt>
<trkpt lat="35.861587391511165" lon="139.9720927891449">
<time>2026-06-02T08:30:11Z</time>
<ele>27.157118145376444</ele>
</trkpt>
<trkpt lat="35.861546179180856" lon="139.97219474496006">
<time>2026-06-02T08:30:26Z</time>
<ele>27.08390207402408</ele>
</trkpt>
<trkpt lat="35.86147495360793" lon="139.97226572713257">
<time>2026-06-02T08:30:37Z</time>
<ele>27.15692358184606</ele>
</trkpt>
<trkpt lat="35.861403690975784" lon="139.97235158399988">
<time>2026-06-02T08:30:47Z</time>
<ele>27.239794025197625</ele>
</trkpt>
<trkpt lat="35.861329081746575" lon="139.97243873238767">
<time>2026-06-02T08:30:56Z</time>
<ele>27.156489589251578</ele>
</trkpt>
<trkpt lat="35.86127783274269" lon="139.9725407869692">
<time>2026-06-02T08:31:06Z</time>
<ele>27.179928205907345</ele>
</trkpt>
<trkpt lat="35.86121757367718" lon="139.9726324444571">
<time>2026-06-02T08:31:14Z</time>
<ele>27.127997058443725</ele>
</trkpt>
<trkpt lat="35.861174477012845" lon="139.9727405061577">
<time>2026-06-02T08:31:23Z</time>
<ele>26.916425910778344</ele>
</trkpt>
<trkpt lat="35.86114505192553" lon="139.97285072089176">
<time>2026-06-02T08:31:32Z</time>
<ele>27.248769727535546</ele>
</trkpt>
<trkpt lat="35.861093826603415" lon="139.97294685019634">
<time>2026-06-02T08:31:41Z</time>
<ele>27.27124590333551</ele>
</trkpt>
<trkpt lat="35.861028992435855" lon="139.97302613471646">
<time>2026-06-02T08:31:49Z</time>
<ele>27.479275085031986</ele>
</trkpt>
<trkpt lat="35.86095992146616" lon="139.9731211483671">
<time>2026-06-02T08:31:58Z</time>
<ele>27.109016085974872</ele>
</trkpt>
<trkpt lat="35.86089264555466" lon="139.9732041973935">
<time>2026-06-02T08:32:07Z</time>
<ele>27.142509987577796</ele>
</trkpt>
<trkpt lat="35.86081665065476" lon="139.97328174976732">
<time>2026-06-02T08:32:23Z</time>
<ele>27.55936923623085</ele>
</trkpt>
<trkpt lat="35.86075468412539" lon="139.9733725928966">
<time>2026-06-02T08:32:34Z</time>
<ele>26.268643526360393</ele>
</trkpt>
<trkpt lat="35.86067707889169" lon="139.9734525491714">
<time>2026-06-02T08:32:43Z</time>
<ele>25.628587076440454</ele>
</trkpt>
<trkpt lat="35.860593247705346" lon="139.97352184246972">
<time>2026-06-02T08:32:52Z</time>
<ele>26.63997101224959</ele>
</trkpt>
<trkpt lat="35.86054356544338" lon="139.97362882441814">
<time>2026-06-02T08:33:02Z</time>
<ele>26.941432552412152</ele>
</trkpt>
<trkpt lat="35.86043548560073" lon="139.9736569831261">
<time>2026-06-02T08:33:11Z</time>
<ele>26.563534430228174</ele>
</trkpt>
<trkpt lat="35.860355666750124" lon="139.97359651162327">
<time>2026-06-02T08:33:26Z</time>
<ele>26.29475844837725</ele>
</trkpt>
<trkpt lat="35.860261909240265" lon="139.97362254860582">
<time>2026-06-02T08:34:45Z</time>
<ele>26.953814793378115</ele>
</trkpt>
<trkpt lat="35.86018869006936" lon="139.9735416573162">
<time>2026-06-02T08:34:57Z</time>
<ele>27.107410757802427</ele>
</trkpt>
<trkpt lat="35.86009742597209" lon="139.97352364930308">
<time>2026-06-02T08:35:10Z</time>
<ele>27.12562665436417</ele>
</trkpt>
<trkpt lat="35.86001366051038" lon="139.97357029987165">
<time>2026-06-02T08:35:59Z</time>
<ele>27.049459100700915</ele>
</trkpt>
<trkpt lat="35.85993857453878" lon="139.9736332849946">
<time>2026-06-02T08:36:11Z</time>
<ele>26.99240528419614</ele>
</trkpt>
<trkpt lat="35.85999246115877" lon="139.97372485882852">
<time>2026-06-02T08:36:20Z</time>
<ele>26.914769483730197</ele>
</trkpt>
<trkpt lat="35.860094282107845" lon="139.97370275200947">
<time>2026-06-02T08:36:41Z</time>
<ele>26.798373678699136</ele>
</trkpt>
<trkpt lat="35.86016883080261" lon="139.97363736960034">
<time>2026-06-02T08:36:52Z</time>
<ele>26.806674828752875</ele>
</trkpt>
<trkpt lat="35.860264051712356" lon="139.97365822212177">
<time>2026-06-02T08:37:09Z</time>
<ele>26.9003204703331</ele>
</trkpt>
<trkpt lat="35.860324936812695" lon="139.9735683017925">
<time>2026-06-02T08:38:00Z</time>
<ele>26.95164766162634</ele>
</trkpt>
<trkpt lat="35.86041357938407" lon="139.97353473004057">
<time>2026-06-02T08:38:11Z</time>
<ele>26.68249199166894</ele>
</trkpt>
<trkpt lat="35.860486582195776" lon="139.9734620167129">
<time>2026-06-02T08:38:19Z</time>
<ele>26.85940234642476</ele>
</trkpt>
<trkpt lat="35.86055709210693" lon="139.97338598650853">
<time>2026-06-02T08:38:28Z</time>
<ele>26.74580953363329</ele>
</trkpt>
<trkpt lat="35.860619823094446" lon="139.97330480668836">
<time>2026-06-02T08:38:38Z</time>
<ele>26.722619354724884</ele>
</trkpt>
<trkpt lat="35.86070476765759" lon="139.97324629717693">
<time>2026-06-02T08:38:45Z</time>
<ele>27.184223188087344</ele>
</trkpt>
<trkpt lat="35.860769947185254" lon="139.97315641417387">
<time>2026-06-02T08:38:53Z</time>
<ele>26.977586741559207</ele>
</trkpt>
<trkpt lat="35.860826063694645" lon="139.9730604491328">
<time>2026-06-02T08:39:01Z</time>
<ele>26.66396903526038</ele>
</trkpt>
<trkpt lat="35.860886663244884" lon="139.97297684733942">
<time>2026-06-02T08:39:09Z</time>
<ele>26.318259841762483</ele>
</trkpt>
<trkpt lat="35.86094015595482" lon="139.97287950818375">
<time>2026-06-02T08:39:21Z</time>
<ele>26.946271553635597</ele>
</trkpt>
<trkpt lat="35.86099758809817" lon="139.97279163529603">
<time>2026-06-02T08:39:29Z</time>
<ele>27.102533273398876</ele>
</trkpt>
<trkpt lat="35.86106129915192" lon="139.97270265566007">
<time>2026-06-02T08:39:38Z</time>
<ele>26.739940193481743</ele>
</trkpt>
<trkpt lat="35.86113460945896" lon="139.97260283972545">
<time>2026-06-02T08:39:47Z</time>
<ele>27.259482257068157</ele>
</trkpt>
<trkpt lat="35.86120100912801" lon="139.97252001925668">
<time>2026-06-02T08:39:55Z</time>
<ele>26.974766205064952</ele>
</trkpt>
<trkpt lat="35.86128311047127" lon="139.97245027605692">
<time>2026-06-02T08:40:05Z</time>
<ele>27.400693194009364</ele>
</trkpt>
<trkpt lat="35.86135655228714" lon="139.97238570460993">
<time>2026-06-02T08:40:14Z</time>
<ele>26.94600599166006</ele>
</trkpt>
<trkpt lat="35.86138915974298" lon="139.97228016601062">
<time>2026-06-02T08:40:21Z</time>
<ele>26.82611255068332</ele>
</trkpt>
<trkpt lat="35.86148109585555" lon="139.97226761864442">
<time>2026-06-02T08:40:30Z</time>
<ele>27.383367395028472</ele>
</trkpt>
<trkpt lat="35.86157109357287" lon="139.97223445158278">
<time>2026-06-02T08:40:42Z</time>
<ele>27.061275276355445</ele>
</trkpt>
<trkpt lat="35.86162007546128" lon="139.9721312676826">
<time>2026-06-02T08:40:52Z</time>
<ele>26.90183249209076</ele>
</trkpt>
<trkpt lat="35.86168478170021" lon="139.97204928853725">
<time>2026-06-02T08:41:03Z</time>
<ele>27.121444162912667</ele>
</trkpt>
<trkpt lat="35.86159673338806" lon="139.97199437435805">
<time>2026-06-02T08:41:31Z</time>
<ele>27.35012676101178</ele>
</trkpt>
<trkpt lat="35.861500252675256" lon="139.97202234628415">
<time>2026-06-02T08:42:04Z</time>
<ele>27.471728270873427</ele>
</trkpt>
<trkpt lat="35.8613774419571" lon="139.97197929502994">
<time>2026-06-02T08:42:11Z</time>
<ele>27.55725772958249</ele>
</trkpt>
<trkpt lat="35.861286926707194" lon="139.97193331524846">
<time>2026-06-02T08:42:15Z</time>
<ele>27.165568698197603</ele>
</trkpt>
<trkpt lat="35.86120559371153" lon="139.97186380482768">
<time>2026-06-02T08:42:22Z</time>
<ele>26.615802876651287</ele>
</trkpt>
<trkpt lat="35.86115436788791" lon="139.97176811633065">
<time>2026-06-02T08:42:28Z</time>
<ele>27.020103465765715</ele>
</trkpt>
<trkpt lat="35.861236588573526" lon="139.9718284814497">
<time>2026-06-02T08:42:45Z</time>
<ele>26.80938319116831</ele>
</trkpt>
<trkpt lat="35.86128865174071" lon="139.97192634415623">
<time>2026-06-02T08:42:57Z</time>
<ele>27.005698825232685</ele>
</trkpt>
<trkpt lat="35.86143218164277" lon="139.97188167427242">
<time>2026-06-02T08:43:18Z</time>
<ele>26.757416177541018</ele>
</trkpt>
<trkpt lat="35.86142027664507" lon="139.97204392355235">
<time>2026-06-02T08:43:20Z</time>
<ele>26.61189584620297</ele>
</trkpt>
<trkpt lat="35.8614602347577" lon="139.9721461246813">
<time>2026-06-02T08:43:26Z</time>
<ele>27.302267680875957</ele>
</trkpt>
<trkpt lat="35.86152430155262" lon="139.97205669748124">
<time>2026-06-02T08:43:29Z</time>
<ele>26.711005651392043</ele>
</trkpt>
<trkpt lat="35.86160112229157" lon="139.9719865224902">
<time>2026-06-02T08:43:33Z</time>
<ele>27.20437633153051</ele>
</trkpt>
<trkpt lat="35.86167900612813" lon="139.97192201561845">
<time>2026-06-02T08:43:36Z</time>
<ele>27.285107272677124</ele>
</trkpt>
<trkpt lat="35.86175856187883" lon="139.97186136871903">
<time>2026-06-02T08:43:44Z</time>
<ele>27.00338767375797</ele>
</trkpt>
<trkpt lat="35.86184524893932" lon="139.9718270461506">
<time>2026-06-02T08:44:01Z</time>
<ele>27.780415508896112</ele>
</trkpt>
<trkpt lat="35.861719898818414" lon="139.97193653198264">
<time>2026-06-02T08:44:29Z</time>
<ele>30.18877639658494</ele>
</trkpt>
<trkpt lat="35.861797355703814" lon="139.9718604517867">
<time>2026-06-02T08:44:45Z</time>
<ele>40.830291748046875</ele>
</trkpt>
<trkpt lat="35.86198175101262" lon="139.9717156803953">
<time>2026-06-02T08:45:00Z</time>
<ele>36.77560429740697</ele>
</trkpt>
<trkpt lat="35.86213711928484" lon="139.97157884114017">
<time>2026-06-02T08:45:04Z</time>
<ele>33.44259669352323</ele>
</trkpt>
<trkpt lat="35.86221099797137" lon="139.97150083659932">
<time>2026-06-02T08:45:13Z</time>
<ele>29.615020863711834</ele>
</trkpt>
<trkpt lat="35.86227728024556" lon="139.97140216992085">
<time>2026-06-02T08:45:19Z</time>
<ele>27.12559919990599</ele>
</trkpt>
<trkpt lat="35.86229164771542" lon="139.97127218990764">
<time>2026-06-02T08:45:31Z</time>
<ele>27.27601625677198</ele>
</trkpt>
<trkpt lat="35.86234849382894" lon="139.97118513435308">
<time>2026-06-02T08:45:39Z</time>
<ele>26.749247329309583</ele>
</trkpt>
<trkpt lat="35.86238989498157" lon="139.97106500383887">
<time>2026-06-02T08:45:44Z</time>
<ele>26.670250048860908</ele>
</trkpt>
<trkpt lat="35.862454529559784" lon="139.97098207907723">
<time>2026-06-02T08:45:50Z</time>
<ele>27.385716188699007</ele>
</trkpt>
<trkpt lat="35.86257510486173" lon="139.970642707861">
<time>2026-06-02T08:46:29Z</time>
<ele>29.376219265302495</ele>
</trkpt>
<trkpt lat="35.862617310267055" lon="139.97054255983744">
<time>2026-06-02T08:46:31Z</time>
<ele>30.991895294189447</ele>
</trkpt>
<trkpt lat="35.86265073938428" lon="139.97043929588355">
<time>2026-06-02T08:46:42Z</time>
<ele>25.8013487290591</ele>
</trkpt>
<trkpt lat="35.862732298817" lon="139.97038655369647">
<time>2026-06-02T08:46:44Z</time>
<ele>25.595190785825253</ele>
</trkpt>
<trkpt lat="35.86266081341283" lon="139.97031773233834">
<time>2026-06-02T08:47:05Z</time>
<ele>24.878405595198274</ele>
</trkpt>
<trkpt lat="35.8626301367654" lon="139.97019836836768">
<time>2026-06-02T08:47:12Z</time>
<ele>24.44490351434797</ele>
</trkpt>
<trkpt lat="35.86255393889841" lon="139.9701284923014">
<time>2026-06-02T08:47:26Z</time>
<ele>23.880898184143007</ele>
</trkpt>
<trkpt lat="35.86248297315607" lon="139.9700527722871">
<time>2026-06-02T08:47:32Z</time>
<ele>23.873381096869707</ele>
</trkpt>
<trkpt lat="35.862400266599266" lon="139.97000648463265">
<time>2026-06-02T08:47:41Z</time>
<ele>23.731104168109596</ele>
</trkpt>
<trkpt lat="35.86230109183329" lon="139.96998679148612">
<time>2026-06-02T08:47:51Z</time>
<ele>24.227026041597128</ele>
</trkpt>
<trkpt lat="35.86220233346608" lon="139.9699858685419">
<time>2026-06-02T08:48:14Z</time>
<ele>24.828283635899425</ele>
</trkpt>
<trkpt lat="35.862260821199655" lon="139.97008202117743">
<time>2026-06-02T08:48:22Z</time>
<ele>23.32279472053051</ele>
</trkpt>
<trkpt lat="35.86235254318393" lon="139.9700989001816">
<time>2026-06-02T08:48:33Z</time>
<ele>23.76945615094155</ele>
</trkpt>
<trkpt lat="35.862423290272616" lon="139.97017671708448">
<time>2026-06-02T08:48:45Z</time>
<ele>24.764737019315362</ele>
</trkpt>
<trkpt lat="35.862490010864306" lon="139.9702600567695">
<time>2026-06-02T08:48:55Z</time>
<ele>24.23463685531169</ele>
</trkpt>
<trkpt lat="35.86256441611392" lon="139.9703244156756">
<time>2026-06-02T08:49:03Z</time>
<ele>24.70107438415289</ele>
</trkpt>
<trkpt lat="35.86267782640823" lon="139.9703237540048">
<time>2026-06-02T08:49:09Z</time>
<ele>24.694035585038364</ele>
</trkpt>
<trkpt lat="35.8626919104808" lon="139.97045728512356">
<time>2026-06-02T08:49:20Z</time>
<ele>24.7792986119166</ele>
</trkpt>
<trkpt lat="35.862728892859046" lon="139.97009617289524">
<time>2026-06-02T08:49:24Z</time>
<ele>65.22116090729833</ele>
</trkpt>
<trkpt lat="35.86242177295695" lon="139.9707042452215">
<time>2026-06-02T08:49:39Z</time>
<ele>21.753032684326172</ele>
</trkpt>
<trkpt lat="35.862387280261416" lon="139.97087099867338">
<time>2026-06-02T08:49:46Z</time>
<ele>21.51021385207808</ele>
</trkpt>
<trkpt lat="35.862419283050755" lon="139.97103927444994">
<time>2026-06-02T08:49:51Z</time>
<ele>28.5529328918457</ele>
</trkpt>
<trkpt lat="35.862348919418245" lon="139.9711158363893">
<time>2026-06-02T08:50:10Z</time>
<ele>26.39415491744876</ele>
</trkpt>
<trkpt lat="35.86231645787574" lon="139.97124279904463">
<time>2026-06-02T08:50:21Z</time>
<ele>27.25933458749205</ele>
</trkpt>
<trkpt lat="35.86229057438718" lon="139.97137244119094">
<time>2026-06-02T08:50:34Z</time>
<ele>27.09844981506467</ele>
</trkpt>
<trkpt lat="35.86217606175332" lon="139.97135894667483">
<time>2026-06-02T08:50:55Z</time>
<ele>27.318500083871186</ele>
</trkpt>
<trkpt lat="35.86209162864954" lon="139.97127722702947">
<time>2026-06-02T08:51:06Z</time>
<ele>26.51632212102413</ele>
</trkpt>
<trkpt lat="35.86200734139365" lon="139.97123793918922">
<time>2026-06-02T08:51:14Z</time>
<ele>26.81060860771686</ele>
</trkpt>
<trkpt lat="35.861917876538215" lon="139.9711944447646">
<time>2026-06-02T08:51:27Z</time>
<ele>26.639638893306255</ele>
</trkpt>
<trkpt lat="35.861855505738994" lon="139.97128828862793">
<time>2026-06-02T08:51:38Z</time>
<ele>26.549933369271457</ele>
</trkpt>
<trkpt lat="35.86190694472451" lon="139.97138076612256">
<time>2026-06-02T08:51:58Z</time>
<ele>25.951333220116794</ele>
</trkpt>
<trkpt lat="35.861818990507096" lon="139.9714074347488">
<time>2026-06-02T08:52:17Z</time>
<ele>26.830258447676897</ele>
</trkpt>
<trkpt lat="35.861742134449486" lon="139.97133981808824">
<time>2026-06-02T08:52:28Z</time>
<ele>27.165442972443998</ele>
</trkpt>
<trkpt lat="35.86167624619623" lon="139.9712638444386">
<time>2026-06-02T08:52:38Z</time>
<ele>26.263318899087608</ele>
</trkpt>
<trkpt lat="35.86158654758699" lon="139.97127992269492">
<time>2026-06-02T08:52:59Z</time>
<ele>26.680453922599554</ele>
</trkpt>
<trkpt lat="35.86149386312951" lon="139.97124578112724">
<time>2026-06-02T08:53:15Z</time>
<ele>26.572020002640784</ele>
</trkpt>
<trkpt lat="35.86140139653267" lon="139.97126158969797">
<time>2026-06-02T08:53:22Z</time>
<ele>26.849258623085916</ele>
</trkpt>
<trkpt lat="35.861379273018834" lon="139.9711321133583">
<time>2026-06-02T08:53:24Z</time>
<ele>26.778522474691272</ele>
</trkpt>
<trkpt lat="35.86139560541964" lon="139.97098546850677">
<time>2026-06-02T08:53:27Z</time>
<ele>26.86714352387935</ele>
</trkpt>
<trkpt lat="35.861323749149165" lon="139.9709035480255">
<time>2026-06-02T08:53:31Z</time>
<ele>26.559964501298964</ele>
</trkpt>
<trkpt lat="35.86123639528783" lon="139.9708569995875">
<time>2026-06-02T08:53:41Z</time>
<ele>25.265633172355592</ele>
</trkpt>
<trkpt lat="35.86115781285634" lon="139.97079466581243">
<time>2026-06-02T08:53:50Z</time>
<ele>25.693192563019693</ele>
</trkpt>
<trkpt lat="35.861111080139665" lon="139.9708957070091">
<time>2026-06-02T08:54:09Z</time>
<ele>25.151369555853307</ele>
</trkpt>
<trkpt lat="35.861028784583524" lon="139.9709436848665">
<time>2026-06-02T08:54:29Z</time>
<ele>25.30307221226394</ele>
</trkpt>
<trkpt lat="35.86108022606892" lon="139.97082698959505">
<time>2026-06-02T08:54:48Z</time>
<ele>43.92440822720528</ele>
</trkpt>
<trkpt lat="35.86097949984066" lon="139.97074962896755">
<time>2026-06-02T08:55:11Z</time>
<ele>46.85691454719296</ele>
</trkpt>
<trkpt lat="35.860941062250696" lon="139.97058620356205">
<time>2026-06-02T08:55:22Z</time>
<ele>25.115790584248018</ele>
</trkpt>
<trkpt lat="35.861005856878464" lon="139.97067332652915">
<time>2026-06-02T08:55:25Z</time>
<ele>25.223094712320673</ele>
</trkpt>
<trkpt lat="35.86091997825166" lon="139.97082787568786">
<time>2026-06-02T08:55:47Z</time>
<ele>24.81215708516538</ele>
</trkpt>
<trkpt lat="35.86088954879021" lon="139.97080404850766">
<time>2026-06-02T08:55:56Z</time>
<ele>24.610817631706595</ele>
</trkpt>
<trkpt lat="35.86091878490197" lon="139.97069514501746">
<time>2026-06-02T08:56:03Z</time>
<ele>23.790679950267076</ele>
</trkpt>
<trkpt lat="35.86090966752113" lon="139.9705795093223">
<time>2026-06-02T08:56:07Z</time>
<ele>24.04196169041097</ele>
</trkpt>
<trkpt lat="35.86091036184375" lon="139.9704623886065">
<time>2026-06-02T08:56:24Z</time>
<ele>24.21755983494222</ele>
</trkpt>
<trkpt lat="35.860938374424855" lon="139.9703426795896">
<time>2026-06-02T08:56:31Z</time>
<ele>22.790798344649374</ele>
</trkpt>
<trkpt lat="35.86093270986241" lon="139.97045345878723">
<time>2026-06-02T08:56:52Z</time>
<ele>24.266448993235826</ele>
</trkpt>
<trkpt lat="35.86088649205336" lon="139.97072924524824">
<time>2026-06-02T08:58:29Z</time>
<ele>21.753623962402344</ele>
</trkpt>
<trkpt lat="35.86096934614194" lon="139.97077374713243">
<time>2026-06-02T08:58:58Z</time>
<ele>22.676478331394236</ele>
</trkpt>
<trkpt lat="35.861018081850254" lon="139.97089525618574">
<time>2026-06-02T08:59:10Z</time>
<ele>27.941951863860197</ele>
</trkpt>
<trkpt lat="35.860936576718565" lon="139.97100460641332">
<time>2026-06-02T08:59:16Z</time>
<ele>28.33395523071289</ele>
</trkpt>
<trkpt lat="35.860949490515644" lon="139.97088957910927">
<time>2026-06-02T08:59:40Z</time>
<ele>25.290661165490746</ele>
</trkpt>
<trkpt lat="35.861045630165854" lon="139.97089515036555">
<time>2026-06-02T08:59:50Z</time>
<ele>24.94354721251875</ele>
</trkpt>
<trkpt lat="35.861150275701156" lon="139.97091730691133">
<time>2026-06-02T08:59:59Z</time>
<ele>25.260528510436416</ele>
</trkpt>
<trkpt lat="35.86125622731108" lon="139.97092151394352">
<time>2026-06-02T09:00:06Z</time>
<ele>25.48246889654547</ele>
</trkpt>
<trkpt lat="35.86135039836655" lon="139.9709697366843">
<time>2026-06-02T09:00:11Z</time>
<ele>25.68276549037546</ele>
</trkpt>
<trkpt lat="35.86143707452376" lon="139.9710159585834">
<time>2026-06-02T09:00:19Z</time>
<ele>26.188711434602737</ele>
</trkpt>
<trkpt lat="35.86154268389183" lon="139.97107886873798">
<time>2026-06-02T09:00:30Z</time>
<ele>26.35971220675856</ele>
</trkpt>
<trkpt lat="35.86160349567171" lon="139.97119361301478">
<time>2026-06-02T09:00:43Z</time>
<ele>26.794882455840707</ele>
</trkpt>
<trkpt lat="35.86167173987146" lon="139.9712914869006">
<time>2026-06-02T09:00:50Z</time>
<ele>26.86954532470554</ele>
</trkpt>
<trkpt lat="35.86176201931982" lon="139.97136298001843">
<time>2026-06-02T09:00:56Z</time>
<ele>26.62135735247284</ele>
</trkpt>
<trkpt lat="35.8618239339179" lon="139.97144524596595">
<time>2026-06-02T09:01:07Z</time>
<ele>26.98668774217367</ele>
</trkpt>
<trkpt lat="35.86190498909708" lon="139.9713903702745">
<time>2026-06-02T09:01:17Z</time>
<ele>26.904509938322008</ele>
</trkpt>
<trkpt lat="35.861898403605615" lon="139.97127738987075">
<time>2026-06-02T09:01:39Z</time>
<ele>27.460250670090318</ele>
</trkpt>
<trkpt lat="35.86194647892002" lon="139.9711787894842">
<time>2026-06-02T09:01:48Z</time>
<ele>27.553696144372225</ele>
</trkpt>
<trkpt lat="35.862022114800425" lon="139.97123961338494">
<time>2026-06-02T09:01:59Z</time>
<ele>27.22951413318515</ele>
</trkpt>
<trkpt lat="35.86209847251552" lon="139.97129879247348">
<time>2026-06-02T09:02:08Z</time>
<ele>26.850456094369292</ele>
</trkpt>
<trkpt lat="35.86218457246011" lon="139.9713552476798">
<time>2026-06-02T09:02:18Z</time>
<ele>27.50124755129218</ele>
</trkpt>
<trkpt lat="35.86224410899797" lon="139.97144174432722">
<time>2026-06-02T09:02:29Z</time>
<ele>27.083062102086842</ele>
</trkpt>
<trkpt lat="35.86221181325229" lon="139.97162670841436">
<time>2026-06-02T09:02:42Z</time>
<ele>34.582977294921875</ele>
</trkpt>
<trkpt lat="35.862262963233796" lon="139.97146272359714">
<time>2026-06-02T09:02:43Z</time>
<ele>27.065727038308978</ele>
</trkpt>
<trkpt lat="35.862209301973735" lon="139.9715581783476">
<time>2026-06-02T09:03:05Z</time>
<ele>26.792988090775907</ele>
</trkpt>
<trkpt lat="35.86220004771684" lon="139.97167494477873">
<time>2026-06-02T09:03:22Z</time>
<ele>27.188827857375145</ele>
</trkpt>
<trkpt lat="35.86215752076134" lon="139.97177456795748">
<time>2026-06-02T09:03:30Z</time>
<ele>27.160044968128204</ele>
</trkpt>
<trkpt lat="35.86220627101903" lon="139.97187189235026">
<time>2026-06-02T09:12:12Z</time>
<ele>27.91399248316884</ele>
</trkpt>
</trkseg>
</trk>
</gpx>