<?xml version="1.0" encoding="UTF-8"?>
<gpx version="1.1" creator="RouteHistory - https://www.ateow.com" xmlns="http://www.topografix.com/GPX/1/1" xmlns:rh="http://www.ateow.com/routehistory">
<trk>
<trkseg>
<trkpt lat="35.86235299833275" lon="139.97154561325888">
<time>2026-06-02T08:28:08Z</time>
<ele>28.49576197285205</ele>
</trkpt>
<trkpt lat="35.86226246080588" lon="139.97147735207548">
<time>2026-06-02T08:28:30Z</time>
<ele>28.70076929591596</ele>
</trkpt>
<trkpt lat="35.86229059561446" lon="139.97137161406582">
<time>2026-06-02T08:28:38Z</time>
<ele>27.613681727088988</ele>
</trkpt>
<trkpt lat="35.862329719689335" lon="139.97126423884487">
<time>2026-06-02T08:28:45Z</time>
<ele>27.182860542088747</ele>
</trkpt>
<trkpt lat="35.862360587122815" lon="139.97113725046498">
<time>2026-06-02T08:28:51Z</time>
<ele>27.107305580750108</ele>
</trkpt>
<trkpt lat="35.86242094531154" lon="139.97104134084177">
<time>2026-06-02T08:29:00Z</time>
<ele>27.084668868221343</ele>
</trkpt>
<trkpt lat="35.8624855624542" lon="139.970963872941">
<time>2026-06-02T08:29:10Z</time>
<ele>26.51984907872975</ele>
</trkpt>
<trkpt lat="35.86271129067914" lon="139.97036835491565">
<time>2026-06-02T08:29:29Z</time>
<ele>21.868880304666455</ele>
</trkpt>
<trkpt lat="35.862786415449406" lon="139.97087530997692">
<time>2026-06-02T08:29:47Z</time>
<ele>26.612780237570405</ele>
</trkpt>
<trkpt lat="35.862778985118055" lon="139.97060759545982">
<time>2026-06-02T08:29:48Z</time>
<ele>25.98298627510667</ele>
</trkpt>
<trkpt lat="35.86278343677723" lon="139.97048059459223">
<time>2026-06-02T08:29:50Z</time>
<ele>25.560373381711543</ele>
</trkpt>
<trkpt lat="35.862731612625225" lon="139.97035377323576">
<time>2026-06-02T08:29:54Z</time>
<ele>25.18104508612305</ele>
</trkpt>
<trkpt lat="35.862780065570554" lon="139.9701765174315">
<time>2026-06-02T08:30:21Z</time>
<ele>23.731966322287917</ele>
</trkpt>
<trkpt lat="35.86277610309858" lon="139.97006213938303">
<time>2026-06-02T08:30:34Z</time>
<ele>21.66252312064171</ele>
</trkpt>
<trkpt lat="35.862817081416516" lon="139.96996028114145">
<time>2026-06-02T08:30:40Z</time>
<ele>22.166871112771332</ele>
</trkpt>
<trkpt lat="35.862849154001935" lon="139.96984784668135">
<time>2026-06-02T08:30:46Z</time>
<ele>23.205702159553766</ele>
</trkpt>
<trkpt lat="35.862887707394776" lon="139.969745044495">
<time>2026-06-02T08:30:52Z</time>
<ele>23.29778935853392</ele>
</trkpt>
<trkpt lat="35.862909118410066" lon="139.96963237810223">
<time>2026-06-02T08:30:58Z</time>
<ele>22.953442757949233</ele>
</trkpt>
<trkpt lat="35.86293390802798" lon="139.96951724167286">
<time>2026-06-02T08:31:05Z</time>
<ele>22.637268946506083</ele>
</trkpt>
<trkpt lat="35.86297737250269" lon="139.96941755649956">
<time>2026-06-02T08:31:11Z</time>
<ele>21.772981284186244</ele>
</trkpt>
<trkpt lat="35.863009281690715" lon="139.96930313243345">
<time>2026-06-02T08:31:19Z</time>
<ele>22.090759101323783</ele>
</trkpt>
<trkpt lat="35.86304259988153" lon="139.9691988290221">
<time>2026-06-02T08:31:26Z</time>
<ele>22.001336722634733</ele>
</trkpt>
<trkpt lat="35.86310160876054" lon="139.96909344113104">
<time>2026-06-02T08:31:34Z</time>
<ele>22.0608814926818</ele>
</trkpt>
<trkpt lat="35.863159568096656" lon="139.9689999598135">
<time>2026-06-02T08:31:42Z</time>
<ele>21.14623124152422</ele>
</trkpt>
<trkpt lat="35.86322446999746" lon="139.96891723749266">
<time>2026-06-02T08:31:49Z</time>
<ele>21.004293374717236</ele>
</trkpt>
<trkpt lat="35.86326530811536" lon="139.96881334486116">
<time>2026-06-02T08:31:55Z</time>
<ele>22.199975141324103</ele>
</trkpt>
<trkpt lat="35.863320519633966" lon="139.9687148542502">
<time>2026-06-02T08:32:02Z</time>
<ele>21.115798295475543</ele>
</trkpt>
<trkpt lat="35.86338564953334" lon="139.96863228256362">
<time>2026-06-02T08:32:09Z</time>
<ele>21.568853405304253</ele>
</trkpt>
<trkpt lat="35.86343990580012" lon="139.9685433709292">
<time>2026-06-02T08:32:16Z</time>
<ele>21.913580731488764</ele>
</trkpt>
<trkpt lat="35.863470384023785" lon="139.9684371637291">
<time>2026-06-02T08:32:24Z</time>
<ele>21.558915787376463</ele>
</trkpt>
<trkpt lat="35.86351626065823" lon="139.96833474298575">
<time>2026-06-02T08:32:32Z</time>
<ele>20.883252541534603</ele>
</trkpt>
<trkpt lat="35.86347650665427" lon="139.96822045014343">
<time>2026-06-02T08:32:49Z</time>
<ele>20.045320794917643</ele>
</trkpt>
<trkpt lat="35.863461066782854" lon="139.96810306703617">
<time>2026-06-02T08:32:59Z</time>
<ele>21.276484491303563</ele>
</trkpt>
<trkpt lat="35.8633725080526" lon="139.9680471409218">
<time>2026-06-02T08:33:09Z</time>
<ele>20.283674335107207</ele>
</trkpt>
<trkpt lat="35.863282566162376" lon="139.9680053025578">
<time>2026-06-02T08:33:16Z</time>
<ele>20.58537693042308</ele>
</trkpt>
<trkpt lat="35.863198958802386" lon="139.96795242261163">
<time>2026-06-02T08:33:23Z</time>
<ele>20.2744933180511</ele>
</trkpt>
<trkpt lat="35.86311040094738" lon="139.96793059308638">
<time>2026-06-02T08:33:30Z</time>
<ele>19.044876305386424</ele>
</trkpt>
<trkpt lat="35.863016649021084" lon="139.96788156402158">
<time>2026-06-02T08:33:37Z</time>
<ele>19.192309577018023</ele>
</trkpt>
<trkpt lat="35.86293294088548" lon="139.96781773054158">
<time>2026-06-02T08:33:44Z</time>
<ele>20.688642791472375</ele>
</trkpt>
<trkpt lat="35.86284261415554" lon="139.9677767908236">
<time>2026-06-02T08:33:51Z</time>
<ele>20.578271850012243</ele>
</trkpt>
<trkpt lat="35.86275351265141" lon="139.96774589783064">
<time>2026-06-02T08:33:58Z</time>
<ele>20.43340635765344</ele>
</trkpt>
<trkpt lat="35.86267478428739" lon="139.96768123586682">
<time>2026-06-02T08:34:05Z</time>
<ele>20.104020081460476</ele>
</trkpt>
<trkpt lat="35.86258045954503" lon="139.96767581551248">
<time>2026-06-02T08:34:12Z</time>
<ele>19.520614551380277</ele>
</trkpt>
<trkpt lat="35.862507620808046" lon="139.96758830365593">
<time>2026-06-02T08:34:19Z</time>
<ele>20.028063005767763</ele>
</trkpt>
<trkpt lat="35.86242769044927" lon="139.96752271183001">
<time>2026-06-02T08:34:27Z</time>
<ele>20.05731870420277</ele>
</trkpt>
<trkpt lat="35.86234964946428" lon="139.96744035131243">
<time>2026-06-02T08:34:45Z</time>
<ele>19.523528919555247</ele>
</trkpt>
<trkpt lat="35.86225706097415" lon="139.96742613303317">
<time>2026-06-02T08:34:53Z</time>
<ele>19.846543767489493</ele>
</trkpt>
<trkpt lat="35.86216564743663" lon="139.9674054306482">
<time>2026-06-02T08:35:02Z</time>
<ele>20.004009942524135</ele>
</trkpt>
<trkpt lat="35.86206438938419" lon="139.96734289324925">
<time>2026-06-02T08:35:16Z</time>
<ele>20.598386206664145</ele>
</trkpt>
<trkpt lat="35.8619786800197" lon="139.96726706013456">
<time>2026-06-02T08:35:23Z</time>
<ele>21.646896150894463</ele>
</trkpt>
<trkpt lat="35.86188584922134" lon="139.96724904848486">
<time>2026-06-02T08:35:30Z</time>
<ele>21.158396312966943</ele>
</trkpt>
<trkpt lat="35.86179212915306" lon="139.96723724411817">
<time>2026-06-02T08:35:38Z</time>
<ele>21.16942580230534</ele>
</trkpt>
<trkpt lat="35.861724264367425" lon="139.9671634301086">
<time>2026-06-02T08:35:44Z</time>
<ele>20.944119162857533</ele>
</trkpt>
<trkpt lat="35.861641553390484" lon="139.96710267646617">
<time>2026-06-02T08:35:55Z</time>
<ele>21.113713326863945</ele>
</trkpt>
<trkpt lat="35.86155623268512" lon="139.9670517019859">
<time>2026-06-02T08:36:02Z</time>
<ele>21.972423484548926</ele>
</trkpt>
<trkpt lat="35.86146017605124" lon="139.96702656030234">
<time>2026-06-02T08:36:11Z</time>
<ele>21.205734075047076</ele>
</trkpt>
<trkpt lat="35.861360248370154" lon="139.96697931628057">
<time>2026-06-02T08:36:19Z</time>
<ele>21.37335867714137</ele>
</trkpt>
<trkpt lat="35.86127314280285" lon="139.96693182967968">
<time>2026-06-02T08:36:27Z</time>
<ele>21.045589603483677</ele>
</trkpt>
<trkpt lat="35.86118601631227" lon="139.96687024967372">
<time>2026-06-02T08:36:35Z</time>
<ele>21.93674405105412</ele>
</trkpt>
<trkpt lat="35.86109927518091" lon="139.9668112527453">
<time>2026-06-02T08:36:43Z</time>
<ele>22.013880172744393</ele>
</trkpt>
<trkpt lat="35.86101244558507" lon="139.96676709936503">
<time>2026-06-02T08:36:50Z</time>
<ele>22.461676890961826</ele>
</trkpt>
<trkpt lat="35.8609262863234" lon="139.96672075298093">
<time>2026-06-02T08:36:59Z</time>
<ele>22.12913794349879</ele>
</trkpt>
<trkpt lat="35.860832774100665" lon="139.9666883539702">
<time>2026-06-02T08:37:08Z</time>
<ele>21.621609863825142</ele>
</trkpt>
<trkpt lat="35.86074780782616" lon="139.9666448643244">
<time>2026-06-02T08:37:15Z</time>
<ele>21.08568442426622</ele>
</trkpt>
<trkpt lat="35.86066114743996" lon="139.9665975602361">
<time>2026-06-02T08:37:23Z</time>
<ele>21.127420128323138</ele>
</trkpt>
<trkpt lat="35.860573705227225" lon="139.96655029585185">
<time>2026-06-02T08:37:30Z</time>
<ele>22.23278835695237</ele>
</trkpt>
<trkpt lat="35.86048619928823" lon="139.96650730734066">
<time>2026-06-02T08:37:37Z</time>
<ele>22.12134856544435</ele>
</trkpt>
<trkpt lat="35.860396837885034" lon="139.96647275261873">
<time>2026-06-02T08:37:46Z</time>
<ele>22.16633024904877</ele>
</trkpt>
<trkpt lat="35.86046336049375" lon="139.96654888798432">
<time>2026-06-02T08:38:18Z</time>
<ele>22.301938926801085</ele>
</trkpt>
<trkpt lat="35.8604153292965" lon="139.96645019544027">
<time>2026-06-02T08:38:22Z</time>
<ele>22.521752575412393</ele>
</trkpt>
<trkpt lat="35.860377203533886" lon="139.96632554585574">
<time>2026-06-02T08:38:31Z</time>
<ele>26.453078352319665</ele>
</trkpt>
<trkpt lat="35.86052826911634" lon="139.96631201226631">
<time>2026-06-02T08:38:36Z</time>
<ele>24.74222395196557</ele>
</trkpt>
<trkpt lat="35.860447502654" lon="139.96621559455377">
<time>2026-06-02T08:38:37Z</time>
<ele>24.051582854241133</ele>
</trkpt>
<trkpt lat="35.86039508440739" lon="139.9661163637969">
<time>2026-06-02T08:38:46Z</time>
<ele>23.036346931941807</ele>
</trkpt>
<trkpt lat="35.86047440472471" lon="139.96617165036997">
<time>2026-06-02T08:39:11Z</time>
<ele>21.58929001353681</ele>
</trkpt>
<trkpt lat="35.86057047661701" lon="139.96624439948303">
<time>2026-06-02T08:39:29Z</time>
<ele>21.962145436555147</ele>
</trkpt>
<trkpt lat="35.86050695253942" lon="139.96635698347194">
<time>2026-06-02T08:39:40Z</time>
<ele>22.87481888383627</ele>
</trkpt>
<trkpt lat="35.86040566646904" lon="139.96639004613905">
<time>2026-06-02T08:39:42Z</time>
<ele>23.057751280255616</ele>
</trkpt>
<trkpt lat="35.8603410608764" lon="139.96647082267302">
<time>2026-06-02T08:40:00Z</time>
<ele>21.87179195228964</ele>
</trkpt>
<trkpt lat="35.860291725960174" lon="139.9665849253406">
<time>2026-06-02T08:40:09Z</time>
<ele>21.47525545861572</ele>
</trkpt>
<trkpt lat="35.86029960571469" lon="139.96669919375503">
<time>2026-06-02T08:40:15Z</time>
<ele>22.653269809670746</ele>
</trkpt>
<trkpt lat="35.860312977265124" lon="139.96681368309632">
<time>2026-06-02T08:40:23Z</time>
<ele>22.70584146026522</ele>
</trkpt>
<trkpt lat="35.86029887760034" lon="139.96693363838833">
<time>2026-06-02T08:40:31Z</time>
<ele>22.739989103749394</ele>
</trkpt>
<trkpt lat="35.86030262492242" lon="139.9670459643307">
<time>2026-06-02T08:40:38Z</time>
<ele>22.513315624557436</ele>
</trkpt>
<trkpt lat="35.860300834442086" lon="139.96716138061635">
<time>2026-06-02T08:40:46Z</time>
<ele>22.180834758095443</ele>
</trkpt>
<trkpt lat="35.86028134037806" lon="139.96727895692266">
<time>2026-06-02T08:40:53Z</time>
<ele>22.596388598904014</ele>
</trkpt>
<trkpt lat="35.860293082742224" lon="139.9673954857496">
<time>2026-06-02T08:41:01Z</time>
<ele>23.037005697377026</ele>
</trkpt>
<trkpt lat="35.86031237121855" lon="139.96754194968693">
<time>2026-06-02T08:41:10Z</time>
<ele>22.995078803040087</ele>
</trkpt>
<trkpt lat="35.86029949477621" lon="139.9676603571067">
<time>2026-06-02T08:41:19Z</time>
<ele>22.13667153287679</ele>
</trkpt>
<trkpt lat="35.8603007248042" lon="139.96777160710107">
<time>2026-06-02T08:41:27Z</time>
<ele>21.729258317500353</ele>
</trkpt>
<trkpt lat="35.860299137111376" lon="139.96788464509527">
<time>2026-06-02T08:41:34Z</time>
<ele>21.72687350679189</ele>
</trkpt>
<trkpt lat="35.8603731296559" lon="139.96795276058344">
<time>2026-06-02T08:41:46Z</time>
<ele>22.286748156882823</ele>
</trkpt>
<trkpt lat="35.860464881208834" lon="139.96798726057654">
<time>2026-06-02T08:41:54Z</time>
<ele>22.819705488160253</ele>
</trkpt>
<trkpt lat="35.860561032944936" lon="139.96795482145862">
<time>2026-06-02T08:42:01Z</time>
<ele>22.06660436745733</ele>
</trkpt>
<trkpt lat="35.860656636470615" lon="139.96795043945744">
<time>2026-06-02T08:42:09Z</time>
<ele>22.484748411923647</ele>
</trkpt>
<trkpt lat="35.860746772932096" lon="139.96796806140264">
<time>2026-06-02T08:42:16Z</time>
<ele>21.3256312366575</ele>
</trkpt>
<trkpt lat="35.86084075384136" lon="139.96797220055535">
<time>2026-06-02T08:42:24Z</time>
<ele>21.473500181920826</ele>
</trkpt>
<trkpt lat="35.860941789711156" lon="139.9679815415154">
<time>2026-06-02T08:42:33Z</time>
<ele>21.790168101899326</ele>
</trkpt>
<trkpt lat="35.86103648196852" lon="139.96797402569288">
<time>2026-06-02T08:42:40Z</time>
<ele>21.731156263500452</ele>
</trkpt>
<trkpt lat="35.86113159076845" lon="139.9679899018653">
<time>2026-06-02T08:42:49Z</time>
<ele>21.92968630604446</ele>
</trkpt>
<trkpt lat="35.861225595328314" lon="139.9680070799663">
<time>2026-06-02T08:42:58Z</time>
<ele>22.204573438502848</ele>
</trkpt>
<trkpt lat="35.86132668426261" lon="139.9680069866502">
<time>2026-06-02T08:43:06Z</time>
<ele>22.37003764603287</ele>
</trkpt>
<trkpt lat="35.8614279076206" lon="139.96800724914843">
<time>2026-06-02T08:43:14Z</time>
<ele>21.776336535811424</ele>
</trkpt>
<trkpt lat="35.86152101728085" lon="139.9680007383855">
<time>2026-06-02T08:43:21Z</time>
<ele>22.595620188862085</ele>
</trkpt>
<trkpt lat="35.861618842896725" lon="139.96802690736777">
<time>2026-06-02T08:43:29Z</time>
<ele>22.67373818065971</ele>
</trkpt>
<trkpt lat="35.861717696330764" lon="139.96803842333594">
<time>2026-06-02T08:43:37Z</time>
<ele>22.994050052016973</ele>
</trkpt>
<trkpt lat="35.86181130539358" lon="139.9680443232488">
<time>2026-06-02T08:43:45Z</time>
<ele>22.98328099027276</ele>
</trkpt>
<trkpt lat="35.861905097802286" lon="139.96804563666035">
<time>2026-06-02T08:43:59Z</time>
<ele>21.52806594222784</ele>
</trkpt>
<trkpt lat="35.861995599463945" lon="139.968039609401">
<time>2026-06-02T08:44:06Z</time>
<ele>21.96360034868121</ele>
</trkpt>
<trkpt lat="35.862091299571276" lon="139.96805851521427">
<time>2026-06-02T08:44:13Z</time>
<ele>22.145839131437242</ele>
</trkpt>
<trkpt lat="35.86218272216013" lon="139.9680644093296">
<time>2026-06-02T08:44:26Z</time>
<ele>21.46523375622928</ele>
</trkpt>
<trkpt lat="35.86227547434404" lon="139.96810168727953">
<time>2026-06-02T08:45:09Z</time>
<ele>22.227804333902895</ele>
</trkpt>
<trkpt lat="35.86236800091665" lon="139.96811828055988">
<time>2026-06-02T08:45:19Z</time>
<ele>21.754881081171334</ele>
</trkpt>
<trkpt lat="35.862469217470974" lon="139.96809509123142">
<time>2026-06-02T08:45:27Z</time>
<ele>22.211386185139418</ele>
</trkpt>
<trkpt lat="35.86256464679528" lon="139.96808452071951">
<time>2026-06-02T08:45:36Z</time>
<ele>21.659564465284348</ele>
</trkpt>
<trkpt lat="35.86265958027627" lon="139.96809079718125">
<time>2026-06-02T08:45:44Z</time>
<ele>20.50485056079924</ele>
</trkpt>
<trkpt lat="35.86275022748392" lon="139.9680982161172">
<time>2026-06-02T08:45:52Z</time>
<ele>20.17253919877112</ele>
</trkpt>
<trkpt lat="35.86284101324417" lon="139.968110182347">
<time>2026-06-02T08:46:00Z</time>
<ele>20.004841934889555</ele>
</trkpt>
<trkpt lat="35.86293346324856" lon="139.96809034746775">
<time>2026-06-02T08:46:08Z</time>
<ele>19.918937724083662</ele>
</trkpt>
<trkpt lat="35.86300660768594" lon="139.96815551527223">
<time>2026-06-02T08:46:19Z</time>
<ele>20.1815534401685</ele>
</trkpt>
<trkpt lat="35.8630306820905" lon="139.9682757687901">
<time>2026-06-02T08:46:26Z</time>
<ele>19.965020871721208</ele>
</trkpt>
<trkpt lat="35.86302524931353" lon="139.96839422456927">
<time>2026-06-02T08:46:34Z</time>
<ele>19.887139266356826</ele>
</trkpt>
<trkpt lat="35.86300060815951" lon="139.96851519851936">
<time>2026-06-02T08:46:42Z</time>
<ele>20.206463034264743</ele>
</trkpt>
<trkpt lat="35.8629920616301" lon="139.96863609944887">
<time>2026-06-02T08:46:51Z</time>
<ele>20.375451021827757</ele>
</trkpt>
<trkpt lat="35.86294563615613" lon="139.96874384145485">
<time>2026-06-02T08:46:59Z</time>
<ele>21.051151981577277</ele>
</trkpt>
<trkpt lat="35.862892167212074" lon="139.96883671632767">
<time>2026-06-02T08:47:07Z</time>
<ele>20.765119530260563</ele>
</trkpt>
<trkpt lat="35.86284846095398" lon="139.96894279198574">
<time>2026-06-02T08:47:15Z</time>
<ele>20.96057345531881</ele>
</trkpt>
<trkpt lat="35.86279185333953" lon="139.9690301446239">
<time>2026-06-02T08:47:21Z</time>
<ele>20.985232766717672</ele>
</trkpt>
<trkpt lat="35.86272359867367" lon="139.96910679580918">
<time>2026-06-02T08:47:28Z</time>
<ele>21.597057598643005</ele>
</trkpt>
<trkpt lat="35.86263003603857" lon="139.96916339632756">
<time>2026-06-02T08:47:38Z</time>
<ele>21.987036438658834</ele>
</trkpt>
<trkpt lat="35.86259886263057" lon="139.9692830071545">
<time>2026-06-02T08:47:45Z</time>
<ele>21.527389977127314</ele>
</trkpt>
<trkpt lat="35.86249943706062" lon="139.96927178438705">
<time>2026-06-02T08:47:53Z</time>
<ele>22.011560241691768</ele>
</trkpt>
<trkpt lat="35.86240730433963" lon="139.96928340782046">
<time>2026-06-02T08:48:01Z</time>
<ele>21.520804226398468</ele>
</trkpt>
<trkpt lat="35.862320034236156" lon="139.9693434033087">
<time>2026-06-02T08:48:43Z</time>
<ele>21.655182133428752</ele>
</trkpt>
<trkpt lat="35.86222998258991" lon="139.96930993359985">
<time>2026-06-02T08:48:53Z</time>
<ele>21.547833944670856</ele>
</trkpt>
<trkpt lat="35.862138088537684" lon="139.9693010025138">
<time>2026-06-02T08:49:01Z</time>
<ele>21.241683650761843</ele>
</trkpt>
<trkpt lat="35.86204533821461" lon="139.96931426970042">
<time>2026-06-02T08:49:08Z</time>
<ele>21.57690281327814</ele>
</trkpt>
<trkpt lat="35.861947855875165" lon="139.9692700980029">
<time>2026-06-02T08:49:16Z</time>
<ele>21.31340481340885</ele>
</trkpt>
<trkpt lat="35.861854406031966" lon="139.9692826569608">
<time>2026-06-02T08:49:25Z</time>
<ele>22.072087015025318</ele>
</trkpt>
<trkpt lat="35.86176163800683" lon="139.96927028978456">
<time>2026-06-02T08:49:36Z</time>
<ele>21.744998229667544</ele>
</trkpt>
<trkpt lat="35.86166165898747" lon="139.9692689358707">
<time>2026-06-02T08:49:47Z</time>
<ele>21.019709187559783</ele>
</trkpt>
<trkpt lat="35.86156236202128" lon="139.9692660841884">
<time>2026-06-02T08:49:54Z</time>
<ele>22.274384029209614</ele>
</trkpt>
<trkpt lat="35.86146338996119" lon="139.96924064849563">
<time>2026-06-02T08:50:03Z</time>
<ele>21.96766459941864</ele>
</trkpt>
<trkpt lat="35.8613698293176" lon="139.96922868580594">
<time>2026-06-02T08:50:10Z</time>
<ele>22.01588812842965</ele>
</trkpt>
<trkpt lat="35.86127660020087" lon="139.96920818836136">
<time>2026-06-02T08:50:19Z</time>
<ele>22.58664272259921</ele>
</trkpt>
<trkpt lat="35.86118312071656" lon="139.9691845689183">
<time>2026-06-02T08:50:44Z</time>
<ele>21.318361180834472</ele>
</trkpt>
<trkpt lat="35.8612767622602" lon="139.96916415188335">
<time>2026-06-02T08:50:54Z</time>
<ele>20.54508763551712</ele>
</trkpt>
<trkpt lat="35.86118394785971" lon="139.96917994905726">
<time>2026-06-02T08:51:17Z</time>
<ele>20.641379627399147</ele>
</trkpt>
<trkpt lat="35.86108309014375" lon="139.96918078271864">
<time>2026-06-02T08:51:24Z</time>
<ele>21.60569191724062</ele>
</trkpt>
<trkpt lat="35.8610169746818" lon="139.96926662651936">
<time>2026-06-02T08:51:34Z</time>
<ele>21.658097606152296</ele>
</trkpt>
<trkpt lat="35.86105292355494" lon="139.9693747408591">
<time>2026-06-02T08:51:44Z</time>
<ele>21.309780191630125</ele>
</trkpt>
<trkpt lat="35.861140101240785" lon="139.96941046443882">
<time>2026-06-02T08:51:56Z</time>
<ele>21.695733762346208</ele>
</trkpt>
<trkpt lat="35.86121987249579" lon="139.96946801185584">
<time>2026-06-02T08:52:04Z</time>
<ele>21.67363133095205</ele>
</trkpt>
<trkpt lat="35.86130374962899" lon="139.96952821490126">
<time>2026-06-02T08:52:13Z</time>
<ele>21.63033915683627</ele>
</trkpt>
<trkpt lat="35.861396930471585" lon="139.9695810269772">
<time>2026-06-02T08:52:22Z</time>
<ele>21.9132856791839</ele>
</trkpt>
<trkpt lat="35.86146655840632" lon="139.96965895687765">
<time>2026-06-02T08:52:28Z</time>
<ele>21.35536495409906</ele>
</trkpt>
<trkpt lat="35.861548150613686" lon="139.96972549178466">
<time>2026-06-02T08:52:38Z</time>
<ele>21.72752214036882</ele>
</trkpt>
<trkpt lat="35.86163006047852" lon="139.96978260763322">
<time>2026-06-02T08:52:47Z</time>
<ele>21.91353696025908</ele>
</trkpt>
<trkpt lat="35.86172365775144" lon="139.9697870352468">
<time>2026-06-02T08:52:59Z</time>
<ele>22.1356641035527</ele>
</trkpt>
<trkpt lat="35.861820256586135" lon="139.96984597281582">
<time>2026-06-02T08:53:05Z</time>
<ele>22.361569308675826</ele>
</trkpt>
<trkpt lat="35.861919985322864" lon="139.96986618035316">
<time>2026-06-02T08:53:12Z</time>
<ele>22.582294671796262</ele>
</trkpt>
<trkpt lat="35.862015556866055" lon="139.9699007251817">
<time>2026-06-02T08:53:19Z</time>
<ele>23.317922464571893</ele>
</trkpt>
<trkpt lat="35.86211331561772" lon="139.96992582138063">
<time>2026-06-02T08:53:26Z</time>
<ele>23.453573189675808</ele>
</trkpt>
<trkpt lat="35.86216707561255" lon="139.96982954165125">
<time>2026-06-02T08:53:35Z</time>
<ele>24.011360076256096</ele>
</trkpt>
<trkpt lat="35.86220989475713" lon="139.9699305567556">
<time>2026-06-02T08:53:41Z</time>
<ele>23.389507809653878</ele>
</trkpt>
<trkpt lat="35.8622597202563" lon="139.96983345857774">
<time>2026-06-02T08:53:55Z</time>
<ele>23.374873721040785</ele>
</trkpt>
<trkpt lat="35.86234861145626" lon="139.9697496850057">
<time>2026-06-02T08:54:04Z</time>
<ele>22.39102782867849</ele>
</trkpt>
<trkpt lat="35.86241326901816" lon="139.96982766492926">
<time>2026-06-02T08:54:11Z</time>
<ele>23.04466689284891</ele>
</trkpt>
<trkpt lat="35.86251387435108" lon="139.9698723903351">
<time>2026-06-02T08:54:18Z</time>
<ele>23.51466542389244</ele>
</trkpt>
<trkpt lat="35.862593302396704" lon="139.96993364838778">
<time>2026-06-02T08:54:25Z</time>
<ele>23.65226169768721</ele>
</trkpt>
<trkpt lat="35.86268837955468" lon="139.9699740448712">
<time>2026-06-02T08:54:36Z</time>
<ele>24.90370778273791</ele>
</trkpt>
<trkpt lat="35.862755881052024" lon="139.97006971021105">
<time>2026-06-02T08:54:46Z</time>
<ele>23.558769354596734</ele>
</trkpt>
<trkpt lat="35.862862781817306" lon="139.97008935931643">
<time>2026-06-02T08:54:53Z</time>
<ele>23.991827877238393</ele>
</trkpt>
<trkpt lat="35.86296171664083" lon="139.97008321708344">
<time>2026-06-02T08:54:59Z</time>
<ele>23.807354343123734</ele>
</trkpt>
<trkpt lat="35.863004836629365" lon="139.9701877693594">
<time>2026-06-02T08:55:06Z</time>
<ele>23.808029285632074</ele>
</trkpt>
<trkpt lat="35.86309357569205" lon="139.9702356990254">
<time>2026-06-02T08:55:17Z</time>
<ele>24.15073497220874</ele>
</trkpt>
<trkpt lat="35.86318127960042" lon="139.97027125195055">
<time>2026-06-02T08:55:28Z</time>
<ele>24.156977109611034</ele>
</trkpt>
<trkpt lat="35.863272041763935" lon="139.9702973837959">
<time>2026-06-02T08:55:34Z</time>
<ele>24.345060924068093</ele>
</trkpt>
<trkpt lat="35.86336326345689" lon="139.9703301898381">
<time>2026-06-02T08:55:41Z</time>
<ele>24.475579380989075</ele>
</trkpt>
<trkpt lat="35.863457191549166" lon="139.97032844258345">
<time>2026-06-02T08:55:54Z</time>
<ele>24.3581602005288</ele>
</trkpt>
<trkpt lat="35.863554183950555" lon="139.97033247054668">
<time>2026-06-02T08:56:04Z</time>
<ele>24.415286016650498</ele>
</trkpt>
<trkpt lat="35.86364662213189" lon="139.9703114194175">
<time>2026-06-02T08:56:10Z</time>
<ele>24.681646212004125</ele>
</trkpt>
<trkpt lat="35.863646321781715" lon="139.97019623311792">
<time>2026-06-02T08:56:19Z</time>
<ele>24.18937890045345</ele>
</trkpt>
<trkpt lat="35.863733050225214" lon="139.970146216572">
<time>2026-06-02T08:56:26Z</time>
<ele>24.27203491423279</ele>
</trkpt>
<trkpt lat="35.86383028747873" lon="139.97010318010908">
<time>2026-06-02T08:56:31Z</time>
<ele>23.90011969767511</ele>
</trkpt>
<trkpt lat="35.86390738756751" lon="139.9700435471333">
<time>2026-06-02T08:56:39Z</time>
<ele>22.88705199304968</ele>
</trkpt>
<trkpt lat="35.8639923385713" lon="139.97000444361518">
<time>2026-06-02T08:56:46Z</time>
<ele>22.399431694298983</ele>
</trkpt>
<trkpt lat="35.86406856155114" lon="139.9699218482657">
<time>2026-06-02T08:56:55Z</time>
<ele>22.217494088225067</ele>
</trkpt>
<trkpt lat="35.86415932633999" lon="139.96987799737283">
<time>2026-06-02T08:57:04Z</time>
<ele>22.266332999803126</ele>
</trkpt>
<trkpt lat="35.864255019037564" lon="139.96989541595318">
<time>2026-06-02T08:57:10Z</time>
<ele>22.6701075527817</ele>
</trkpt>
<trkpt lat="35.864341425679314" lon="139.96986267323695">
<time>2026-06-02T08:57:17Z</time>
<ele>23.842928267084062</ele>
</trkpt>
<trkpt lat="35.86435022324882" lon="139.96975115915268">
<time>2026-06-02T08:57:25Z</time>
<ele>21.254690028727055</ele>
</trkpt>
<trkpt lat="35.86443993898481" lon="139.9697324214356">
<time>2026-06-02T08:57:36Z</time>
<ele>21.791767045855522</ele>
</trkpt>
<trkpt lat="35.86453612492" lon="139.96976584960055">
<time>2026-06-02T08:57:40Z</time>
<ele>21.998120547272265</ele>
</trkpt>
<trkpt lat="35.86463616984878" lon="139.96979552297586">
<time>2026-06-02T08:57:46Z</time>
<ele>22.29539482947439</ele>
</trkpt>
<trkpt lat="35.86473836593175" lon="139.96978557229386">
<time>2026-06-02T08:57:52Z</time>
<ele>22.38413703907281</ele>
</trkpt>
<trkpt lat="35.86483197879721" lon="139.96974987896456">
<time>2026-06-02T08:58:04Z</time>
<ele>23.11160433012992</ele>
</trkpt>
<trkpt lat="35.86491203787753" lon="139.96968296648663">
<time>2026-06-02T08:58:15Z</time>
<ele>23.36427097953856</ele>
</trkpt>
<trkpt lat="35.8650144758635" lon="139.96969615829462">
<time>2026-06-02T08:58:27Z</time>
<ele>22.49951931182295</ele>
</trkpt>
<trkpt lat="35.86505113034364" lon="139.96980679554704">
<time>2026-06-02T08:58:34Z</time>
<ele>23.44893328472972</ele>
</trkpt>
<trkpt lat="35.86508904470926" lon="139.9699219133909">
<time>2026-06-02T08:58:40Z</time>
<ele>24.01563018374145</ele>
</trkpt>
<trkpt lat="35.865087496978376" lon="139.97003991917205">
<time>2026-06-02T08:58:48Z</time>
<ele>23.673160176724195</ele>
</trkpt>
<trkpt lat="35.86507471619219" lon="139.97015078517057">
<time>2026-06-02T08:58:55Z</time>
<ele>23.279453763738275</ele>
</trkpt>
<trkpt lat="35.8650871074898" lon="139.9702691598224">
<time>2026-06-02T08:59:02Z</time>
<ele>23.451503546908498</ele>
</trkpt>
<trkpt lat="35.86512251848525" lon="139.97038397337343">
<time>2026-06-02T08:59:09Z</time>
<ele>23.84034439921379</ele>
</trkpt>
<trkpt lat="35.86515418863632" lon="139.9704890364631">
<time>2026-06-02T08:59:17Z</time>
<ele>23.37000879086554</ele>
</trkpt>
<trkpt lat="35.86515268396857" lon="139.9706018749784">
<time>2026-06-02T08:59:26Z</time>
<ele>24.19930948037654</ele>
</trkpt>
<trkpt lat="35.865158303238864" lon="139.9707130811067">
<time>2026-06-02T08:59:33Z</time>
<ele>24.596753266640007</ele>
</trkpt>
<trkpt lat="35.865168173075226" lon="139.97083228096628">
<time>2026-06-02T08:59:41Z</time>
<ele>24.770430614240468</ele>
</trkpt>
<trkpt lat="35.86515927115299" lon="139.9709521228489">
<time>2026-06-02T08:59:48Z</time>
<ele>25.66011098958552</ele>
</trkpt>
<trkpt lat="35.86515321125314" lon="139.97106735098444">
<time>2026-06-02T08:59:57Z</time>
<ele>25.298637476749718</ele>
</trkpt>
<trkpt lat="35.865160249924514" lon="139.97119328401942">
<time>2026-06-02T09:00:07Z</time>
<ele>25.47183004207909</ele>
</trkpt>
<trkpt lat="35.865187941529186" lon="139.97130653677453">
<time>2026-06-02T09:00:14Z</time>
<ele>24.611683160997927</ele>
</trkpt>
<trkpt lat="35.86512194215302" lon="139.97138703062723">
<time>2026-06-02T09:00:29Z</time>
<ele>24.58407746721059</ele>
</trkpt>
<trkpt lat="35.86503797138942" lon="139.97143220559533">
<time>2026-06-02T09:00:45Z</time>
<ele>23.076075388118625</ele>
</trkpt>
<trkpt lat="35.86494591330666" lon="139.97146321012764">
<time>2026-06-02T09:00:53Z</time>
<ele>22.629083055071533</ele>
</trkpt>
<trkpt lat="35.86485290874193" lon="139.97150071836944">
<time>2026-06-02T09:01:03Z</time>
<ele>21.91797517426312</ele>
</trkpt>
<trkpt lat="35.864749686880046" lon="139.97150993216144">
<time>2026-06-02T09:01:11Z</time>
<ele>22.478587966412306</ele>
</trkpt>
<trkpt lat="35.8646596009928" lon="139.9715246558477">
<time>2026-06-02T09:01:19Z</time>
<ele>23.679499354213476</ele>
</trkpt>
<trkpt lat="35.86456622153159" lon="139.97154638065916">
<time>2026-06-02T09:01:27Z</time>
<ele>23.51850308571011</ele>
</trkpt>
<trkpt lat="35.86446869373371" lon="139.97156044232412">
<time>2026-06-02T09:01:35Z</time>
<ele>22.995487494394183</ele>
</trkpt>
<trkpt lat="35.86437542751431" lon="139.97157213565637">
<time>2026-06-02T09:01:44Z</time>
<ele>22.97266500722617</ele>
</trkpt>
<trkpt lat="35.86427579796243" lon="139.97158642886623">
<time>2026-06-02T09:01:51Z</time>
<ele>22.922618930228055</ele>
</trkpt>
<trkpt lat="35.8641819426395" lon="139.97162531676182">
<time>2026-06-02T09:02:01Z</time>
<ele>22.6641108635813</ele>
</trkpt>
<trkpt lat="35.86409842633325" lon="139.9716670310017">
<time>2026-06-02T09:02:09Z</time>
<ele>22.835467436350882</ele>
</trkpt>
<trkpt lat="35.864006101737296" lon="139.97170470724078">
<time>2026-06-02T09:02:18Z</time>
<ele>23.56368380971253</ele>
</trkpt>
<trkpt lat="35.863930301737106" lon="139.97176892451984">
<time>2026-06-02T09:02:31Z</time>
<ele>23.746576852165163</ele>
</trkpt>
<trkpt lat="35.8638956384916" lon="139.97190406130593">
<time>2026-06-02T09:02:41Z</time>
<ele>23.904158112592995</ele>
</trkpt>
<trkpt lat="35.863853188553556" lon="139.97200289923984">
<time>2026-06-02T09:02:49Z</time>
<ele>24.83733379188925</ele>
</trkpt>
<trkpt lat="35.86377126765899" lon="139.97195046453743">
<time>2026-06-02T09:02:57Z</time>
<ele>24.73373641911894</ele>
</trkpt>
<trkpt lat="35.86369124015708" lon="139.97187818540814">
<time>2026-06-02T09:03:04Z</time>
<ele>24.445410114713013</ele>
</trkpt>
<trkpt lat="35.863719690769756" lon="139.97176830177116">
<time>2026-06-02T09:03:10Z</time>
<ele>24.25005097221583</ele>
</trkpt>
<trkpt lat="35.863794796094176" lon="139.97170505582753">
<time>2026-06-02T09:03:17Z</time>
<ele>23.625082020647824</ele>
</trkpt>
<trkpt lat="35.86381207023563" lon="139.97159568843708">
<time>2026-06-02T09:03:26Z</time>
<ele>22.438157942146063</ele>
</trkpt>
<trkpt lat="35.86371750117625" lon="139.97156851296006">
<time>2026-06-02T09:03:37Z</time>
<ele>23.713535190559924</ele>
</trkpt>
<trkpt lat="35.863634059542214" lon="139.97152559478835">
<time>2026-06-02T09:03:50Z</time>
<ele>25.71619773749262</ele>
</trkpt>
<trkpt lat="35.86355476273816" lon="139.97145371266635">
<time>2026-06-02T09:04:07Z</time>
<ele>26.115531670860946</ele>
</trkpt>
<trkpt lat="35.863468107623866" lon="139.97139855368582">
<time>2026-06-02T09:04:16Z</time>
<ele>26.330588151700795</ele>
</trkpt>
<trkpt lat="35.863383799313866" lon="139.97134194609043">
<time>2026-06-02T09:04:27Z</time>
<ele>25.330586079508066</ele>
</trkpt>
<trkpt lat="35.863308015168364" lon="139.9712689367602">
<time>2026-06-02T09:04:37Z</time>
<ele>24.12385848350823</ele>
</trkpt>
<trkpt lat="35.86323074644556" lon="139.97120070006324">
<time>2026-06-02T09:04:44Z</time>
<ele>24.436668784357607</ele>
</trkpt>
<trkpt lat="35.8631587910976" lon="139.9711292354909">
<time>2026-06-02T09:04:51Z</time>
<ele>24.556784478016198</ele>
</trkpt>
<trkpt lat="35.86308051355292" lon="139.9710696381128">
<time>2026-06-02T09:04:59Z</time>
<ele>24.936840400099754</ele>
</trkpt>
<trkpt lat="35.86306608359737" lon="139.97095579038404">
<time>2026-06-02T09:05:06Z</time>
<ele>25.038980573415756</ele>
</trkpt>
<trkpt lat="35.862988939404694" lon="139.97087671249923">
<time>2026-06-02T09:05:16Z</time>
<ele>24.973622823134065</ele>
</trkpt>
<trkpt lat="35.86289492142451" lon="139.9708330885025">
<time>2026-06-02T09:05:22Z</time>
<ele>24.952124438248575</ele>
</trkpt>
<trkpt lat="35.86280654988278" lon="139.9707803637642">
<time>2026-06-02T09:05:30Z</time>
<ele>25.24486941471696</ele>
</trkpt>
<trkpt lat="35.86230022093188" lon="139.97079880424093">
<time>2026-06-02T09:05:32Z</time>
<ele>26.360071131028235</ele>
</trkpt>
<trkpt lat="35.86265882712932" lon="139.97074897497572">
<time>2026-06-02T09:05:41Z</time>
<ele>29.087900269101127</ele>
</trkpt>
<trkpt lat="35.86256766022717" lon="139.97080617061786">
<time>2026-06-02T09:05:53Z</time>
<ele>33.49271868478472</ele>
</trkpt>
<trkpt lat="35.862479338888896" lon="139.9708898641936">
<time>2026-06-02T09:06:05Z</time>
<ele>32.42138383795469</ele>
</trkpt>
<trkpt lat="35.862379669331865" lon="139.97102351723075">
<time>2026-06-02T09:06:12Z</time>
<ele>29.51104432126067</ele>
</trkpt>
<trkpt lat="35.8624222906014" lon="139.97113745084644">
<time>2026-06-02T09:06:24Z</time>
<ele>26.491699890233576</ele>
</trkpt>
<trkpt lat="35.862382343220396" lon="139.9712433864813">
<time>2026-06-02T09:06:34Z</time>
<ele>26.85837589763105</ele>
</trkpt>
<trkpt lat="35.862323437301896" lon="139.97133533929016">
<time>2026-06-02T09:06:43Z</time>
<ele>26.40160048753023</ele>
</trkpt>
<trkpt lat="35.862317754699504" lon="139.97144782014408">
<time>2026-06-02T09:08:55Z</time>
<ele>27.69882437773049</ele>
</trkpt>
</trkseg>
</trk>
</gpx>