<?xml version="1.0" encoding="UTF-8"?>
<gpx version="1.1" creator="RouteHistory - https://www.ateow.com" xmlns="http://www.topografix.com/GPX/1/1" xmlns:rh="http://www.ateow.com/routehistory">
<trk>
<trkseg>
<trkpt lat="35.86235817485592" lon="139.9715373633033">
<time>2026-06-02T08:28:16Z</time>
<ele>28.374411405995488</ele>
</trkpt>
<trkpt lat="35.86230434890273" lon="139.9714585819785">
<time>2026-06-02T08:28:32Z</time>
<ele>28.062486642040312</ele>
</trkpt>
<trkpt lat="35.862350529171415" lon="139.97135545719794">
<time>2026-06-02T08:28:40Z</time>
<ele>27.262520062737167</ele>
</trkpt>
<trkpt lat="35.862396769200814" lon="139.97125444912433">
<time>2026-06-02T08:28:47Z</time>
<ele>26.751835791394114</ele>
</trkpt>
<trkpt lat="35.86246003558502" lon="139.97116589652782">
<time>2026-06-02T08:28:54Z</time>
<ele>26.715009724721313</ele>
</trkpt>
<trkpt lat="35.862479308696095" lon="139.9710319729733">
<time>2026-06-02T08:29:03Z</time>
<ele>25.37018774356693</ele>
</trkpt>
<trkpt lat="35.86252402175775" lon="139.97092317542717">
<time>2026-06-02T08:29:10Z</time>
<ele>26.36900579649955</ele>
</trkpt>
<trkpt lat="35.86267660000446" lon="139.97059726143584">
<time>2026-06-02T08:29:38Z</time>
<ele>26.39010984171182</ele>
</trkpt>
<trkpt lat="35.86263849682279" lon="139.970485048265">
<time>2026-06-02T08:29:45Z</time>
<ele>25.25451265554875</ele>
</trkpt>
<trkpt lat="35.86272002145315" lon="139.97043456316194">
<time>2026-06-02T08:29:50Z</time>
<ele>24.75545638706535</ele>
</trkpt>
<trkpt lat="35.86282238868909" lon="139.97035522964637">
<time>2026-06-02T08:29:53Z</time>
<ele>24.70371480472386</ele>
</trkpt>
<trkpt lat="35.8627866477762" lon="139.9702526717342">
<time>2026-06-02T08:30:12Z</time>
<ele>24.033440927043557</ele>
</trkpt>
<trkpt lat="35.862797270470935" lon="139.97014270689144">
<time>2026-06-02T08:30:26Z</time>
<ele>22.486847075633705</ele>
</trkpt>
<trkpt lat="35.86284701938418" lon="139.97003491732272">
<time>2026-06-02T08:30:36Z</time>
<ele>23.32015535235405</ele>
</trkpt>
<trkpt lat="35.86290884158048" lon="139.96993285568433">
<time>2026-06-02T08:30:44Z</time>
<ele>22.097828516736627</ele>
</trkpt>
<trkpt lat="35.86296279022448" lon="139.96984160033173">
<time>2026-06-02T08:30:51Z</time>
<ele>22.23831987567246</ele>
</trkpt>
<trkpt lat="35.863009749507455" lon="139.96973780514602">
<time>2026-06-02T08:30:58Z</time>
<ele>22.28242623526603</ele>
</trkpt>
<trkpt lat="35.863046100852756" lon="139.9696331794865">
<time>2026-06-02T08:31:06Z</time>
<ele>23.717151422053576</ele>
</trkpt>
<trkpt lat="35.86306383044673" lon="139.96949726328464">
<time>2026-06-02T08:31:13Z</time>
<ele>22.38206353597343</ele>
</trkpt>
<trkpt lat="35.8630862265759" lon="139.96937724039745">
<time>2026-06-02T08:31:21Z</time>
<ele>22.605115686543286</ele>
</trkpt>
<trkpt lat="35.86315789735914" lon="139.96928195772824">
<time>2026-06-02T08:31:28Z</time>
<ele>21.15078206639737</ele>
</trkpt>
<trkpt lat="35.86324459122674" lon="139.96922207794282">
<time>2026-06-02T08:31:35Z</time>
<ele>21.06292832456529</ele>
</trkpt>
<trkpt lat="35.863275545487674" lon="139.9691102416981">
<time>2026-06-02T08:31:42Z</time>
<ele>20.288602299056947</ele>
</trkpt>
<trkpt lat="35.863314390681104" lon="139.96900153027218">
<time>2026-06-02T08:31:49Z</time>
<ele>21.65413333941251</ele>
</trkpt>
<trkpt lat="35.8633690534142" lon="139.96890853837093">
<time>2026-06-02T08:31:56Z</time>
<ele>20.484760412946343</ele>
</trkpt>
<trkpt lat="35.863420731886826" lon="139.96880996152305">
<time>2026-06-02T08:32:03Z</time>
<ele>19.501864812336862</ele>
</trkpt>
<trkpt lat="35.86347167194312" lon="139.96870675824644">
<time>2026-06-02T08:32:10Z</time>
<ele>20.945485691539943</ele>
</trkpt>
<trkpt lat="35.86354099298633" lon="139.96862660145047">
<time>2026-06-02T08:32:16Z</time>
<ele>20.397400561720133</ele>
</trkpt>
<trkpt lat="35.863598925778824" lon="139.96853305623154">
<time>2026-06-02T08:32:23Z</time>
<ele>21.104533091187477</ele>
</trkpt>
<trkpt lat="35.863590241224635" lon="139.9684123848654">
<time>2026-06-02T08:32:30Z</time>
<ele>21.28529572300613</ele>
</trkpt>
<trkpt lat="35.86359482699195" lon="139.96830167390323">
<time>2026-06-02T08:32:37Z</time>
<ele>20.812003077939153</ele>
</trkpt>
<trkpt lat="35.86350549069184" lon="139.9682470600987">
<time>2026-06-02T08:32:47Z</time>
<ele>20.374029942788184</ele>
</trkpt>
<trkpt lat="35.8634683392571" lon="139.96813187740457">
<time>2026-06-02T08:32:56Z</time>
<ele>21.15055756829679</ele>
</trkpt>
<trkpt lat="35.86340624562502" lon="139.96804034194258">
<time>2026-06-02T08:33:06Z</time>
<ele>20.652698499150574</ele>
</trkpt>
<trkpt lat="35.863323892081965" lon="139.96797727377154">
<time>2026-06-02T08:33:14Z</time>
<ele>20.256843456067145</ele>
</trkpt>
<trkpt lat="35.86322836137182" lon="139.96792621551043">
<time>2026-06-02T08:33:23Z</time>
<ele>20.763894157484174</ele>
</trkpt>
<trkpt lat="35.86313976620894" lon="139.9678671735652">
<time>2026-06-02T08:33:31Z</time>
<ele>19.675832398235798</ele>
</trkpt>
<trkpt lat="35.86305072274871" lon="139.96780523130488">
<time>2026-06-02T08:33:38Z</time>
<ele>19.645601727068424</ele>
</trkpt>
<trkpt lat="35.86297189000063" lon="139.96775070762158">
<time>2026-06-02T08:33:44Z</time>
<ele>20.493729867972434</ele>
</trkpt>
<trkpt lat="35.86288438981265" lon="139.96769235184325">
<time>2026-06-02T08:33:51Z</time>
<ele>20.663390670903027</ele>
</trkpt>
<trkpt lat="35.86278718136785" lon="139.96765186447524">
<time>2026-06-02T08:33:59Z</time>
<ele>19.34333759173751</ele>
</trkpt>
<trkpt lat="35.8627026535346" lon="139.96761261058705">
<time>2026-06-02T08:34:05Z</time>
<ele>19.14343487843871</ele>
</trkpt>
<trkpt lat="35.86260400858339" lon="139.9675756188742">
<time>2026-06-02T08:34:13Z</time>
<ele>18.648506964556873</ele>
</trkpt>
<trkpt lat="35.86251503078601" lon="139.96753107501408">
<time>2026-06-02T08:34:21Z</time>
<ele>18.652427648194134</ele>
</trkpt>
<trkpt lat="35.86242648845958" lon="139.96748520832762">
<time>2026-06-02T08:34:37Z</time>
<ele>18.46025239955634</ele>
</trkpt>
<trkpt lat="35.86234580874963" lon="139.96743031705915">
<time>2026-06-02T08:34:45Z</time>
<ele>19.069105308502913</ele>
</trkpt>
<trkpt lat="35.86226017580981" lon="139.96738712708304">
<time>2026-06-02T08:34:53Z</time>
<ele>19.72797429189086</ele>
</trkpt>
<trkpt lat="35.86216941852363" lon="139.96734434326575">
<time>2026-06-02T08:35:02Z</time>
<ele>19.83446656074375</ele>
</trkpt>
<trkpt lat="35.862072834594656" lon="139.96732547367347">
<time>2026-06-02T08:35:11Z</time>
<ele>18.169290258549154</ele>
</trkpt>
<trkpt lat="35.86200430189145" lon="139.96725129433935">
<time>2026-06-02T08:35:18Z</time>
<ele>19.60429720301181</ele>
</trkpt>
<trkpt lat="35.86191377079491" lon="139.9672310581664">
<time>2026-06-02T08:35:28Z</time>
<ele>20.333039404824376</ele>
</trkpt>
<trkpt lat="35.86182107081521" lon="139.96718219934277">
<time>2026-06-02T08:35:37Z</time>
<ele>19.767145881429315</ele>
</trkpt>
<trkpt lat="35.861734784428435" lon="139.96711557134785">
<time>2026-06-02T08:35:48Z</time>
<ele>21.886804154142737</ele>
</trkpt>
<trkpt lat="35.861648972594494" lon="139.9670611299094">
<time>2026-06-02T08:35:56Z</time>
<ele>22.52791807986796</ele>
</trkpt>
<trkpt lat="35.861550209092314" lon="139.96700788422305">
<time>2026-06-02T08:36:05Z</time>
<ele>24.023689148016274</ele>
</trkpt>
<trkpt lat="35.861455680909124" lon="139.96698454948128">
<time>2026-06-02T08:36:14Z</time>
<ele>22.13077236432582</ele>
</trkpt>
<trkpt lat="35.8613657762207" lon="139.96693393809412">
<time>2026-06-02T08:36:22Z</time>
<ele>21.687065159901977</ele>
</trkpt>
<trkpt lat="35.86127331339427" lon="139.96687951168667">
<time>2026-06-02T08:36:30Z</time>
<ele>23.17157551087439</ele>
</trkpt>
<trkpt lat="35.86119081237567" lon="139.9668291813304">
<time>2026-06-02T08:36:37Z</time>
<ele>23.01517408993095</ele>
</trkpt>
<trkpt lat="35.861103721733876" lon="139.9667827135652">
<time>2026-06-02T08:36:45Z</time>
<ele>23.567473742179573</ele>
</trkpt>
<trkpt lat="35.861016311043194" lon="139.96671733474847">
<time>2026-06-02T08:36:53Z</time>
<ele>23.06799141317606</ele>
</trkpt>
<trkpt lat="35.86092073037806" lon="139.96668074301667">
<time>2026-06-02T08:37:02Z</time>
<ele>23.302988788112998</ele>
</trkpt>
<trkpt lat="35.8608395336835" lon="139.96663239227172">
<time>2026-06-02T08:37:09Z</time>
<ele>24.069766242988408</ele>
</trkpt>
<trkpt lat="35.86074939768239" lon="139.9665937297474">
<time>2026-06-02T08:37:17Z</time>
<ele>24.55242765136063</ele>
</trkpt>
<trkpt lat="35.86065943563484" lon="139.9665576017441">
<time>2026-06-02T08:37:25Z</time>
<ele>22.76529945805669</ele>
</trkpt>
<trkpt lat="35.86056776561591" lon="139.96652323920605">
<time>2026-06-02T08:37:33Z</time>
<ele>23.209466266445816</ele>
</trkpt>
<trkpt lat="35.860485667486785" lon="139.96646636874237">
<time>2026-06-02T08:37:40Z</time>
<ele>23.592522067017853</ele>
</trkpt>
<trkpt lat="35.860392623723875" lon="139.96644539635486">
<time>2026-06-02T08:37:48Z</time>
<ele>23.80443685594946</ele>
</trkpt>
<trkpt lat="35.860352308311334" lon="139.96629531956154">
<time>2026-06-02T08:38:14Z</time>
<ele>22.338602302595973</ele>
</trkpt>
<trkpt lat="35.86029680078008" lon="139.9661989354658">
<time>2026-06-02T08:38:24Z</time>
<ele>22.857823772355914</ele>
</trkpt>
<trkpt lat="35.86043771238899" lon="139.96619836224033">
<time>2026-06-02T08:38:27Z</time>
<ele>22.555960470810533</ele>
</trkpt>
<trkpt lat="35.86040833990387" lon="139.9660905336118">
<time>2026-06-02T08:38:49Z</time>
<ele>25.149344368837774</ele>
</trkpt>
<trkpt lat="35.86047487971214" lon="139.96618073562243">
<time>2026-06-02T08:39:11Z</time>
<ele>24.189132516272366</ele>
</trkpt>
<trkpt lat="35.86055201508947" lon="139.9662568271851">
<time>2026-06-02T08:39:36Z</time>
<ele>22.5843615680933</ele>
</trkpt>
<trkpt lat="35.86029263777355" lon="139.96617278164743">
<time>2026-06-02T08:39:39Z</time>
<ele>22.833827980794013</ele>
</trkpt>
<trkpt lat="35.86032683501666" lon="139.96633333820992">
<time>2026-06-02T08:39:41Z</time>
<ele>23.130584118887782</ele>
</trkpt>
<trkpt lat="35.86031505618143" lon="139.96645724756442">
<time>2026-06-02T08:40:02Z</time>
<ele>26.151158454827964</ele>
</trkpt>
<trkpt lat="35.8602910441232" lon="139.96658336124477">
<time>2026-06-02T08:40:11Z</time>
<ele>25.150425252504647</ele>
</trkpt>
<trkpt lat="35.860258783006834" lon="139.9666906945464">
<time>2026-06-02T08:40:17Z</time>
<ele>24.596459706313908</ele>
</trkpt>
<trkpt lat="35.860210173879956" lon="139.96680549848367">
<time>2026-06-02T08:40:25Z</time>
<ele>23.456991874612868</ele>
</trkpt>
<trkpt lat="35.86023986441025" lon="139.96692135209236">
<time>2026-06-02T08:40:31Z</time>
<ele>21.67069917358458</ele>
</trkpt>
<trkpt lat="35.86026213811112" lon="139.96703330339724">
<time>2026-06-02T08:40:38Z</time>
<ele>21.52104952838272</ele>
</trkpt>
<trkpt lat="35.860270174916884" lon="139.9671527791751">
<time>2026-06-02T08:40:46Z</time>
<ele>22.165476732887328</ele>
</trkpt>
<trkpt lat="35.86026787821594" lon="139.96729171545084">
<time>2026-06-02T08:40:53Z</time>
<ele>21.937852419912815</ele>
</trkpt>
<trkpt lat="35.860276380568614" lon="139.96741249129826">
<time>2026-06-02T08:41:02Z</time>
<ele>22.74034515582025</ele>
</trkpt>
<trkpt lat="35.86028186685839" lon="139.9675243131516">
<time>2026-06-02T08:41:11Z</time>
<ele>22.520717663690448</ele>
</trkpt>
<trkpt lat="35.86028992148659" lon="139.96763521276154">
<time>2026-06-02T08:41:18Z</time>
<ele>22.762352090328932</ele>
</trkpt>
<trkpt lat="35.860296253811704" lon="139.96775128145887">
<time>2026-06-02T08:41:26Z</time>
<ele>22.38573399372399</ele>
</trkpt>
<trkpt lat="35.86029566079694" lon="139.96786444209414">
<time>2026-06-02T08:41:34Z</time>
<ele>23.091296579688787</ele>
</trkpt>
<trkpt lat="35.860367939464055" lon="139.96793504942843">
<time>2026-06-02T08:41:44Z</time>
<ele>22.359026100486517</ele>
</trkpt>
<trkpt lat="35.860463592213435" lon="139.967948377256">
<time>2026-06-02T08:41:54Z</time>
<ele>22.86652911454439</ele>
</trkpt>
<trkpt lat="35.86055931220436" lon="139.96797093658415">
<time>2026-06-02T08:42:02Z</time>
<ele>22.57804442755878</ele>
</trkpt>
<trkpt lat="35.86065407437339" lon="139.96798786918305">
<time>2026-06-02T08:42:10Z</time>
<ele>22.46989623643458</ele>
</trkpt>
<trkpt lat="35.86075515011479" lon="139.96800317459872">
<time>2026-06-02T08:42:18Z</time>
<ele>21.711779417470098</ele>
</trkpt>
<trkpt lat="35.860846243929736" lon="139.96800572149087">
<time>2026-06-02T08:42:25Z</time>
<ele>21.507097185589373</ele>
</trkpt>
<trkpt lat="35.860944990893394" lon="139.96801320249756">
<time>2026-06-02T08:42:33Z</time>
<ele>22.080949934199452</ele>
</trkpt>
<trkpt lat="35.86103995946045" lon="139.96801340291321">
<time>2026-06-02T08:42:41Z</time>
<ele>22.67611393146217</ele>
</trkpt>
<trkpt lat="35.86112965024105" lon="139.96802663260726">
<time>2026-06-02T08:42:49Z</time>
<ele>22.153922526165843</ele>
</trkpt>
<trkpt lat="35.86122038928647" lon="139.96803804678785">
<time>2026-06-02T08:42:57Z</time>
<ele>22.07637072633952</ele>
</trkpt>
<trkpt lat="35.86132158308529" lon="139.96803511973255">
<time>2026-06-02T08:43:06Z</time>
<ele>22.33865101914853</ele>
</trkpt>
<trkpt lat="35.86142023881763" lon="139.96804191636284">
<time>2026-06-02T08:43:14Z</time>
<ele>22.45154936052859</ele>
</trkpt>
<trkpt lat="35.86152189278134" lon="139.96805351617724">
<time>2026-06-02T08:43:23Z</time>
<ele>23.12860170006752</ele>
</trkpt>
<trkpt lat="35.86161453120552" lon="139.96805374634167">
<time>2026-06-02T08:43:31Z</time>
<ele>22.983423309400678</ele>
</trkpt>
<trkpt lat="35.86171126338222" lon="139.96805904773046">
<time>2026-06-02T08:43:39Z</time>
<ele>21.894008433446288</ele>
</trkpt>
<trkpt lat="35.8618038890625" lon="139.9680678416014">
<time>2026-06-02T08:43:46Z</time>
<ele>21.74199405312538</ele>
</trkpt>
<trkpt lat="35.86189612533743" lon="139.9680766388149">
<time>2026-06-02T08:43:54Z</time>
<ele>21.956540036946535</ele>
</trkpt>
<trkpt lat="35.86199497124694" lon="139.96808042004977">
<time>2026-06-02T08:44:07Z</time>
<ele>21.78215238172561</ele>
</trkpt>
<trkpt lat="35.86208960829404" lon="139.9680699088422">
<time>2026-06-02T08:44:17Z</time>
<ele>21.105948090553284</ele>
</trkpt>
<trkpt lat="35.86218014646755" lon="139.96808541092378">
<time>2026-06-02T08:44:24Z</time>
<ele>20.696989600546658</ele>
</trkpt>
<trkpt lat="35.862259052562" lon="139.96814367254052">
<time>2026-06-02T08:45:11Z</time>
<ele>23.590122133493423</ele>
</trkpt>
<trkpt lat="35.86235164368226" lon="139.96815360881007">
<time>2026-06-02T08:45:19Z</time>
<ele>22.857216086238623</ele>
</trkpt>
<trkpt lat="35.8624413540243" lon="139.96813479954182">
<time>2026-06-02T08:45:26Z</time>
<ele>21.692828237079084</ele>
</trkpt>
<trkpt lat="35.862547351604704" lon="139.96812623186904">
<time>2026-06-02T08:45:36Z</time>
<ele>22.00589626096189</ele>
</trkpt>
<trkpt lat="35.862638171478416" lon="139.96812798969438">
<time>2026-06-02T08:45:44Z</time>
<ele>21.233820393681526</ele>
</trkpt>
<trkpt lat="35.86272850902107" lon="139.96811529663213">
<time>2026-06-02T08:45:51Z</time>
<ele>20.64375784434378</ele>
</trkpt>
<trkpt lat="35.862837517756375" lon="139.96816731454192">
<time>2026-06-02T08:45:59Z</time>
<ele>19.85441050771624</ele>
</trkpt>
<trkpt lat="35.86292884981995" lon="139.9681417299104">
<time>2026-06-02T08:46:09Z</time>
<ele>19.814252104610205</ele>
</trkpt>
<trkpt lat="35.863000689634625" lon="139.96821300180912">
<time>2026-06-02T08:46:22Z</time>
<ele>20.82967251073569</ele>
</trkpt>
<trkpt lat="35.862983559380346" lon="139.96834200314953">
<time>2026-06-02T08:46:31Z</time>
<ele>21.578702884726226</ele>
</trkpt>
<trkpt lat="35.86299794810281" lon="139.96846228401148">
<time>2026-06-02T08:46:39Z</time>
<ele>20.666533990763128</ele>
</trkpt>
<trkpt lat="35.8629625420637" lon="139.9685841372016">
<time>2026-06-02T08:46:48Z</time>
<ele>20.381648510694504</ele>
</trkpt>
<trkpt lat="35.86294698916696" lon="139.96870251313453">
<time>2026-06-02T08:46:57Z</time>
<ele>21.414052547886968</ele>
</trkpt>
<trkpt lat="35.8629080423291" lon="139.96880570059304">
<time>2026-06-02T08:47:04Z</time>
<ele>21.59930284600705</ele>
</trkpt>
<trkpt lat="35.86285671793056" lon="139.9688972953639">
<time>2026-06-02T08:47:11Z</time>
<ele>20.41677496675402</ele>
</trkpt>
<trkpt lat="35.86279342076451" lon="139.96897829625973">
<time>2026-06-02T08:47:19Z</time>
<ele>19.909913294017315</ele>
</trkpt>
<trkpt lat="35.86272879659495" lon="139.9690794628543">
<time>2026-06-02T08:47:28Z</time>
<ele>20.162275190465152</ele>
</trkpt>
<trkpt lat="35.86266079559639" lon="139.9691607440354">
<time>2026-06-02T08:47:36Z</time>
<ele>21.39758075401187</ele>
</trkpt>
<trkpt lat="35.86260391192515" lon="139.9692480037265">
<time>2026-06-02T08:47:44Z</time>
<ele>20.49607928749174</ele>
</trkpt>
<trkpt lat="35.862511000079806" lon="139.96926556004033">
<time>2026-06-02T08:47:52Z</time>
<ele>21.09931036271155</ele>
</trkpt>
<trkpt lat="35.862415419054116" lon="139.9692935148376">
<time>2026-06-02T08:48:01Z</time>
<ele>20.470003922469914</ele>
</trkpt>
<trkpt lat="35.86231975882421" lon="139.96933230919956">
<time>2026-06-02T08:48:43Z</time>
<ele>20.58603267930448</ele>
</trkpt>
<trkpt lat="35.8622431866652" lon="139.9692676302547">
<time>2026-06-02T08:48:53Z</time>
<ele>21.18959708418697</ele>
</trkpt>
<trkpt lat="35.862147164458854" lon="139.96926621185128">
<time>2026-06-02T08:49:01Z</time>
<ele>21.394237272441387</ele>
</trkpt>
<trkpt lat="35.86205288339361" lon="139.9692780684743">
<time>2026-06-02T08:49:09Z</time>
<ele>19.98698119353503</ele>
</trkpt>
<trkpt lat="35.861959196929696" lon="139.96927166663957">
<time>2026-06-02T08:49:17Z</time>
<ele>20.486452840268612</ele>
</trkpt>
<trkpt lat="35.86186290877628" lon="139.9692561619456">
<time>2026-06-02T08:49:26Z</time>
<ele>20.051218224689364</ele>
</trkpt>
<trkpt lat="35.861767935391356" lon="139.96927129006303">
<time>2026-06-02T08:49:36Z</time>
<ele>20.708442825824022</ele>
</trkpt>
<trkpt lat="35.86168316463694" lon="139.9692097417726">
<time>2026-06-02T08:49:45Z</time>
<ele>20.243363774381578</ele>
</trkpt>
<trkpt lat="35.861593042958965" lon="139.9692056511162">
<time>2026-06-02T08:49:52Z</time>
<ele>21.190186256542802</ele>
</trkpt>
<trkpt lat="35.86149524799204" lon="139.96920306914768">
<time>2026-06-02T08:50:01Z</time>
<ele>21.181276297196746</ele>
</trkpt>
<trkpt lat="35.861401675871704" lon="139.96920407918472">
<time>2026-06-02T08:50:10Z</time>
<ele>21.63426045421511</ele>
</trkpt>
<trkpt lat="35.86130299957726" lon="139.96918397040704">
<time>2026-06-02T08:50:19Z</time>
<ele>21.998691326007247</ele>
</trkpt>
<trkpt lat="35.86121311088295" lon="139.96916568190392">
<time>2026-06-02T08:50:43Z</time>
<ele>21.96976817585528</ele>
</trkpt>
<trkpt lat="35.86131665979204" lon="139.96915632217423">
<time>2026-06-02T08:51:03Z</time>
<ele>21.983560429885983</ele>
</trkpt>
<trkpt lat="35.861221333146105" lon="139.9691702463984">
<time>2026-06-02T08:51:18Z</time>
<ele>21.653501203283668</ele>
</trkpt>
<trkpt lat="35.86112496985493" lon="139.96913695630718">
<time>2026-06-02T08:51:25Z</time>
<ele>21.61702023539692</ele>
</trkpt>
<trkpt lat="35.86104553785459" lon="139.96921054587966">
<time>2026-06-02T08:51:32Z</time>
<ele>22.37738765589893</ele>
</trkpt>
<trkpt lat="35.86105519537515" lon="139.96932116434166">
<time>2026-06-02T08:51:42Z</time>
<ele>20.584534551016986</ele>
</trkpt>
<trkpt lat="35.86112218634485" lon="139.96941330197484">
<time>2026-06-02T08:51:56Z</time>
<ele>20.828190982341766</ele>
</trkpt>
<trkpt lat="35.8611908830878" lon="139.96948543565114">
<time>2026-06-02T08:52:04Z</time>
<ele>21.368203572928905</ele>
</trkpt>
<trkpt lat="35.86128204142243" lon="139.96954039277523">
<time>2026-06-02T08:52:14Z</time>
<ele>22.21883414592594</ele>
</trkpt>
<trkpt lat="35.86135813032999" lon="139.96960805205305">
<time>2026-06-02T08:52:22Z</time>
<ele>22.9278978779912</ele>
</trkpt>
<trkpt lat="35.86144926626847" lon="139.96966384956804">
<time>2026-06-02T08:52:30Z</time>
<ele>22.417220634408295</ele>
</trkpt>
<trkpt lat="35.861520918182684" lon="139.96973238491003">
<time>2026-06-02T08:52:38Z</time>
<ele>23.10268795862794</ele>
</trkpt>
<trkpt lat="35.8616046929646" lon="139.96979204978385">
<time>2026-06-02T08:52:46Z</time>
<ele>23.279888106510043</ele>
</trkpt>
<trkpt lat="35.86168632650114" lon="139.9698443391169">
<time>2026-06-02T08:52:55Z</time>
<ele>23.364624921232462</ele>
</trkpt>
<trkpt lat="35.861777257693156" lon="139.9698516156143">
<time>2026-06-02T08:53:01Z</time>
<ele>23.99831106700003</ele>
</trkpt>
<trkpt lat="35.86187189405055" lon="139.96990996455756">
<time>2026-06-02T08:53:11Z</time>
<ele>22.792838253080845</ele>
</trkpt>
<trkpt lat="35.861961322575084" lon="139.9699521062425">
<time>2026-06-02T08:53:19Z</time>
<ele>23.595475894398987</ele>
</trkpt>
<trkpt lat="35.86204777680835" lon="139.9700228930878">
<time>2026-06-02T08:53:26Z</time>
<ele>23.210379079915583</ele>
</trkpt>
<trkpt lat="35.8621690899422" lon="139.97005712792821">
<time>2026-06-02T08:53:36Z</time>
<ele>23.37175956647843</ele>
</trkpt>
<trkpt lat="35.862253327296486" lon="139.97010578432008">
<time>2026-06-02T08:53:53Z</time>
<ele>23.788907206617296</ele>
</trkpt>
<trkpt lat="35.86227910908127" lon="139.96999466411967">
<time>2026-06-02T08:53:56Z</time>
<ele>24.054707827977836</ele>
</trkpt>
<trkpt lat="35.862319504410166" lon="139.96986435254445">
<time>2026-06-02T08:54:01Z</time>
<ele>23.468767263926566</ele>
</trkpt>
<trkpt lat="35.862423564746024" lon="139.9698588358062">
<time>2026-06-02T08:54:12Z</time>
<ele>22.70330015476793</ele>
</trkpt>
<trkpt lat="35.8625172013053" lon="139.9699065023038">
<time>2026-06-02T08:54:20Z</time>
<ele>23.29043771326542</ele>
</trkpt>
<trkpt lat="35.862608314213794" lon="139.96996630438272">
<time>2026-06-02T08:54:29Z</time>
<ele>23.360537017695606</ele>
</trkpt>
<trkpt lat="35.86269119525942" lon="139.97002907631435">
<time>2026-06-02T08:54:39Z</time>
<ele>24.051213338039815</ele>
</trkpt>
<trkpt lat="35.86277005124595" lon="139.97010688938352">
<time>2026-06-02T08:54:47Z</time>
<ele>23.974634293466806</ele>
</trkpt>
<trkpt lat="35.86286686006382" lon="139.97012591783238">
<time>2026-06-02T08:54:53Z</time>
<ele>24.026180600747466</ele>
</trkpt>
<trkpt lat="35.86296208026662" lon="139.9701396550788">
<time>2026-06-02T08:55:01Z</time>
<ele>24.314456365071237</ele>
</trkpt>
<trkpt lat="35.86297688595914" lon="139.97025719510714">
<time>2026-06-02T08:55:07Z</time>
<ele>23.786298871040344</ele>
</trkpt>
<trkpt lat="35.863070643487234" lon="139.9703017207539">
<time>2026-06-02T08:55:17Z</time>
<ele>24.715634195134044</ele>
</trkpt>
<trkpt lat="35.8631677422317" lon="139.97034415661713">
<time>2026-06-02T08:55:24Z</time>
<ele>24.902844352647662</ele>
</trkpt>
<trkpt lat="35.863255416572976" lon="139.9703768912767">
<time>2026-06-02T08:55:30Z</time>
<ele>24.851729416288435</ele>
</trkpt>
<trkpt lat="35.86333696504607" lon="139.97042466419356">
<time>2026-06-02T08:55:37Z</time>
<ele>24.70872697327286</ele>
</trkpt>
<trkpt lat="35.86343238658938" lon="139.97045220044225">
<time>2026-06-02T08:55:47Z</time>
<ele>24.603316839784384</ele>
</trkpt>
<trkpt lat="35.863523112363026" lon="139.97045577423708">
<time>2026-06-02T08:55:53Z</time>
<ele>24.84128576796502</ele>
</trkpt>
<trkpt lat="35.86362375748452" lon="139.97046349073878">
<time>2026-06-02T08:56:00Z</time>
<ele>22.543312918394804</ele>
</trkpt>
<trkpt lat="35.86371808754541" lon="139.97046248838146">
<time>2026-06-02T08:56:08Z</time>
<ele>23.567957694642246</ele>
</trkpt>
<trkpt lat="35.86373826233443" lon="139.97035072160784">
<time>2026-06-02T08:56:15Z</time>
<ele>23.30155158508569</ele>
</trkpt>
<trkpt lat="35.863792572279564" lon="139.97025928105109">
<time>2026-06-02T08:56:23Z</time>
<ele>23.409354315139353</ele>
</trkpt>
<trkpt lat="35.86388745137125" lon="139.97021635542282">
<time>2026-06-02T08:56:30Z</time>
<ele>23.35947850625962</ele>
</trkpt>
<trkpt lat="35.863966349798304" lon="139.97014518896674">
<time>2026-06-02T08:56:38Z</time>
<ele>22.870586005970836</ele>
</trkpt>
<trkpt lat="35.86407377177181" lon="139.9701187157571">
<time>2026-06-02T08:56:46Z</time>
<ele>22.649577297270298</ele>
</trkpt>
<trkpt lat="35.86416776433601" lon="139.97010990805336">
<time>2026-06-02T08:56:56Z</time>
<ele>22.58118401095271</ele>
</trkpt>
<trkpt lat="35.864259972984215" lon="139.97009305129177">
<time>2026-06-02T08:57:04Z</time>
<ele>22.53703224658966</ele>
</trkpt>
<trkpt lat="35.86431590635464" lon="139.96999843480995">
<time>2026-06-02T08:57:11Z</time>
<ele>22.39042146038264</ele>
</trkpt>
<trkpt lat="35.864378571008615" lon="139.96991532983776">
<time>2026-06-02T08:57:18Z</time>
<ele>22.929344256408513</ele>
</trkpt>
<trkpt lat="35.86445396333247" lon="139.96985052130034">
<time>2026-06-02T08:57:26Z</time>
<ele>22.636096690781415</ele>
</trkpt>
<trkpt lat="35.86454169893333" lon="139.96982140208448">
<time>2026-06-02T08:57:35Z</time>
<ele>23.06157639529556</ele>
</trkpt>
<trkpt lat="35.8646305278844" lon="139.9697855011733">
<time>2026-06-02T08:57:43Z</time>
<ele>22.401415375992656</ele>
</trkpt>
<trkpt lat="35.864722325988254" lon="139.96976988447688">
<time>2026-06-02T08:57:50Z</time>
<ele>22.553632356226444</ele>
</trkpt>
<trkpt lat="35.86480501111336" lon="139.96971961472835">
<time>2026-06-02T08:57:57Z</time>
<ele>22.37941609788686</ele>
</trkpt>
<trkpt lat="35.86489277404979" lon="139.96969412360676">
<time>2026-06-02T08:58:06Z</time>
<ele>23.888860067352653</ele>
</trkpt>
<trkpt lat="35.8649772091559" lon="139.96964851194568">
<time>2026-06-02T08:58:16Z</time>
<ele>23.02721342537552</ele>
</trkpt>
<trkpt lat="35.865041544094815" lon="139.96972695106447">
<time>2026-06-02T08:58:30Z</time>
<ele>22.988451563753188</ele>
</trkpt>
<trkpt lat="35.86508845671053" lon="139.9698252101612">
<time>2026-06-02T08:58:34Z</time>
<ele>23.58508118148893</ele>
</trkpt>
<trkpt lat="35.86511996364916" lon="139.96994948733558">
<time>2026-06-02T08:58:40Z</time>
<ele>22.7556089758873</ele>
</trkpt>
<trkpt lat="35.8651296816279" lon="139.9700743439458">
<time>2026-06-02T08:58:48Z</time>
<ele>24.239237994886935</ele>
</trkpt>
<trkpt lat="35.865127112744055" lon="139.9701920815019">
<time>2026-06-02T08:58:56Z</time>
<ele>24.593327397480607</ele>
</trkpt>
<trkpt lat="35.86514869218249" lon="139.97031542490043">
<time>2026-06-02T08:59:04Z</time>
<ele>25.15236953366548</ele>
</trkpt>
<trkpt lat="35.865189283911945" lon="139.97041577068404">
<time>2026-06-02T08:59:11Z</time>
<ele>26.00748388748616</ele>
</trkpt>
<trkpt lat="35.86519227349923" lon="139.97052859037106">
<time>2026-06-02T08:59:19Z</time>
<ele>24.71411343291402</ele>
</trkpt>
<trkpt lat="35.8651905370614" lon="139.97064976866093">
<time>2026-06-02T08:59:28Z</time>
<ele>24.66585860773921</ele>
</trkpt>
<trkpt lat="35.86518762957119" lon="139.97076310718197">
<time>2026-06-02T08:59:36Z</time>
<ele>24.582721224054694</ele>
</trkpt>
<trkpt lat="35.865176336153276" lon="139.97088791590812">
<time>2026-06-02T08:59:45Z</time>
<ele>24.747194999828935</ele>
</trkpt>
<trkpt lat="35.86517973870184" lon="139.9709988433679">
<time>2026-06-02T08:59:53Z</time>
<ele>25.32370091881603</ele>
</trkpt>
<trkpt lat="35.86517570373786" lon="139.97111219792734">
<time>2026-06-02T09:00:01Z</time>
<ele>24.396574133075774</ele>
</trkpt>
<trkpt lat="35.865180343874265" lon="139.97123182150986">
<time>2026-06-02T09:00:10Z</time>
<ele>24.635535737499595</ele>
</trkpt>
<trkpt lat="35.86517385899453" lon="139.971357833674">
<time>2026-06-02T09:00:17Z</time>
<ele>24.229427743703127</ele>
</trkpt>
<trkpt lat="35.86509668543161" lon="139.97143386559068">
<time>2026-06-02T09:00:41Z</time>
<ele>23.370346140116453</ele>
</trkpt>
<trkpt lat="35.86500021130053" lon="139.97144909527339">
<time>2026-06-02T09:00:49Z</time>
<ele>22.403561173006892</ele>
</trkpt>
<trkpt lat="35.86490071516264" lon="139.9714703175974">
<time>2026-06-02T09:00:58Z</time>
<ele>21.02512971032411</ele>
</trkpt>
<trkpt lat="35.86480679819168" lon="139.97149525641063">
<time>2026-06-02T09:01:07Z</time>
<ele>20.83561703749001</ele>
</trkpt>
<trkpt lat="35.864714207168674" lon="139.97149798190043">
<time>2026-06-02T09:01:15Z</time>
<ele>19.422559728845954</ele>
</trkpt>
<trkpt lat="35.86462278048894" lon="139.97153173667812">
<time>2026-06-02T09:01:23Z</time>
<ele>21.905833372846246</ele>
</trkpt>
<trkpt lat="35.864528560697266" lon="139.97155303512906">
<time>2026-06-02T09:01:31Z</time>
<ele>22.47397101484239</ele>
</trkpt>
<trkpt lat="35.86442986513059" lon="139.97158004397494">
<time>2026-06-02T09:01:39Z</time>
<ele>22.683496774174273</ele>
</trkpt>
<trkpt lat="35.86433383069454" lon="139.97158930081102">
<time>2026-06-02T09:01:47Z</time>
<ele>22.252405292354524</ele>
</trkpt>
<trkpt lat="35.86424373624079" lon="139.97161779027522">
<time>2026-06-02T09:01:56Z</time>
<ele>22.51050675380975</ele>
</trkpt>
<trkpt lat="35.864158047514806" lon="139.9716548910707">
<time>2026-06-02T09:02:04Z</time>
<ele>22.33717541117221</ele>
</trkpt>
<trkpt lat="35.864072368154574" lon="139.97169364056052">
<time>2026-06-02T09:02:16Z</time>
<ele>23.065517871640623</ele>
</trkpt>
<trkpt lat="35.863985164829664" lon="139.9717416561648">
<time>2026-06-02T09:02:23Z</time>
<ele>23.997440080158412</ele>
</trkpt>
<trkpt lat="35.863942899822774" lon="139.97184482903833">
<time>2026-06-02T09:02:33Z</time>
<ele>23.187340614385903</ele>
</trkpt>
<trkpt lat="35.86390769200388" lon="139.97196322546407">
<time>2026-06-02T09:02:43Z</time>
<ele>22.72301511839032</ele>
</trkpt>
<trkpt lat="35.86381035244939" lon="139.97196995599313">
<time>2026-06-02T09:02:55Z</time>
<ele>23.29882140364498</ele>
</trkpt>
<trkpt lat="35.86373160245176" lon="139.97189411462554">
<time>2026-06-02T09:03:04Z</time>
<ele>23.117122024297714</ele>
</trkpt>
<trkpt lat="35.863742843297494" lon="139.97177529489653">
<time>2026-06-02T09:03:12Z</time>
<ele>23.237361595965922</ele>
</trkpt>
<trkpt lat="35.863795423465966" lon="139.97167613881837">
<time>2026-06-02T09:03:21Z</time>
<ele>23.607738219201565</ele>
</trkpt>
<trkpt lat="35.863755310786956" lon="139.9715715252994">
<time>2026-06-02T09:03:35Z</time>
<ele>24.111468984745443</ele>
</trkpt>
<trkpt lat="35.863666829849066" lon="139.97152482468798">
<time>2026-06-02T09:03:49Z</time>
<ele>25.078307419084013</ele>
</trkpt>
<trkpt lat="35.863579367749935" lon="139.97148691444437">
<time>2026-06-02T09:04:04Z</time>
<ele>27.594511774368584</ele>
</trkpt>
<trkpt lat="35.863506065534295" lon="139.97141616387262">
<time>2026-06-02T09:04:13Z</time>
<ele>25.455756150186062</ele>
</trkpt>
<trkpt lat="35.863430737604865" lon="139.97135322985744">
<time>2026-06-02T09:04:22Z</time>
<ele>26.101812004111707</ele>
</trkpt>
<trkpt lat="35.86335546787514" lon="139.9712770517504">
<time>2026-06-02T09:04:32Z</time>
<ele>25.118360719643533</ele>
</trkpt>
<trkpt lat="35.86327309367821" lon="139.97122865150666">
<time>2026-06-02T09:04:40Z</time>
<ele>25.21177087817341</ele>
</trkpt>
<trkpt lat="35.86318936603531" lon="139.97116403029156">
<time>2026-06-02T09:04:48Z</time>
<ele>25.628160322085023</ele>
</trkpt>
<trkpt lat="35.86315105341026" lon="139.9710596706078">
<time>2026-06-02T09:04:56Z</time>
<ele>25.25322666950524</ele>
</trkpt>
<trkpt lat="35.86313805026283" lon="139.97094553856175">
<time>2026-06-02T09:05:04Z</time>
<ele>25.305874747224152</ele>
</trkpt>
<trkpt lat="35.863109151683126" lon="139.97083896393917">
<time>2026-06-02T09:05:10Z</time>
<ele>25.43402532208711</ele>
</trkpt>
<trkpt lat="35.86302477698205" lon="139.97078576663466">
<time>2026-06-02T09:05:18Z</time>
<ele>24.87605669349432</ele>
</trkpt>
<trkpt lat="35.86293588708809" lon="139.97076331807912">
<time>2026-06-02T09:05:23Z</time>
<ele>25.18498709052801</ele>
</trkpt>
<trkpt lat="35.86283998332537" lon="139.97074888588546">
<time>2026-06-02T09:05:28Z</time>
<ele>24.864101193845272</ele>
</trkpt>
<trkpt lat="35.86274108531227" lon="139.9707306122094">
<time>2026-06-02T09:05:34Z</time>
<ele>25.777052018791437</ele>
</trkpt>
<trkpt lat="35.862641185155496" lon="139.9707058365286">
<time>2026-06-02T09:05:39Z</time>
<ele>25.735284650698304</ele>
</trkpt>
<trkpt lat="35.86306261833382" lon="139.97055265134196">
<time>2026-06-02T09:05:43Z</time>
<ele>40.86984254885465</ele>
</trkpt>
<trkpt lat="35.86311736855179" lon="139.97043963247899">
<time>2026-06-02T09:05:48Z</time>
<ele>39.73458892479539</ele>
</trkpt>
<trkpt lat="35.862659016906306" lon="139.9707956501769">
<time>2026-06-02T09:06:00Z</time>
<ele>42.34925462771207</ele>
</trkpt>
<trkpt lat="35.86250793920633" lon="139.97063173381932">
<time>2026-06-02T09:06:09Z</time>
<ele>23.542667812667787</ele>
</trkpt>
<trkpt lat="35.86258760247346" lon="139.97081058473714">
<time>2026-06-02T09:06:10Z</time>
<ele>24.76226248871535</ele>
</trkpt>
<trkpt lat="35.862310794603566" lon="139.97081711797813">
<time>2026-06-02T09:06:11Z</time>
<ele>25.812420209869742</ele>
</trkpt>
<trkpt lat="35.862256903782196" lon="139.97065732357763">
<time>2026-06-02T09:06:13Z</time>
<ele>26.454742984846234</ele>
</trkpt>
<trkpt lat="35.86234369350684" lon="139.97077870873701">
<time>2026-06-02T09:06:15Z</time>
<ele>25.593832867220044</ele>
</trkpt>
<trkpt lat="35.86235079383997" lon="139.9709599690394">
<time>2026-06-02T09:06:18Z</time>
<ele>26.294015057384968</ele>
</trkpt>
<trkpt lat="35.86236041052042" lon="139.97109091459882">
<time>2026-06-02T09:06:24Z</time>
<ele>26.93831162340939</ele>
</trkpt>
<trkpt lat="35.862361153445576" lon="139.9712022122553">
<time>2026-06-02T09:06:30Z</time>
<ele>27.016404041089118</ele>
</trkpt>
<trkpt lat="35.86233094986459" lon="139.9713125883994">
<time>2026-06-02T09:06:38Z</time>
<ele>27.72724599763751</ele>
</trkpt>
<trkpt lat="35.86229552212618" lon="139.97142723848282">
<time>2026-06-02T09:06:47Z</time>
<ele>26.86295610666275</ele>
</trkpt>
</trkseg>
</trk>
</gpx>