<?xml version="1.0" encoding="UTF-8"?>
<gpx version="1.1" creator="RouteHistory - https://www.ateow.com" xmlns="http://www.topografix.com/GPX/1/1" xmlns:rh="http://www.ateow.com/routehistory">
<trk>
<trkseg>
<trkpt lat="35.86229587328247" lon="139.9715360740899">
<time>2026-06-02T08:28:17Z</time>
<ele>27.52442289981991</ele>
</trkpt>
<trkpt lat="35.86215346857503" lon="139.97156031214945">
<time>2026-06-02T08:28:38Z</time>
<ele>27.173052784986794</ele>
</trkpt>
<trkpt lat="35.862064376218605" lon="139.9715826062667">
<time>2026-06-02T08:28:49Z</time>
<ele>27.24967799615115</ele>
</trkpt>
<trkpt lat="35.861956054203915" lon="139.9715848674998">
<time>2026-06-02T08:29:00Z</time>
<ele>26.96781898383051</ele>
</trkpt>
<trkpt lat="35.861964049711965" lon="139.9716961216795">
<time>2026-06-02T08:29:09Z</time>
<ele>27.192918374203146</ele>
</trkpt>
<trkpt lat="35.86188508072336" lon="139.9717816341282">
<time>2026-06-02T08:29:19Z</time>
<ele>25.074205663986504</ele>
</trkpt>
<trkpt lat="35.86180487004658" lon="139.97183610915212">
<time>2026-06-02T08:29:29Z</time>
<ele>26.220488010905683</ele>
</trkpt>
<trkpt lat="35.86183802543319" lon="139.97171949413308">
<time>2026-06-02T08:29:46Z</time>
<ele>27.430244460701942</ele>
</trkpt>
<trkpt lat="35.861909412312144" lon="139.97165176105847">
<time>2026-06-02T08:29:54Z</time>
<ele>26.98719579912722</ele>
</trkpt>
<trkpt lat="35.861888958987564" lon="139.9715346103828">
<time>2026-06-02T08:30:06Z</time>
<ele>27.087027980946004</ele>
</trkpt>
<trkpt lat="35.86178999546439" lon="139.97150117396015">
<time>2026-06-02T08:30:21Z</time>
<ele>27.047457528300583</ele>
</trkpt>
<trkpt lat="35.86170754489548" lon="139.97141538879745">
<time>2026-06-02T08:30:31Z</time>
<ele>26.914697038941085</ele>
</trkpt>
<trkpt lat="35.86164832566791" lon="139.9713127382359">
<time>2026-06-02T08:30:38Z</time>
<ele>27.434538688510656</ele>
</trkpt>
<trkpt lat="35.86157297654753" lon="139.9712355656903">
<time>2026-06-02T08:30:49Z</time>
<ele>26.566585075110197</ele>
</trkpt>
<trkpt lat="35.86150159907598" lon="139.9711603398805">
<time>2026-06-02T08:31:02Z</time>
<ele>26.353540908545256</ele>
</trkpt>
<trkpt lat="35.86147139996733" lon="139.97105348690366">
<time>2026-06-02T08:31:08Z</time>
<ele>26.504042573273182</ele>
</trkpt>
<trkpt lat="35.86142098779689" lon="139.97093951304768">
<time>2026-06-02T08:31:17Z</time>
<ele>26.374178878962994</ele>
</trkpt>
<trkpt lat="35.86132570176719" lon="139.97089809816407">
<time>2026-06-02T08:31:28Z</time>
<ele>26.418127596378326</ele>
</trkpt>
<trkpt lat="35.86128312597165" lon="139.97080051370563">
<time>2026-06-02T08:31:38Z</time>
<ele>25.258520762436092</ele>
</trkpt>
<trkpt lat="35.86118551721455" lon="139.97081900693192">
<time>2026-06-02T08:31:47Z</time>
<ele>25.441367126069963</ele>
</trkpt>
<trkpt lat="35.861085947346766" lon="139.9708579497515">
<time>2026-06-02T08:31:51Z</time>
<ele>25.56981810554862</ele>
</trkpt>
<trkpt lat="35.86094978245772" lon="139.97088431574042">
<time>2026-06-02T08:32:10Z</time>
<ele>25.333953188732266</ele>
</trkpt>
<trkpt lat="35.86088171738415" lon="139.97096217225845">
<time>2026-06-02T08:32:20Z</time>
<ele>25.65573855303228</ele>
</trkpt>
<trkpt lat="35.860821414537774" lon="139.9710561833105">
<time>2026-06-02T08:32:32Z</time>
<ele>24.861419888213277</ele>
</trkpt>
<trkpt lat="35.860731787871174" lon="139.97111439871318">
<time>2026-06-02T08:32:42Z</time>
<ele>25.00705913361162</ele>
</trkpt>
<trkpt lat="35.86064521889264" lon="139.97105325043643">
<time>2026-06-02T08:32:56Z</time>
<ele>24.997692272998393</ele>
</trkpt>
<trkpt lat="35.86054619787096" lon="139.97103860678547">
<time>2026-06-02T08:33:05Z</time>
<ele>24.699166361242533</ele>
</trkpt>
<trkpt lat="35.86044873491354" lon="139.9709734253366">
<time>2026-06-02T08:33:19Z</time>
<ele>25.164448264054954</ele>
</trkpt>
<trkpt lat="35.86037210482308" lon="139.97091334391322">
<time>2026-06-02T08:33:29Z</time>
<ele>24.958578559570014</ele>
</trkpt>
<trkpt lat="35.86027953239044" lon="139.97088103531988">
<time>2026-06-02T08:33:38Z</time>
<ele>24.515291239134967</ele>
</trkpt>
<trkpt lat="35.86019318027662" lon="139.9709549727893">
<time>2026-06-02T08:34:12Z</time>
<ele>25.82134081982076</ele>
</trkpt>
<trkpt lat="35.860151327822535" lon="139.97106090789407">
<time>2026-06-02T08:34:21Z</time>
<ele>24.765112510882318</ele>
</trkpt>
<trkpt lat="35.8601558853929" lon="139.97117634253735">
<time>2026-06-02T08:34:30Z</time>
<ele>24.9431357588619</ele>
</trkpt>
<trkpt lat="35.860179486902894" lon="139.97128521833167">
<time>2026-06-02T08:34:38Z</time>
<ele>25.296590550802648</ele>
</trkpt>
<trkpt lat="35.86015110969668" lon="139.97140535059543">
<time>2026-06-02T08:34:47Z</time>
<ele>25.52340620290488</ele>
</trkpt>
<trkpt lat="35.860165261850646" lon="139.9715225715505">
<time>2026-06-02T08:34:56Z</time>
<ele>25.883662367239594</ele>
</trkpt>
<trkpt lat="35.86025813588688" lon="139.97160926291178">
<time>2026-06-02T08:35:07Z</time>
<ele>26.433801885694265</ele>
</trkpt>
<trkpt lat="35.8603449562064" lon="139.97167071930133">
<time>2026-06-02T08:35:15Z</time>
<ele>25.6348795350641</ele>
</trkpt>
<trkpt lat="35.8603970612919" lon="139.97176213150158">
<time>2026-06-02T08:35:22Z</time>
<ele>25.73259623348713</ele>
</trkpt>
<trkpt lat="35.860481980481225" lon="139.97182369378893">
<time>2026-06-02T08:35:34Z</time>
<ele>26.644012158736587</ele>
</trkpt>
<trkpt lat="35.860575008024426" lon="139.97183693446198">
<time>2026-06-02T08:35:45Z</time>
<ele>26.743332968093455</ele>
</trkpt>
<trkpt lat="35.86065868614451" lon="139.97178078591995">
<time>2026-06-02T08:35:54Z</time>
<ele>26.242624996230006</ele>
</trkpt>
<trkpt lat="35.86065302747084" lon="139.97190365087144">
<time>2026-06-02T08:36:15Z</time>
<ele>26.255926491692662</ele>
</trkpt>
<trkpt lat="35.8606642004517" lon="139.972020687554">
<time>2026-06-02T08:36:25Z</time>
<ele>26.681847016327083</ele>
</trkpt>
<trkpt lat="35.86065793702972" lon="139.9721375276031">
<time>2026-06-02T08:36:34Z</time>
<ele>26.126943290233612</ele>
</trkpt>
<trkpt lat="35.86065020918219" lon="139.97225173756513">
<time>2026-06-02T08:36:41Z</time>
<ele>26.359028793871403</ele>
</trkpt>
<trkpt lat="35.860678382728594" lon="139.97236398411414">
<time>2026-06-02T08:36:51Z</time>
<ele>26.196846026927233</ele>
</trkpt>
<trkpt lat="35.860659574196056" lon="139.9724798765602">
<time>2026-06-02T08:37:10Z</time>
<ele>25.51790958736092</ele>
</trkpt>
<trkpt lat="35.86056803810778" lon="139.9724776763235">
<time>2026-06-02T08:37:19Z</time>
<ele>26.928557239472866</ele>
</trkpt>
<trkpt lat="35.86047329863043" lon="139.97246670183426">
<time>2026-06-02T08:37:26Z</time>
<ele>26.44828887283802</ele>
</trkpt>
<trkpt lat="35.86039300850223" lon="139.97241243961062">
<time>2026-06-02T08:37:42Z</time>
<ele>26.695566163398325</ele>
</trkpt>
<trkpt lat="35.86047534633987" lon="139.97249417690696">
<time>2026-06-02T08:38:29Z</time>
<ele>27.685349106788635</ele>
</trkpt>
<trkpt lat="35.86056915931235" lon="139.97245395060327">
<time>2026-06-02T08:38:34Z</time>
<ele>26.903725953772664</ele>
</trkpt>
<trkpt lat="35.860655836809514" lon="139.97240357884377">
<time>2026-06-02T08:38:45Z</time>
<ele>26.27004677709192</ele>
</trkpt>
<trkpt lat="35.86071131446186" lon="139.97231236536533">
<time>2026-06-02T08:38:55Z</time>
<ele>26.614575590007007</ele>
</trkpt>
<trkpt lat="35.860741221055754" lon="139.97219878155911">
<time>2026-06-02T08:39:04Z</time>
<ele>26.63659749738872</ele>
</trkpt>
<trkpt lat="35.86075627745856" lon="139.97206814602066">
<time>2026-06-02T08:39:14Z</time>
<ele>26.042221513576806</ele>
</trkpt>
<trkpt lat="35.86074825207137" lon="139.97194279442598">
<time>2026-06-02T08:39:22Z</time>
<ele>25.867726760916412</ele>
</trkpt>
<trkpt lat="35.86071203335517" lon="139.9718386062044">
<time>2026-06-02T08:39:35Z</time>
<ele>26.356444869190454</ele>
</trkpt>
<trkpt lat="35.86071517837315" lon="139.97172648386427">
<time>2026-06-02T08:39:47Z</time>
<ele>26.249542887322605</ele>
</trkpt>
<trkpt lat="35.860792691923386" lon="139.97163461021586">
<time>2026-06-02T08:40:01Z</time>
<ele>26.033973623998463</ele>
</trkpt>
<trkpt lat="35.86072743948291" lon="139.9717137158405">
<time>2026-06-02T08:40:12Z</time>
<ele>26.21642975974828</ele>
</trkpt>
<trkpt lat="35.86081812550873" lon="139.9716984699809">
<time>2026-06-02T08:40:19Z</time>
<ele>26.23917126748711</ele>
</trkpt>
<trkpt lat="35.86092073547324" lon="139.97168725316112">
<time>2026-06-02T08:40:21Z</time>
<ele>26.43011981714517</ele>
</trkpt>
<trkpt lat="35.86102747720462" lon="139.97164140613805">
<time>2026-06-02T08:40:26Z</time>
<ele>26.635362926870584</ele>
</trkpt>
<trkpt lat="35.861101295128634" lon="139.97171331524544">
<time>2026-06-02T08:40:27Z</time>
<ele>26.372626083903015</ele>
</trkpt>
<trkpt lat="35.86116418404298" lon="139.9717930692878">
<time>2026-06-02T08:40:52Z</time>
<ele>26.976122841238976</ele>
</trkpt>
<trkpt lat="35.861256715310844" lon="139.97182405149124">
<time>2026-06-02T08:41:00Z</time>
<ele>27.025818867608905</ele>
</trkpt>
<trkpt lat="35.86134575490877" lon="139.97184955188595">
<time>2026-06-02T08:41:07Z</time>
<ele>27.178808692842722</ele>
</trkpt>
<trkpt lat="35.86140430238196" lon="139.97193631691266">
<time>2026-06-02T08:41:24Z</time>
<ele>27.32279244158417</ele>
</trkpt>
<trkpt lat="35.86150689613698" lon="139.97199452879687">
<time>2026-06-02T08:41:44Z</time>
<ele>27.308395967818797</ele>
</trkpt>
<trkpt lat="35.861602381214055" lon="139.97195605231354">
<time>2026-06-02T08:41:47Z</time>
<ele>27.08733199723065</ele>
</trkpt>
<trkpt lat="35.861672135776175" lon="139.97203818779494">
<time>2026-06-02T08:42:02Z</time>
<ele>26.658252620138228</ele>
</trkpt>
<trkpt lat="35.86177145625211" lon="139.97199572889537">
<time>2026-06-02T08:42:10Z</time>
<ele>27.85760331340134</ele>
</trkpt>
<trkpt lat="35.86181830834663" lon="139.9718952210876">
<time>2026-06-02T08:42:19Z</time>
<ele>27.495553677901626</ele>
</trkpt>
<trkpt lat="35.86183589514094" lon="139.97177683338202">
<time>2026-06-02T08:42:30Z</time>
<ele>26.75344686768949</ele>
</trkpt>
<trkpt lat="35.86190012401929" lon="139.9716686569666">
<time>2026-06-02T08:42:40Z</time>
<ele>26.87558805011213</ele>
</trkpt>
<trkpt lat="35.8618739828576" lon="139.97156083780266">
<time>2026-06-02T08:42:50Z</time>
<ele>28.08619957882911</ele>
</trkpt>
<trkpt lat="35.86182127461494" lon="139.97146456135437">
<time>2026-06-02T08:42:54Z</time>
<ele>26.767740444280207</ele>
</trkpt>
<trkpt lat="35.86177179032061" lon="139.97136447363437">
<time>2026-06-02T08:43:06Z</time>
<ele>26.756138949654996</ele>
</trkpt>
<trkpt lat="35.86169001496414" lon="139.9712822006916">
<time>2026-06-02T08:43:17Z</time>
<ele>26.898636893369257</ele>
</trkpt>
<trkpt lat="35.86160223292782" lon="139.9712544247907">
<time>2026-06-02T08:43:27Z</time>
<ele>26.94823371991515</ele>
</trkpt>
<trkpt lat="35.861514079212576" lon="139.97120865698582">
<time>2026-06-02T08:43:39Z</time>
<ele>26.131867147050798</ele>
</trkpt>
<trkpt lat="35.86149489965377" lon="139.97109511234476">
<time>2026-06-02T08:43:46Z</time>
<ele>26.21623675059527</ele>
</trkpt>
<trkpt lat="35.86143555953614" lon="139.97100463674">
<time>2026-06-02T08:44:02Z</time>
<ele>25.882448193617165</ele>
</trkpt>
<trkpt lat="35.861349233925935" lon="139.97094060275268">
<time>2026-06-02T08:44:09Z</time>
<ele>25.930332737974823</ele>
</trkpt>
<trkpt lat="35.861390457399146" lon="139.97083230631486">
<time>2026-06-02T08:44:25Z</time>
<ele>25.668863008730114</ele>
</trkpt>
<trkpt lat="35.86125264470234" lon="139.97079249836395">
<time>2026-06-02T08:44:26Z</time>
<ele>25.823572960682213</ele>
</trkpt>
<trkpt lat="35.86107872268505" lon="139.97075116352812">
<time>2026-06-02T08:44:34Z</time>
<ele>25.336466997861862</ele>
</trkpt>
<trkpt lat="35.86116680826532" lon="139.9706562080824">
<time>2026-06-02T08:45:03Z</time>
<ele>25.087575484998524</ele>
</trkpt>
<trkpt lat="35.861035992344696" lon="139.97069646198068">
<time>2026-06-02T08:45:14Z</time>
<ele>24.53185303043574</ele>
</trkpt>
<trkpt lat="35.86109590596217" lon="139.9706049868858">
<time>2026-06-02T08:45:19Z</time>
<ele>24.801737369038165</ele>
</trkpt>
<trkpt lat="35.86117572313065" lon="139.97054842838673">
<time>2026-06-02T08:45:23Z</time>
<ele>24.329264293424785</ele>
</trkpt>
<trkpt lat="35.861078527056556" lon="139.970495414932">
<time>2026-06-02T08:45:31Z</time>
<ele>23.978661185130477</ele>
</trkpt>
<trkpt lat="35.86098635964828" lon="139.9705116249131">
<time>2026-06-02T08:45:53Z</time>
<ele>23.705771800130606</ele>
</trkpt>
<trkpt lat="35.86089281848655" lon="139.97047650998945">
<time>2026-06-02T08:46:01Z</time>
<ele>23.843443132936954</ele>
</trkpt>
<trkpt lat="35.860806768811564" lon="139.97041808823">
<time>2026-06-02T08:46:10Z</time>
<ele>23.535971915349364</ele>
</trkpt>
<trkpt lat="35.86074381656681" lon="139.97031653050655">
<time>2026-06-02T08:46:21Z</time>
<ele>22.816021321341395</ele>
</trkpt>
<trkpt lat="35.8606655654874" lon="139.97025051446352">
<time>2026-06-02T08:46:33Z</time>
<ele>23.346792651340365</ele>
</trkpt>
<trkpt lat="35.86059449905956" lon="139.97017851739463">
<time>2026-06-02T08:46:41Z</time>
<ele>23.11977609153837</ele>
</trkpt>
<trkpt lat="35.86050902457791" lon="139.97012612887508">
<time>2026-06-02T08:46:51Z</time>
<ele>23.216345850378275</ele>
</trkpt>
<trkpt lat="35.86047101549467" lon="139.97001644868672">
<time>2026-06-02T08:46:59Z</time>
<ele>22.601575129665434</ele>
</trkpt>
<trkpt lat="35.86039633571296" lon="139.96994079960717">
<time>2026-06-02T08:47:08Z</time>
<ele>22.657197912223637</ele>
</trkpt>
<trkpt lat="35.86030835594427" lon="139.97008150243593">
<time>2026-06-02T08:47:15Z</time>
<ele>22.875461569055915</ele>
</trkpt>
<trkpt lat="35.860296079826114" lon="139.97021222096686">
<time>2026-06-02T08:47:25Z</time>
<ele>23.157586757093668</ele>
</trkpt>
<trkpt lat="35.860186594964276" lon="139.97027714507757">
<time>2026-06-02T08:47:28Z</time>
<ele>23.309740368276834</ele>
</trkpt>
<trkpt lat="35.860106875832365" lon="139.9703385268025">
<time>2026-06-02T08:47:31Z</time>
<ele>23.142752916552126</ele>
</trkpt>
<trkpt lat="35.86003282182424" lon="139.97042568469323">
<time>2026-06-02T08:47:42Z</time>
<ele>23.514530224725604</ele>
</trkpt>
<trkpt lat="35.86012731678646" lon="139.9704858401416">
<time>2026-06-02T08:47:45Z</time>
<ele>23.18709283042699</ele>
</trkpt>
<trkpt lat="35.860239095883855" lon="139.97053397673426">
<time>2026-06-02T08:47:56Z</time>
<ele>23.439590866677463</ele>
</trkpt>
<trkpt lat="35.860192969562135" lon="139.97062954749478">
<time>2026-06-02T08:48:17Z</time>
<ele>23.565615193918347</ele>
</trkpt>
<trkpt lat="35.860190989795264" lon="139.97075464977235">
<time>2026-06-02T08:48:27Z</time>
<ele>23.704172423109412</ele>
</trkpt>
<trkpt lat="35.86017255449794" lon="139.97086376083797">
<time>2026-06-02T08:48:54Z</time>
<ele>24.061601221561432</ele>
</trkpt>
<trkpt lat="35.86025631220115" lon="139.97093045788662">
<time>2026-06-02T08:49:46Z</time>
<ele>25.553138102404773</ele>
</trkpt>
<trkpt lat="35.86015769108413" lon="139.97084990134852">
<time>2026-06-02T08:49:53Z</time>
<ele>24.14833205193281</ele>
</trkpt>
<trkpt lat="35.86006719642143" lon="139.9708727892521">
<time>2026-06-02T08:50:07Z</time>
<ele>24.608396505005658</ele>
</trkpt>
<trkpt lat="35.86015622385879" lon="139.97083946587455">
<time>2026-06-02T08:50:24Z</time>
<ele>24.464389767497778</ele>
</trkpt>
<trkpt lat="35.860225021683796" lon="139.97076561890086">
<time>2026-06-02T08:50:33Z</time>
<ele>24.665277897380292</ele>
</trkpt>
<trkpt lat="35.86042943783867" lon="139.97075862010158">
<time>2026-06-02T08:50:39Z</time>
<ele>25.86312850471586</ele>
</trkpt>
<trkpt lat="35.8602006174959" lon="139.97077276011925">
<time>2026-06-02T08:50:41Z</time>
<ele>32.60842897556722</ele>
</trkpt>
<trkpt lat="35.86053963603335" lon="139.9707186229942">
<time>2026-06-02T08:50:58Z</time>
<ele>28.52091596969521</ele>
</trkpt>
<trkpt lat="35.86047118831871" lon="139.97048975704493">
<time>2026-06-02T08:51:04Z</time>
<ele>24.95537815371152</ele>
</trkpt>
<trkpt lat="35.86045730179068" lon="139.97031058876328">
<time>2026-06-02T08:51:38Z</time>
<ele>25.306433883917776</ele>
</trkpt>
<trkpt lat="35.86051906274522" lon="139.9702280732499">
<time>2026-06-02T08:51:54Z</time>
<ele>25.066831911864455</ele>
</trkpt>
<trkpt lat="35.860517551551496" lon="139.97034847854937">
<time>2026-06-02T08:52:02Z</time>
<ele>25.3401010584055</ele>
</trkpt>
<trkpt lat="35.86015630699446" lon="139.9702765372396">
<time>2026-06-02T08:52:03Z</time>
<ele>25.339658831658767</ele>
</trkpt>
<trkpt lat="35.86060127973389" lon="139.97013146856304">
<time>2026-06-02T08:52:09Z</time>
<ele>25.34302444458008</ele>
</trkpt>
<trkpt lat="35.86052034448806" lon="139.9702239413277">
<time>2026-06-02T08:52:15Z</time>
<ele>25.360943974707567</ele>
</trkpt>
<trkpt lat="35.86041771499524" lon="139.97033172956046">
<time>2026-06-02T08:52:16Z</time>
<ele>25.33970842272322</ele>
</trkpt>
<trkpt lat="35.860539243491615" lon="139.97040100336324">
<time>2026-06-02T08:52:32Z</time>
<ele>25.34325332641602</ele>
</trkpt>
<trkpt lat="35.860435394560646" lon="139.97031884503247">
<time>2026-06-02T08:52:39Z</time>
<ele>25.34320755004883</ele>
</trkpt>
<trkpt lat="35.86032599716074" lon="139.9702953081932">
<time>2026-06-02T08:52:48Z</time>
<ele>25.343249511718753</ele>
</trkpt>
<trkpt lat="35.86051930752953" lon="139.9702257395733">
<time>2026-06-02T08:53:12Z</time>
<ele>25.34302444458008</ele>
</trkpt>
<trkpt lat="35.86043450624244" lon="139.9703181153579">
<time>2026-06-02T08:53:19Z</time>
<ele>25.34320755004883</ele>
</trkpt>
<trkpt lat="35.86046155440104" lon="139.9702885435839">
<time>2026-06-02T08:53:20Z</time>
<ele>25.34320755004883</ele>
</trkpt>
<trkpt lat="35.8604577418405" lon="139.97044312653097">
<time>2026-06-02T08:56:49Z</time>
<ele>25.00601072665534</ele>
</trkpt>
<trkpt lat="35.860459611706375" lon="139.97047374185084">
<time>2026-06-02T08:57:01Z</time>
<ele>25.125642164527278</ele>
</trkpt>
<trkpt lat="35.86035261398121" lon="139.97057465419044">
<time>2026-06-02T08:57:28Z</time>
<ele>26.00418974690396</ele>
</trkpt>
<trkpt lat="35.86043747869083" lon="139.97069344278236">
<time>2026-06-02T08:57:35Z</time>
<ele>26.27742122299523</ele>
</trkpt>
<trkpt lat="35.86060067606872" lon="139.97087182123715">
<time>2026-06-02T08:57:41Z</time>
<ele>29.258036224933903</ele>
</trkpt>
<trkpt lat="35.86038527458572" lon="139.97063330420545">
<time>2026-06-02T08:57:55Z</time>
<ele>26.488463098895174</ele>
</trkpt>
<trkpt lat="35.86055378613924" lon="139.97062127977298">
<time>2026-06-02T08:58:01Z</time>
<ele>25.63153977383162</ele>
</trkpt>
<trkpt lat="35.86047127256509" lon="139.97046326638488">
<time>2026-06-02T08:58:15Z</time>
<ele>25.316294861926096</ele>
</trkpt>
<trkpt lat="35.86048053952467" lon="139.9705738170689">
<time>2026-06-02T08:58:21Z</time>
<ele>25.99586699606425</ele>
</trkpt>
<trkpt lat="35.8605691911315" lon="139.9706342872145">
<time>2026-06-02T08:58:27Z</time>
<ele>24.91685769305967</ele>
</trkpt>
<trkpt lat="35.86052830809567" lon="139.9703578030236">
<time>2026-06-02T08:58:39Z</time>
<ele>25.179135179668663</ele>
</trkpt>
<trkpt lat="35.86064382636389" lon="139.9704254460106">
<time>2026-06-02T08:58:52Z</time>
<ele>23.438584140501916</ele>
</trkpt>
<trkpt lat="35.86072262666157" lon="139.9704927312526">
<time>2026-06-02T08:59:12Z</time>
<ele>23.53443495091051</ele>
</trkpt>
<trkpt lat="35.86080140984411" lon="139.97056147602717">
<time>2026-06-02T08:59:19Z</time>
<ele>23.907668468542397</ele>
</trkpt>
<trkpt lat="35.86088434166878" lon="139.970640369147">
<time>2026-06-02T08:59:35Z</time>
<ele>24.28179384022951</ele>
</trkpt>
<trkpt lat="35.86097362203799" lon="139.97067702765509">
<time>2026-06-02T08:59:44Z</time>
<ele>24.62925292365253</ele>
</trkpt>
<trkpt lat="35.861057992964845" lon="139.9707262827362">
<time>2026-06-02T08:59:50Z</time>
<ele>25.04848302155733</ele>
</trkpt>
<trkpt lat="35.86114775181146" lon="139.97073965081677">
<time>2026-06-02T09:00:02Z</time>
<ele>24.761770762503147</ele>
</trkpt>
<trkpt lat="35.86117547494833" lon="139.9708491879722">
<time>2026-06-02T09:00:10Z</time>
<ele>25.03957672510296</ele>
</trkpt>
<trkpt lat="35.86126965431806" lon="139.9708950646364">
<time>2026-06-02T09:00:32Z</time>
<ele>25.891223311424255</ele>
</trkpt>
<trkpt lat="35.86136697071727" lon="139.97092244855753">
<time>2026-06-02T09:00:38Z</time>
<ele>26.287812969647348</ele>
</trkpt>
<trkpt lat="35.861450609827024" lon="139.97097137136385">
<time>2026-06-02T09:00:47Z</time>
<ele>25.965687888674438</ele>
</trkpt>
<trkpt lat="35.86151057117689" lon="139.97106431657747">
<time>2026-06-02T09:00:55Z</time>
<ele>26.220239440910518</ele>
</trkpt>
<trkpt lat="35.86155580340226" lon="139.97118244112372">
<time>2026-06-02T09:01:09Z</time>
<ele>26.32884429115802</ele>
</trkpt>
<trkpt lat="35.8616303022426" lon="139.971245061606">
<time>2026-06-02T09:01:15Z</time>
<ele>26.818700687028468</ele>
</trkpt>
<trkpt lat="35.86164343183625" lon="139.97136349244602">
<time>2026-06-02T09:01:26Z</time>
<ele>27.023520849645138</ele>
</trkpt>
<trkpt lat="35.86173820780653" lon="139.9713972445013">
<time>2026-06-02T09:01:35Z</time>
<ele>26.93252868577838</ele>
</trkpt>
<trkpt lat="35.86181940724692" lon="139.97144627750893">
<time>2026-06-02T09:01:43Z</time>
<ele>26.810779709368944</ele>
</trkpt>
<trkpt lat="35.861891208687105" lon="139.97151350779222">
<time>2026-06-02T09:01:51Z</time>
<ele>26.914357195608318</ele>
</trkpt>
<trkpt lat="35.861975079932364" lon="139.97159000779527">
<time>2026-06-02T09:02:00Z</time>
<ele>26.933469396084547</ele>
</trkpt>
<trkpt lat="35.86195962582621" lon="139.97170326990218">
<time>2026-06-02T09:02:12Z</time>
<ele>27.06952062435448</ele>
</trkpt>
<trkpt lat="35.86187498371781" lon="139.97177345483757">
<time>2026-06-02T09:02:22Z</time>
<ele>26.804107083007693</ele>
</trkpt>
<trkpt lat="35.86179010196704" lon="139.9718117750443">
<time>2026-06-02T09:02:36Z</time>
<ele>27.737950259819627</ele>
</trkpt>
<trkpt lat="35.861880502262835" lon="139.9718330934284">
<time>2026-06-02T09:03:17Z</time>
<ele>27.159599881619215</ele>
</trkpt>
<trkpt lat="35.86194460273536" lon="139.97175316144174">
<time>2026-06-02T09:03:57Z</time>
<ele>28.052409052848816</ele>
</trkpt>
<trkpt lat="35.861926641103466" lon="139.97148295027816">
<time>2026-06-02T09:04:43Z</time>
<ele>27.165231078863144</ele>
</trkpt>
<trkpt lat="35.86205920805148" lon="139.9714054993111">
<time>2026-06-02T09:05:06Z</time>
<ele>27.22685498557985</ele>
</trkpt>
<trkpt lat="35.86198351877606" lon="139.97149078407855">
<time>2026-06-02T09:06:17Z</time>
<ele>27.01879042107612</ele>
</trkpt>
<trkpt lat="35.86204401645611" lon="139.97127758480224">
<time>2026-06-02T09:09:16Z</time>
<ele>45.642120415344834</ele>
</trkpt>
<trkpt lat="35.86204937196893" lon="139.97127466848116">
<time>2026-06-02T09:09:19Z</time>
<ele>45.6421203808859</ele>
</trkpt>
<trkpt lat="35.862022442477695" lon="139.97144258240598">
<time>2026-06-02T09:09:24Z</time>
<ele>26.9061426166445</ele>
</trkpt>
<trkpt lat="35.86218719003627" lon="139.97145730626758">
<time>2026-06-02T09:11:20Z</time>
<ele>27.201184494420886</ele>
</trkpt>
</trkseg>
</trk>
</gpx>