<?xml version="1.0" encoding="UTF-8"?>
<gpx version="1.1" creator="RouteHistory - https://www.ateow.com" xmlns="http://www.topografix.com/GPX/1/1" xmlns:rh="http://www.ateow.com/routehistory">
<metadata>
<name></name>
<desc></desc>
<extensions>
<rh:id>1</rh:id>
</extensions>
</metadata>
<trk>
<trkseg>
<trkpt lat="35.862277776103994" lon="139.97154189501958">
<time>2026-06-02T08:28:28Z</time>
<ele>26.42828556522727</ele>
</trkpt>
<trkpt lat="35.86220023627262" lon="139.97160182076138">
<time>2026-06-02T08:28:38Z</time>
<ele>26.392863996326923</ele>
</trkpt>
<trkpt lat="35.86211752343921" lon="139.97166253584126">
<time>2026-06-02T08:28:47Z</time>
<ele>27.77602661587298</ele>
</trkpt>
<trkpt lat="35.861993623121" lon="139.97168938264656">
<time>2026-06-02T08:28:57Z</time>
<ele>26.793710866943</ele>
</trkpt>
<trkpt lat="35.86193482679712" lon="139.97178963523206">
<time>2026-06-02T08:29:12Z</time>
<ele>25.579021939076483</ele>
</trkpt>
<trkpt lat="35.86188472701211" lon="139.97188371130656">
<time>2026-06-02T08:29:23Z</time>
<ele>25.82718303706497</ele>
</trkpt>
<trkpt lat="35.861784380175806" lon="139.9719113675639">
<time>2026-06-02T08:29:31Z</time>
<ele>27.046230416744947</ele>
</trkpt>
<trkpt lat="35.86169169241106" lon="139.97194101345522">
<time>2026-06-02T08:29:44Z</time>
<ele>26.562536412850022</ele>
</trkpt>
<trkpt lat="35.86162626382489" lon="139.972017954194">
<time>2026-06-02T08:30:08Z</time>
<ele>27.59032264817506</ele>
</trkpt>
<trkpt lat="35.861547510018355" lon="139.9720906518248">
<time>2026-06-02T08:30:15Z</time>
<ele>27.759830506518483</ele>
</trkpt>
<trkpt lat="35.8614771615811" lon="139.9721629111446">
<time>2026-06-02T08:30:28Z</time>
<ele>26.980043849907815</ele>
</trkpt>
<trkpt lat="35.86138844511827" lon="139.97219960042185">
<time>2026-06-02T08:30:36Z</time>
<ele>27.11785003449768</ele>
</trkpt>
<trkpt lat="35.86130212466069" lon="139.9722488054148">
<time>2026-06-02T08:30:46Z</time>
<ele>27.378929459489882</ele>
</trkpt>
<trkpt lat="35.86124686174718" lon="139.97235736918452">
<time>2026-06-02T08:30:54Z</time>
<ele>27.07570492476225</ele>
</trkpt>
<trkpt lat="35.86117359513644" lon="139.97243779429212">
<time>2026-06-02T08:31:02Z</time>
<ele>27.001614124514163</ele>
</trkpt>
<trkpt lat="35.86111081160594" lon="139.972532541961">
<time>2026-06-02T08:31:10Z</time>
<ele>28.14342117961496</ele>
</trkpt>
<trkpt lat="35.861195551489764" lon="139.97258315684118">
<time>2026-06-02T08:31:43Z</time>
<ele>27.398683823645115</ele>
</trkpt>
<trkpt lat="35.86121184577004" lon="139.97269685291084">
<time>2026-06-02T08:32:15Z</time>
<ele>27.160870700143278</ele>
</trkpt>
<trkpt lat="35.861274226471004" lon="139.97278418198528">
<time>2026-06-02T08:33:00Z</time>
<ele>41.987396384589374</ele>
</trkpt>
<trkpt lat="35.86135354864508" lon="139.97269344203346">
<time>2026-06-02T08:33:04Z</time>
<ele>38.63784807175398</ele>
</trkpt>
<trkpt lat="35.86136860943086" lon="139.9725683716762">
<time>2026-06-02T08:33:07Z</time>
<ele>39.29476949945092</ele>
</trkpt>
<trkpt lat="35.861324148782806" lon="139.972440595051">
<time>2026-06-02T08:33:10Z</time>
<ele>38.34811428375542</ele>
</trkpt>
<trkpt lat="35.86126326359338" lon="139.97265390579457">
<time>2026-06-02T08:33:17Z</time>
<ele>26.95134229026735</ele>
</trkpt>
<trkpt lat="35.86112474227297" lon="139.97259195671543">
<time>2026-06-02T08:33:22Z</time>
<ele>27.050673849880695</ele>
</trkpt>
<trkpt lat="35.861217854163435" lon="139.9725982746525">
<time>2026-06-02T08:33:31Z</time>
<ele>27.252916713245213</ele>
</trkpt>
<trkpt lat="35.86114245596398" lon="139.9724973975125">
<time>2026-06-02T08:33:43Z</time>
<ele>27.19268441013992</ele>
</trkpt>
<trkpt lat="35.86124320889149" lon="139.97255527793453">
<time>2026-06-02T08:33:57Z</time>
<ele>27.25582290161401</ele>
</trkpt>
<trkpt lat="35.86117323871558" lon="139.97245588067653">
<time>2026-06-02T08:34:08Z</time>
<ele>27.34185293968767</ele>
</trkpt>
<trkpt lat="35.86115691446193" lon="139.97256771760138">
<time>2026-06-02T08:34:25Z</time>
<ele>27.141674858517945</ele>
</trkpt>
<trkpt lat="35.86122205013886" lon="139.97249047653023">
<time>2026-06-02T08:34:47Z</time>
<ele>27.457432840950787</ele>
</trkpt>
<trkpt lat="35.86126604085647" lon="139.9723751694901">
<time>2026-06-02T08:34:57Z</time>
<ele>27.174320361576974</ele>
</trkpt>
<trkpt lat="35.86131654863899" lon="139.9722791505938">
<time>2026-06-02T08:35:03Z</time>
<ele>27.28682816028595</ele>
</trkpt>
<trkpt lat="35.86137443506746" lon="139.9721930770667">
<time>2026-06-02T08:35:11Z</time>
<ele>27.71578340791166</ele>
</trkpt>
<trkpt lat="35.86136046796541" lon="139.97207970205832">
<time>2026-06-02T08:35:17Z</time>
<ele>27.72656381316483</ele>
</trkpt>
<trkpt lat="35.8615741180591" lon="139.97234788736324">
<time>2026-06-02T08:35:29Z</time>
<ele>33.61117555759847</ele>
</trkpt>
<trkpt lat="35.86154553576929" lon="139.97245542718093">
<time>2026-06-02T08:35:37Z</time>
<ele>34.2521057324484</ele>
</trkpt>
<trkpt lat="35.861505910120776" lon="139.97233033138096">
<time>2026-06-02T08:35:51Z</time>
<ele>28.80540100097656</ele>
</trkpt>
<trkpt lat="35.86142266472183" lon="139.97226154103245">
<time>2026-06-02T08:43:10Z</time>
<ele>30.14064100747254</ele>
</trkpt>
<trkpt lat="35.86137860169587" lon="139.97241384207524">
<time>2026-06-02T08:43:22Z</time>
<ele>27.861293773166835</ele>
</trkpt>
<trkpt lat="35.86128095409264" lon="139.97246004252304">
<time>2026-06-02T08:43:32Z</time>
<ele>27.367130630649626</ele>
</trkpt>
<trkpt lat="35.86119699421598" lon="139.97252045644876">
<time>2026-06-02T08:43:40Z</time>
<ele>27.49937569629401</ele>
</trkpt>
<trkpt lat="35.861122394577116" lon="139.97259774699157">
<time>2026-06-02T08:43:47Z</time>
<ele>27.311386148445308</ele>
</trkpt>
<trkpt lat="35.86104974642303" lon="139.9726726793786">
<time>2026-06-02T08:43:54Z</time>
<ele>26.932581659406424</ele>
</trkpt>
<trkpt lat="35.86098539695725" lon="139.97275366886814">
<time>2026-06-02T08:44:02Z</time>
<ele>27.19582073390484</ele>
</trkpt>
<trkpt lat="35.860995187094446" lon="139.9728905504067">
<time>2026-06-02T08:44:08Z</time>
<ele>26.777231578715146</ele>
</trkpt>
<trkpt lat="35.860953573310624" lon="139.97298882230191">
<time>2026-06-02T08:44:20Z</time>
<ele>27.236435402184725</ele>
</trkpt>
<trkpt lat="35.86086639802509" lon="139.97306249552008">
<time>2026-06-02T08:44:32Z</time>
<ele>27.211009117774665</ele>
</trkpt>
<trkpt lat="35.86080759599846" lon="139.97316564687034">
<time>2026-06-02T08:44:42Z</time>
<ele>28.13730883039534</ele>
</trkpt>
<trkpt lat="35.86071611437918" lon="139.97324535369785">
<time>2026-06-02T08:44:51Z</time>
<ele>26.86292763520032</ele>
</trkpt>
<trkpt lat="35.86065176367446" lon="139.97333457309327">
<time>2026-06-02T08:45:00Z</time>
<ele>27.082771327346563</ele>
</trkpt>
<trkpt lat="35.86059812311737" lon="139.97343609460538">
<time>2026-06-02T08:45:08Z</time>
<ele>27.058343287557364</ele>
</trkpt>
<trkpt lat="35.860516468485685" lon="139.97349127244053">
<time>2026-06-02T08:45:19Z</time>
<ele>25.943989689461887</ele>
</trkpt>
<trkpt lat="35.86047748246734" lon="139.9735955878511">
<time>2026-06-02T08:45:27Z</time>
<ele>26.128074909560382</ele>
</trkpt>
<trkpt lat="35.86048452955564" lon="139.9737134488717">
<time>2026-06-02T08:45:34Z</time>
<ele>27.09553431905806</ele>
</trkpt>
<trkpt lat="35.86045079133483" lon="139.9738401949252">
<time>2026-06-02T08:46:21Z</time>
<ele>27.12758183386177</ele>
</trkpt>
<trkpt lat="35.86049944155157" lon="139.97394194267736">
<time>2026-06-02T08:46:31Z</time>
<ele>26.87887263763696</ele>
</trkpt>
<trkpt lat="35.86055449756984" lon="139.9740308622975">
<time>2026-06-02T08:46:38Z</time>
<ele>26.79867102392018</ele>
</trkpt>
<trkpt lat="35.8606422519932" lon="139.97406646097465">
<time>2026-06-02T08:46:44Z</time>
<ele>26.765545573085546</ele>
</trkpt>
<trkpt lat="35.86073038914703" lon="139.97411979280236">
<time>2026-06-02T08:46:52Z</time>
<ele>27.17070650216192</ele>
</trkpt>
<trkpt lat="35.860768848253535" lon="139.97423200809467">
<time>2026-06-02T08:47:01Z</time>
<ele>26.092326229438186</ele>
</trkpt>
<trkpt lat="35.86082803170332" lon="139.97432757127407">
<time>2026-06-02T08:47:06Z</time>
<ele>25.663794307038188</ele>
</trkpt>
<trkpt lat="35.860890882217596" lon="139.9744230469947">
<time>2026-06-02T08:47:14Z</time>
<ele>26.097614741884172</ele>
</trkpt>
<trkpt lat="35.8609299902819" lon="139.97452774946797">
<time>2026-06-02T08:47:21Z</time>
<ele>26.33139463607222</ele>
</trkpt>
<trkpt lat="35.86098814203568" lon="139.97461905775177">
<time>2026-06-02T08:47:29Z</time>
<ele>26.038170949555933</ele>
</trkpt>
<trkpt lat="35.86103043161516" lon="139.9747237828154">
<time>2026-06-02T08:47:37Z</time>
<ele>24.055770670063794</ele>
</trkpt>
<trkpt lat="35.861078415373996" lon="139.97482204856223">
<time>2026-06-02T08:47:45Z</time>
<ele>24.708925927057862</ele>
</trkpt>
<trkpt lat="35.86109166996533" lon="139.9749404278856">
<time>2026-06-02T08:47:54Z</time>
<ele>25.876433046534657</ele>
</trkpt>
<trkpt lat="35.86114373559163" lon="139.9750350339206">
<time>2026-06-02T08:48:03Z</time>
<ele>25.923384603112936</ele>
</trkpt>
<trkpt lat="35.86121399025261" lon="139.97511603087054">
<time>2026-06-02T08:48:13Z</time>
<ele>25.940142990089953</ele>
</trkpt>
<trkpt lat="35.861175982596414" lon="139.97522776531324">
<time>2026-06-02T08:48:20Z</time>
<ele>25.521881681866944</ele>
</trkpt>
<trkpt lat="35.86116330298926" lon="139.97534167521397">
<time>2026-06-02T08:48:27Z</time>
<ele>26.265868022106588</ele>
</trkpt>
<trkpt lat="35.86114451430264" lon="139.97545728917746">
<time>2026-06-02T08:48:34Z</time>
<ele>24.808919306844473</ele>
</trkpt>
<trkpt lat="35.861065288152986" lon="139.9755128297019">
<time>2026-06-02T08:48:40Z</time>
<ele>26.390484280884266</ele>
</trkpt>
<trkpt lat="35.86099555521081" lon="139.97558588166427">
<time>2026-06-02T08:48:47Z</time>
<ele>26.32217276841402</ele>
</trkpt>
<trkpt lat="35.86092223184809" lon="139.975660835089">
<time>2026-06-02T08:48:54Z</time>
<ele>26.75935171265155</ele>
</trkpt>
<trkpt lat="35.86085064491119" lon="139.97574263733134">
<time>2026-06-02T08:49:02Z</time>
<ele>26.04418891388923</ele>
</trkpt>
<trkpt lat="35.86080483342478" lon="139.97584543447968">
<time>2026-06-02T08:49:09Z</time>
<ele>25.635042200796306</ele>
</trkpt>
<trkpt lat="35.86077371246976" lon="139.97596664146093">
<time>2026-06-02T08:49:19Z</time>
<ele>25.679399605840445</ele>
</trkpt>
<trkpt lat="35.8607042872605" lon="139.97604136348838">
<time>2026-06-02T08:49:29Z</time>
<ele>26.272907558828592</ele>
</trkpt>
<trkpt lat="35.86062826345035" lon="139.97610311556377">
<time>2026-06-02T08:49:39Z</time>
<ele>27.104232113808393</ele>
</trkpt>
<trkpt lat="35.86053719058059" lon="139.97616185793805">
<time>2026-06-02T08:50:08Z</time>
<ele>27.11302643828094</ele>
</trkpt>
<trkpt lat="35.860432936338476" lon="139.9761657556169">
<time>2026-06-02T08:50:31Z</time>
<ele>27.148116909898818</ele>
</trkpt>
<trkpt lat="35.860566416529515" lon="139.9761051939968">
<time>2026-06-02T08:51:09Z</time>
<ele>21.92121124267578</ele>
</trkpt>
<trkpt lat="35.86060000799833" lon="139.9760633441083">
<time>2026-06-02T08:51:23Z</time>
<ele>26.491145935058597</ele>
</trkpt>
<trkpt lat="35.86039548800508" lon="139.97602318453752">
<time>2026-06-02T08:51:30Z</time>
<ele>26.491226043701175</ele>
</trkpt>
<trkpt lat="35.8604036763258" lon="139.9759821633422">
<time>2026-06-02T08:51:46Z</time>
<ele>26.491165008544925</ele>
</trkpt>
<trkpt lat="35.86053093266745" lon="139.97606697248642">
<time>2026-06-02T08:51:53Z</time>
<ele>26.07188729569316</ele>
</trkpt>
<trkpt lat="35.860527523904736" lon="139.9760675189716">
<time>2026-06-02T08:51:54Z</time>
<ele>26.060408757068217</ele>
</trkpt>
<trkpt lat="35.86047820640606" lon="139.97616990888582">
<time>2026-06-02T08:52:31Z</time>
<ele>25.781045442447066</ele>
</trkpt>
<trkpt lat="35.86052478760106" lon="139.97593651538713">
<time>2026-06-02T08:52:39Z</time>
<ele>29.4971008496359</ele>
</trkpt>
<trkpt lat="35.860499203506436" lon="139.97574611543035">
<time>2026-06-02T08:52:42Z</time>
<ele>29.673126745969057</ele>
</trkpt>
<trkpt lat="35.86043036730482" lon="139.97565978977678">
<time>2026-06-02T08:52:45Z</time>
<ele>29.450836695730686</ele>
</trkpt>
<trkpt lat="35.86051790926793" lon="139.9760847529014">
<time>2026-06-02T08:52:58Z</time>
<ele>28.389374033547938</ele>
</trkpt>
<trkpt lat="35.860523978662044" lon="139.97609403104417">
<time>2026-06-02T08:53:16Z</time>
<ele>21.92121124267578</ele>
</trkpt>
<trkpt lat="35.86061797545591" lon="139.9761160515266">
<time>2026-06-02T08:54:58Z</time>
<ele>25.883500744588673</ele>
</trkpt>
<trkpt lat="35.86051660208635" lon="139.97610811324247">
<time>2026-06-02T08:55:12Z</time>
<ele>26.159178129397333</ele>
</trkpt>
<trkpt lat="35.860390031241124" lon="139.97618350910085">
<time>2026-06-02T08:55:23Z</time>
<ele>29.89877432771027</ele>
</trkpt>
<trkpt lat="35.86030056100786" lon="139.97627375644845">
<time>2026-06-02T08:55:26Z</time>
<ele>28.71298353560269</ele>
</trkpt>
<trkpt lat="35.86048392366483" lon="139.97614043353235">
<time>2026-06-02T08:55:27Z</time>
<ele>28.479585031047463</ele>
</trkpt>
<trkpt lat="35.860530591354454" lon="139.9762495813763">
<time>2026-06-02T08:55:34Z</time>
<ele>26.874481512233615</ele>
</trkpt>
<trkpt lat="35.86049135153723" lon="139.97615928344865">
<time>2026-06-02T08:55:36Z</time>
<ele>25.556819749996066</ele>
</trkpt>
<trkpt lat="35.860484651563425" lon="139.97617683992382">
<time>2026-06-02T08:55:39Z</time>
<ele>25.397462837398052</ele>
</trkpt>
<trkpt lat="35.860567054382955" lon="139.97609891117295">
<time>2026-06-02T08:55:47Z</time>
<ele>28.689301184378564</ele>
</trkpt>
<trkpt lat="35.86064330974694" lon="139.9760223237945">
<time>2026-06-02T08:55:51Z</time>
<ele>28.175751691684127</ele>
</trkpt>
<trkpt lat="35.86052258016808" lon="139.97608091282763">
<time>2026-06-02T08:55:52Z</time>
<ele>28.175750751048326</ele>
</trkpt>
<trkpt lat="35.86059423987899" lon="139.97604431969538">
<time>2026-06-02T08:56:23Z</time>
<ele>26.491119232177738</ele>
</trkpt>
<trkpt lat="35.86064214028955" lon="139.97619831155475">
<time>2026-06-02T08:57:56Z</time>
<ele>26.491355743408207</ele>
</trkpt>
<trkpt lat="35.86056804605031" lon="139.97612928946447">
<time>2026-06-02T08:58:03Z</time>
<ele>26.491165008544925</ele>
</trkpt>
<trkpt lat="35.860495714893595" lon="139.97604643443776">
<time>2026-06-02T08:58:04Z</time>
<ele>26.491149749755863</ele>
</trkpt>
<trkpt lat="35.86059051172391" lon="139.97604818374262">
<time>2026-06-02T08:58:12Z</time>
<ele>26.095083652995527</ele>
</trkpt>
<trkpt lat="35.86051295504333" lon="139.97611248072158">
<time>2026-06-02T08:58:23Z</time>
<ele>26.111669342033565</ele>
</trkpt>
<trkpt lat="35.86052940728658" lon="139.97622642191084">
<time>2026-06-02T08:58:30Z</time>
<ele>26.211237515322864</ele>
</trkpt>
<trkpt lat="35.860487173916646" lon="139.9761048005879">
<time>2026-06-02T08:58:32Z</time>
<ele>27.260561504401267</ele>
</trkpt>
<trkpt lat="35.86055684793867" lon="139.97617878057943">
<time>2026-06-02T08:58:53Z</time>
<ele>28.559872928075492</ele>
</trkpt>
<trkpt lat="35.86064371833328" lon="139.97611534121717">
<time>2026-06-02T08:59:00Z</time>
<ele>27.553302749991417</ele>
</trkpt>
<trkpt lat="35.8607034890399" lon="139.9760271861575">
<time>2026-06-02T08:59:06Z</time>
<ele>26.013389728963375</ele>
</trkpt>
<trkpt lat="35.860759166831386" lon="139.97593774854903">
<time>2026-06-02T08:59:13Z</time>
<ele>25.939394156448543</ele>
</trkpt>
<trkpt lat="35.860822181508695" lon="139.9758466912846">
<time>2026-06-02T08:59:22Z</time>
<ele>26.328746321611106</ele>
</trkpt>
<trkpt lat="35.86092246209675" lon="139.97579208907553">
<time>2026-06-02T08:59:31Z</time>
<ele>26.30121953599155</ele>
</trkpt>
<trkpt lat="35.860947942803705" lon="139.9756712004706">
<time>2026-06-02T08:59:39Z</time>
<ele>26.28567957598716</ele>
</trkpt>
<trkpt lat="35.86099257367375" lon="139.97556250640255">
<time>2026-06-02T08:59:47Z</time>
<ele>26.325375261716545</ele>
</trkpt>
<trkpt lat="35.86104745968785" lon="139.97545572089325">
<time>2026-06-02T08:59:55Z</time>
<ele>26.73012218531221</ele>
</trkpt>
<trkpt lat="35.86113797093122" lon="139.9754217617432">
<time>2026-06-02T09:00:02Z</time>
<ele>26.356805991381407</ele>
</trkpt>
<trkpt lat="35.86117981956704" lon="139.97531901085043">
<time>2026-06-02T09:00:08Z</time>
<ele>25.96107469778508</ele>
</trkpt>
<trkpt lat="35.86121341401975" lon="139.97521155146754">
<time>2026-06-02T09:00:15Z</time>
<ele>24.96117886621505</ele>
</trkpt>
<trkpt lat="35.86129338777041" lon="139.97510785329456">
<time>2026-06-02T09:00:42Z</time>
<ele>26.803450495004654</ele>
</trkpt>
<trkpt lat="35.86132886503174" lon="139.9750040454017">
<time>2026-06-02T09:00:50Z</time>
<ele>26.706477884203196</ele>
</trkpt>
<trkpt lat="35.86134123524722" lon="139.97489054497407">
<time>2026-06-02T09:00:57Z</time>
<ele>26.790870153345168</ele>
</trkpt>
<trkpt lat="35.86135835967442" lon="139.97478115611554">
<time>2026-06-02T09:01:03Z</time>
<ele>26.78220988996327</ele>
</trkpt>
<trkpt lat="35.861377255175675" lon="139.97466228946274">
<time>2026-06-02T09:01:12Z</time>
<ele>26.773265972733498</ele>
</trkpt>
<trkpt lat="35.86138684604508" lon="139.9745439245874">
<time>2026-06-02T09:01:25Z</time>
<ele>26.148816127330065</ele>
</trkpt>
<trkpt lat="35.86140185877985" lon="139.9744295786769">
<time>2026-06-02T09:01:32Z</time>
<ele>26.870525774545968</ele>
</trkpt>
<trkpt lat="35.86143207986665" lon="139.9743206782462">
<time>2026-06-02T09:01:39Z</time>
<ele>26.87449336145073</ele>
</trkpt>
<trkpt lat="35.86143153804949" lon="139.9741977458982">
<time>2026-06-02T09:01:47Z</time>
<ele>25.765034118667245</ele>
</trkpt>
<trkpt lat="35.86142461774311" lon="139.97407019662663">
<time>2026-06-02T09:01:56Z</time>
<ele>25.96889923606068</ele>
</trkpt>
<trkpt lat="35.86141358553432" lon="139.9739446230711">
<time>2026-06-02T09:02:04Z</time>
<ele>25.95550799369812</ele>
</trkpt>
<trkpt lat="35.861458964996665" lon="139.97384216905778">
<time>2026-06-02T09:02:11Z</time>
<ele>25.688593766652048</ele>
</trkpt>
<trkpt lat="35.8614169866717" lon="139.9737388615485">
<time>2026-06-02T09:02:27Z</time>
<ele>26.190953068435192</ele>
</trkpt>
<trkpt lat="35.86146189748451" lon="139.9736364363354">
<time>2026-06-02T09:02:37Z</time>
<ele>24.980842581950128</ele>
</trkpt>
<trkpt lat="35.86150608826296" lon="139.97353820864572">
<time>2026-06-02T09:02:45Z</time>
<ele>25.716944817453623</ele>
</trkpt>
<trkpt lat="35.86146747034994" lon="139.97363976429926">
<time>2026-06-02T09:03:09Z</time>
<ele>26.014191696420312</ele>
</trkpt>
<trkpt lat="35.861420076703524" lon="139.97374259495325">
<time>2026-06-02T09:03:16Z</time>
<ele>26.438842280767858</ele>
</trkpt>
<trkpt lat="35.86132518341415" lon="139.97370836557067">
<time>2026-06-02T09:03:25Z</time>
<ele>26.51161380391568</ele>
</trkpt>
<trkpt lat="35.861241366260884" lon="139.97366592838233">
<time>2026-06-02T09:03:33Z</time>
<ele>26.93230641167611</ele>
</trkpt>
<trkpt lat="35.86114107899049" lon="139.97363471771214">
<time>2026-06-02T09:03:44Z</time>
<ele>28.00492123980075</ele>
</trkpt>
<trkpt lat="35.86107766679686" lon="139.97355379978808">
<time>2026-06-02T09:03:51Z</time>
<ele>27.0509774973616</ele>
</trkpt>
<trkpt lat="35.86100989260295" lon="139.97346707861493">
<time>2026-06-02T09:04:01Z</time>
<ele>26.623113317415118</ele>
</trkpt>
<trkpt lat="35.86096906134321" lon="139.97335309639922">
<time>2026-06-02T09:04:23Z</time>
<ele>26.60270436760038</ele>
</trkpt>
<trkpt lat="35.86087955827569" lon="139.97331035530016">
<time>2026-06-02T09:04:36Z</time>
<ele>26.803764030337334</ele>
</trkpt>
<trkpt lat="35.86090855471665" lon="139.97320406123512">
<time>2026-06-02T09:04:48Z</time>
<ele>26.73785720113665</ele>
</trkpt>
<trkpt lat="35.860956655645836" lon="139.97310070924692">
<time>2026-06-02T09:04:56Z</time>
<ele>26.846525727771223</ele>
</trkpt>
<trkpt lat="35.861009014141764" lon="139.97299204080267">
<time>2026-06-02T09:05:06Z</time>
<ele>26.880497893318534</ele>
</trkpt>
<trkpt lat="35.86109903338714" lon="139.97292485664957">
<time>2026-06-02T09:05:16Z</time>
<ele>27.41554231196642</ele>
</trkpt>
<trkpt lat="35.861173451555146" lon="139.9728586027393">
<time>2026-06-02T09:05:23Z</time>
<ele>26.67639402113855</ele>
</trkpt>
<trkpt lat="35.861228151333044" lon="139.9727627109409">
<time>2026-06-02T09:05:33Z</time>
<ele>26.81133876182139</ele>
</trkpt>
<trkpt lat="35.86130654257641" lon="139.9727054650396">
<time>2026-06-02T09:05:41Z</time>
<ele>26.908584602177143</ele>
</trkpt>
<trkpt lat="35.86140381421882" lon="139.97267763406754">
<time>2026-06-02T09:05:53Z</time>
<ele>26.805140115320683</ele>
</trkpt>
<trkpt lat="35.861493841760506" lon="139.97270150297467">
<time>2026-06-02T09:06:01Z</time>
<ele>26.67991710267961</ele>
</trkpt>
<trkpt lat="35.86159801642449" lon="139.9726861609637">
<time>2026-06-02T09:06:12Z</time>
<ele>26.564346444793046</ele>
</trkpt>
<trkpt lat="35.86168888190876" lon="139.97266565273787">
<time>2026-06-02T09:06:30Z</time>
<ele>27.6198797384277</ele>
</trkpt>
<trkpt lat="35.861740462319865" lon="139.97276485472293">
<time>2026-06-02T09:06:59Z</time>
<ele>26.769450774416327</ele>
</trkpt>
<trkpt lat="35.86181698440423" lon="139.97270616679222">
<time>2026-06-02T09:07:35Z</time>
<ele>26.670736216939986</ele>
</trkpt>
<trkpt lat="35.86178656046649" lon="139.97259804566335">
<time>2026-06-02T09:08:22Z</time>
<ele>26.950629984028637</ele>
</trkpt>
<trkpt lat="35.86175652969541" lon="139.9727289967195">
<time>2026-06-02T09:08:30Z</time>
<ele>27.425774321891367</ele>
</trkpt>
<trkpt lat="35.86184569506976" lon="139.97266647303243">
<time>2026-06-02T09:09:40Z</time>
<ele>26.70604734029621</ele>
</trkpt>
<trkpt lat="35.86180703039137" lon="139.97277224897203">
<time>2026-06-02T09:12:15Z</time>
<ele>27.78597961179912</ele>
</trkpt>
<trkpt lat="35.86178471313128" lon="139.97265649825925">
<time>2026-06-02T09:12:29Z</time>
<ele>26.74540310818702</ele>
</trkpt>
<trkpt lat="35.86170130567652" lon="139.97270885235181">
<time>2026-06-02T09:12:41Z</time>
<ele>26.84762703627348</ele>
</trkpt>
<trkpt lat="35.86160087765832" lon="139.97270601703883">
<time>2026-06-02T09:12:49Z</time>
<ele>27.014207892119884</ele>
</trkpt>
<trkpt lat="35.861508736091714" lon="139.97270687000605">
<time>2026-06-02T09:12:56Z</time>
<ele>27.089966223575175</ele>
</trkpt>
<trkpt lat="35.861414215566654" lon="139.97267252337323">
<time>2026-06-02T09:13:06Z</time>
<ele>27.149027664214373</ele>
</trkpt>
<trkpt lat="35.86140192789943" lon="139.97255074392692">
<time>2026-06-02T09:13:19Z</time>
<ele>26.568742970936</ele>
</trkpt>
<trkpt lat="35.86146179059504" lon="139.97246451445685">
<time>2026-06-02T09:13:26Z</time>
<ele>26.906824866309762</ele>
</trkpt>
<trkpt lat="35.86150636801067" lon="139.9723641532968">
<time>2026-06-02T09:13:35Z</time>
<ele>26.68032868951559</ele>
</trkpt>
<trkpt lat="35.86155763841613" lon="139.97226169213582">
<time>2026-06-02T09:13:43Z</time>
<ele>26.976812199689448</ele>
</trkpt>
<trkpt lat="35.861622326190265" lon="139.97216266907165">
<time>2026-06-02T09:13:49Z</time>
<ele>26.98891482874751</ele>
</trkpt>
<trkpt lat="35.86168873808794" lon="139.9720801556577">
<time>2026-06-02T09:13:57Z</time>
<ele>27.057845412753522</ele>
</trkpt>
<trkpt lat="35.86176039918829" lon="139.97198762622506">
<time>2026-06-02T09:14:03Z</time>
<ele>26.601360253989697</ele>
</trkpt>
<trkpt lat="35.86183353441065" lon="139.97190427371203">
<time>2026-06-02T09:14:10Z</time>
<ele>26.293087198399007</ele>
</trkpt>
<trkpt lat="35.861876971274036" lon="139.97180536771435">
<time>2026-06-02T09:14:21Z</time>
<ele>26.483791271224618</ele>
</trkpt>
<trkpt lat="35.861946287475206" lon="139.97172048987954">
<time>2026-06-02T09:15:14Z</time>
<ele>27.958596072159708</ele>
</trkpt>
<trkpt lat="35.86203857221491" lon="139.97167104084906">
<time>2026-06-02T09:15:26Z</time>
<ele>27.1944366870448</ele>
</trkpt>
<trkpt lat="35.862123928704634" lon="139.97162702815166">
<time>2026-06-02T09:15:34Z</time>
<ele>28.226335973478854</ele>
</trkpt>
<trkpt lat="35.862197311812075" lon="139.9715534764153">
<time>2026-06-02T09:15:39Z</time>
<ele>27.12101285904646</ele>
</trkpt>
<trkpt lat="35.86226492249409" lon="139.97147736623572">
<time>2026-06-02T09:15:46Z</time>
<ele>27.394442959688604</ele>
</trkpt>
</trkseg>
</trk>
</gpx>