<?xml version="1.0" encoding="UTF-8"?>
<gpx version="1.1" creator="RouteHistory - https://www.ateow.com" xmlns="http://www.topografix.com/GPX/1/1" xmlns:rh="http://www.ateow.com/routehistory">
<trk>
<trkseg>
<trkpt lat="35.86234675428137" lon="139.97150547075492">
<time>2026-06-02T08:28:11Z</time>
<ele>28.189158542081714</ele>
</trkpt>
<trkpt lat="35.86227600039979" lon="139.97145817990378">
<time>2026-06-02T08:28:33Z</time>
<ele>26.704816701821983</ele>
</trkpt>
<trkpt lat="35.86220008687819" lon="139.97151807426408">
<time>2026-06-02T08:28:43Z</time>
<ele>26.317885695956647</ele>
</trkpt>
<trkpt lat="35.862111351009766" lon="139.97154459625685">
<time>2026-06-02T08:29:01Z</time>
<ele>26.07966788392514</ele>
</trkpt>
<trkpt lat="35.86205720155264" lon="139.971637245962">
<time>2026-06-02T08:29:08Z</time>
<ele>26.4193357527256</ele>
</trkpt>
<trkpt lat="35.86198987935894" lon="139.97171485418647">
<time>2026-06-02T08:29:12Z</time>
<ele>26.340761702507734</ele>
</trkpt>
<trkpt lat="35.86193249727075" lon="139.9718138233597">
<time>2026-06-02T08:29:29Z</time>
<ele>24.073045877739787</ele>
</trkpt>
<trkpt lat="35.861844203919965" lon="139.97184276655076">
<time>2026-06-02T08:29:44Z</time>
<ele>25.206767993047833</ele>
</trkpt>
<trkpt lat="35.861757958414294" lon="139.97188401708001">
<time>2026-06-02T08:29:49Z</time>
<ele>25.10148359835148</ele>
</trkpt>
<trkpt lat="35.861662854006035" lon="139.97190937649953">
<time>2026-06-02T08:29:58Z</time>
<ele>25.89409107621759</ele>
</trkpt>
<trkpt lat="35.86157859979185" lon="139.97196983935999">
<time>2026-06-02T08:30:06Z</time>
<ele>26.576136556454003</ele>
</trkpt>
<trkpt lat="35.8615083456603" lon="139.97205282459942">
<time>2026-06-02T08:30:15Z</time>
<ele>27.275158488191664</ele>
</trkpt>
<trkpt lat="35.86147191928334" lon="139.97215503058646">
<time>2026-06-02T08:30:28Z</time>
<ele>27.124758386053145</ele>
</trkpt>
<trkpt lat="35.8614108892438" lon="139.9722400291409">
<time>2026-06-02T08:30:41Z</time>
<ele>27.379384521394968</ele>
</trkpt>
<trkpt lat="35.861341524454666" lon="139.97232031457384">
<time>2026-06-02T08:30:50Z</time>
<ele>27.271522809751332</ele>
</trkpt>
<trkpt lat="35.861275249934216" lon="139.97240493256973">
<time>2026-06-02T08:31:00Z</time>
<ele>26.84377968404442</ele>
</trkpt>
<trkpt lat="35.861238281856636" lon="139.97251626718835">
<time>2026-06-02T08:31:09Z</time>
<ele>26.778833066113293</ele>
</trkpt>
<trkpt lat="35.86116254911123" lon="139.97260295863575">
<time>2026-06-02T08:31:16Z</time>
<ele>26.380542686209083</ele>
</trkpt>
<trkpt lat="35.86108868784218" lon="139.97267976762072">
<time>2026-06-02T08:31:25Z</time>
<ele>26.507887684740126</ele>
</trkpt>
<trkpt lat="35.861024989459295" lon="139.97276726080085">
<time>2026-06-02T08:31:33Z</time>
<ele>26.804745244793594</ele>
</trkpt>
<trkpt lat="35.86096124030584" lon="139.9728635003955">
<time>2026-06-02T08:31:43Z</time>
<ele>26.55283902026713</ele>
</trkpt>
<trkpt lat="35.86089854867376" lon="139.97294891188864">
<time>2026-06-02T08:31:51Z</time>
<ele>27.084106569178402</ele>
</trkpt>
<trkpt lat="35.86084106044845" lon="139.9730387524455">
<time>2026-06-02T08:32:01Z</time>
<ele>26.30923406686634</ele>
</trkpt>
<trkpt lat="35.860783560927615" lon="139.97313127069071">
<time>2026-06-02T08:32:10Z</time>
<ele>26.97175792604685</ele>
</trkpt>
<trkpt lat="35.86071909576012" lon="139.97321133929293">
<time>2026-06-02T08:32:24Z</time>
<ele>26.3651171522215</ele>
</trkpt>
<trkpt lat="35.86064446850882" lon="139.97328151503086">
<time>2026-06-02T08:32:35Z</time>
<ele>26.578382869251072</ele>
</trkpt>
<trkpt lat="35.86058661521302" lon="139.97337102068883">
<time>2026-06-02T08:32:43Z</time>
<ele>26.713374563492835</ele>
</trkpt>
<trkpt lat="35.86053106569684" lon="139.973463496726">
<time>2026-06-02T08:32:52Z</time>
<ele>27.54359240550548</ele>
</trkpt>
<trkpt lat="35.86047463257387" lon="139.97355100698886">
<time>2026-06-02T08:33:01Z</time>
<ele>27.64443114027381</ele>
</trkpt>
<trkpt lat="35.860389087838705" lon="139.97360658450805">
<time>2026-06-02T08:33:10Z</time>
<ele>27.64759909361601</ele>
</trkpt>
<trkpt lat="35.86031133803264" lon="139.97367209807447">
<time>2026-06-02T08:34:35Z</time>
<ele>28.46921573858708</ele>
</trkpt>
<trkpt lat="35.86021659390045" lon="139.97365131705033">
<time>2026-06-02T08:34:47Z</time>
<ele>26.484586261212826</ele>
</trkpt>
<trkpt lat="35.86014967229845" lon="139.97356229834094">
<time>2026-06-02T08:34:58Z</time>
<ele>25.8929728474468</ele>
</trkpt>
<trkpt lat="35.860065127328134" lon="139.97360465302495">
<time>2026-06-02T08:35:33Z</time>
<ele>26.70849346742034</ele>
</trkpt>
<trkpt lat="35.85997525458511" lon="139.97359419053578">
<time>2026-06-02T08:36:04Z</time>
<ele>26.039718649350107</ele>
</trkpt>
<trkpt lat="35.860005383239695" lon="139.9737079121105">
<time>2026-06-02T08:36:18Z</time>
<ele>26.867850930429995</ele>
</trkpt>
<trkpt lat="35.8600875278788" lon="139.97375542305383">
<time>2026-06-02T08:36:41Z</time>
<ele>26.572086778469384</ele>
</trkpt>
<trkpt lat="35.86017226689711" lon="139.97368382258742">
<time>2026-06-02T08:36:52Z</time>
<ele>26.376721129752696</ele>
</trkpt>
<trkpt lat="35.86026269534384" lon="139.97366253364515">
<time>2026-06-02T08:37:13Z</time>
<ele>26.78408810030669</ele>
</trkpt>
<trkpt lat="35.86034710386358" lon="139.97359751784128">
<time>2026-06-02T08:37:58Z</time>
<ele>27.69507521484047</ele>
</trkpt>
<trkpt lat="35.8604339885849" lon="139.9735512590994">
<time>2026-06-02T08:38:13Z</time>
<ele>26.53174530621618</ele>
</trkpt>
<trkpt lat="35.86050522060306" lon="139.97347696340668">
<time>2026-06-02T08:38:22Z</time>
<ele>26.669678965583444</ele>
</trkpt>
<trkpt lat="35.860564342" lon="139.9733824320795">
<time>2026-06-02T08:38:31Z</time>
<ele>27.210304060019553</ele>
</trkpt>
<trkpt lat="35.860619435316195" lon="139.97329184976232">
<time>2026-06-02T08:38:39Z</time>
<ele>27.071685965172946</ele>
</trkpt>
<trkpt lat="35.86067890027675" lon="139.9731973091133">
<time>2026-06-02T08:38:48Z</time>
<ele>27.197715857997537</ele>
</trkpt>
<trkpt lat="35.86076031224027" lon="139.9731238725205">
<time>2026-06-02T08:38:58Z</time>
<ele>25.623256852850318</ele>
</trkpt>
<trkpt lat="35.86082793610607" lon="139.9730486951561">
<time>2026-06-02T08:39:07Z</time>
<ele>26.5840097470209</ele>
</trkpt>
<trkpt lat="35.86091025527528" lon="139.97299394385095">
<time>2026-06-02T08:39:14Z</time>
<ele>26.951046192087233</ele>
</trkpt>
<trkpt lat="35.86096316064392" lon="139.97289460091784">
<time>2026-06-02T08:39:23Z</time>
<ele>27.22891371510923</ele>
</trkpt>
<trkpt lat="35.8610070848503" lon="139.97278940597988">
<time>2026-06-02T08:39:34Z</time>
<ele>26.493489212356508</ele>
</trkpt>
<trkpt lat="35.86102135438762" lon="139.97267923767822">
<time>2026-06-02T08:39:45Z</time>
<ele>25.468190195038915</ele>
</trkpt>
<trkpt lat="35.86109011698145" lon="139.97260008755572">
<time>2026-06-02T08:39:55Z</time>
<ele>25.61819110903889</ele>
</trkpt>
<trkpt lat="35.86113621830471" lon="139.97248967597193">
<time>2026-06-02T08:40:02Z</time>
<ele>26.899673047475517</ele>
</trkpt>
<trkpt lat="35.861219117569725" lon="139.9724193661724">
<time>2026-06-02T08:40:10Z</time>
<ele>27.932550713419914</ele>
</trkpt>
<trkpt lat="35.86129796199075" lon="139.97235481180581">
<time>2026-06-02T08:40:17Z</time>
<ele>27.115761791355908</ele>
</trkpt>
<trkpt lat="35.86135939464303" lon="139.97226761711076">
<time>2026-06-02T08:40:26Z</time>
<ele>26.721804465167224</ele>
</trkpt>
<trkpt lat="35.861447767125966" lon="139.97229106388272">
<time>2026-06-02T08:40:35Z</time>
<ele>26.20683915168047</ele>
</trkpt>
<trkpt lat="35.86153010961613" lon="139.97221914226208">
<time>2026-06-02T08:40:41Z</time>
<ele>27.005040070042014</ele>
</trkpt>
<trkpt lat="35.86159698055185" lon="139.97213527539031">
<time>2026-06-02T08:40:49Z</time>
<ele>27.33945755381137</ele>
</trkpt>
<trkpt lat="35.861656125118145" lon="139.97204739343445">
<time>2026-06-02T08:40:58Z</time>
<ele>26.981044052168727</ele>
</trkpt>
<trkpt lat="35.86173740023748" lon="139.97199639249502">
<time>2026-06-02T08:41:14Z</time>
<ele>27.464607629925013</ele>
</trkpt>
<trkpt lat="35.861644464880975" lon="139.97195579326464">
<time>2026-06-02T08:41:31Z</time>
<ele>27.092339717783034</ele>
</trkpt>
<trkpt lat="35.86156444492865" lon="139.97190408761153">
<time>2026-06-02T08:41:48Z</time>
<ele>27.173091491684318</ele>
</trkpt>
<trkpt lat="35.86145202837488" lon="139.97187799734277">
<time>2026-06-02T08:41:55Z</time>
<ele>27.077582157216966</ele>
</trkpt>
<trkpt lat="35.86135524856513" lon="139.97190257341086">
<time>2026-06-02T08:41:59Z</time>
<ele>26.858410231769085</ele>
</trkpt>
<trkpt lat="35.86125631668946" lon="139.97188979164468">
<time>2026-06-02T08:42:10Z</time>
<ele>26.77059966698289</ele>
</trkpt>
<trkpt lat="35.861154672191766" lon="139.97186498724247">
<time>2026-06-02T08:42:21Z</time>
<ele>26.73383397422731</ele>
</trkpt>
<trkpt lat="35.8612524381098" lon="139.97186618963875">
<time>2026-06-02T08:42:51Z</time>
<ele>27.006725697778165</ele>
</trkpt>
<trkpt lat="35.86133878681152" lon="139.97190587430975">
<time>2026-06-02T08:43:02Z</time>
<ele>26.96796061564237</ele>
</trkpt>
<trkpt lat="35.86142909249104" lon="139.9719678406759">
<time>2026-06-02T08:43:13Z</time>
<ele>27.06633961480111</ele>
</trkpt>
<trkpt lat="35.8615027738724" lon="139.97203394575817">
<time>2026-06-02T08:43:23Z</time>
<ele>27.00386641267687</ele>
</trkpt>
<trkpt lat="35.86158558467795" lon="139.97196462150671">
<time>2026-06-02T08:43:31Z</time>
<ele>27.49841254390776</ele>
</trkpt>
<trkpt lat="35.86167347196858" lon="139.97192343544276">
<time>2026-06-02T08:43:36Z</time>
<ele>26.649261702783406</ele>
</trkpt>
<trkpt lat="35.861761279494935" lon="139.9718620174688">
<time>2026-06-02T08:43:44Z</time>
<ele>26.78883448522538</ele>
</trkpt>
<trkpt lat="35.86184329948951" lon="139.97180319649695">
<time>2026-06-02T08:43:51Z</time>
<ele>27.021921674720943</ele>
</trkpt>
<trkpt lat="35.86193599173676" lon="139.97179169977773">
<time>2026-06-02T08:44:16Z</time>
<ele>28.16198381781578</ele>
</trkpt>
<trkpt lat="35.86200323457009" lon="139.9717093941577">
<time>2026-06-02T08:44:40Z</time>
<ele>28.30694284942001</ele>
</trkpt>
<trkpt lat="35.862051749996525" lon="139.97159419396795">
<time>2026-06-02T08:44:52Z</time>
<ele>26.6968166641891</ele>
</trkpt>
<trkpt lat="35.86210525837268" lon="139.97149605875495">
<time>2026-06-02T08:45:00Z</time>
<ele>26.29333489201963</ele>
</trkpt>
<trkpt lat="35.86218508255204" lon="139.9714416247685">
<time>2026-06-02T08:45:10Z</time>
<ele>27.42753980215639</ele>
</trkpt>
<trkpt lat="35.86225564202727" lon="139.97137022466566">
<time>2026-06-02T08:45:18Z</time>
<ele>27.890740742906928</ele>
</trkpt>
<trkpt lat="35.862335575767446" lon="139.97128270704758">
<time>2026-06-02T08:45:25Z</time>
<ele>27.518578386865556</ele>
</trkpt>
<trkpt lat="35.862392314819495" lon="139.97119359985814">
<time>2026-06-02T08:45:32Z</time>
<ele>27.568109557032585</ele>
</trkpt>
<trkpt lat="35.86245254377815" lon="139.9710991749925">
<time>2026-06-02T08:45:42Z</time>
<ele>27.198793144896626</ele>
</trkpt>
<trkpt lat="35.86245489666463" lon="139.9709688983937">
<time>2026-06-02T08:45:54Z</time>
<ele>26.213413142599165</ele>
</trkpt>
<trkpt lat="35.86247629633554" lon="139.9708532339382">
<time>2026-06-02T08:46:02Z</time>
<ele>26.384556177072227</ele>
</trkpt>
<trkpt lat="35.86239258180217" lon="139.97098773299246">
<time>2026-06-02T08:46:11Z</time>
<ele>29.33159341663122</ele>
</trkpt>
<trkpt lat="35.862489206170814" lon="139.9709290065474">
<time>2026-06-02T08:46:18Z</time>
<ele>29.459337825767165</ele>
</trkpt>
<trkpt lat="35.86258908733817" lon="139.97077956319177">
<time>2026-06-02T08:46:23Z</time>
<ele>30.089228541342663</ele>
</trkpt>
<trkpt lat="35.862573569275455" lon="139.9706389273593">
<time>2026-06-02T08:46:26Z</time>
<ele>26.203348197042942</ele>
</trkpt>
<trkpt lat="35.86267862863554" lon="139.97058191539608">
<time>2026-06-02T08:46:29Z</time>
<ele>25.52496676892042</ele>
</trkpt>
<trkpt lat="35.86268654544315" lon="139.9704662568355">
<time>2026-06-02T08:46:33Z</time>
<ele>25.047466362826526</ele>
</trkpt>
<trkpt lat="35.86270045832474" lon="139.97035614424433">
<time>2026-06-02T08:46:40Z</time>
<ele>24.577177063561976</ele>
</trkpt>
<trkpt lat="35.862710490437806" lon="139.970240281029">
<time>2026-06-02T08:47:00Z</time>
<ele>24.443782851099968</ele>
</trkpt>
<trkpt lat="35.86264832050521" lon="139.97014974950716">
<time>2026-06-02T08:47:09Z</time>
<ele>24.783089557662606</ele>
</trkpt>
<trkpt lat="35.8625835632468" lon="139.97007208821032">
<time>2026-06-02T08:47:18Z</time>
<ele>25.282040585763752</ele>
</trkpt>
<trkpt lat="35.86250815023709" lon="139.9700065227349">
<time>2026-06-02T08:47:27Z</time>
<ele>22.97998709511012</ele>
</trkpt>
<trkpt lat="35.862432242612115" lon="139.96993925564746">
<time>2026-06-02T08:47:37Z</time>
<ele>21.96504596248269</ele>
</trkpt>
<trkpt lat="35.86232653823117" lon="139.9699491253111">
<time>2026-06-02T08:47:47Z</time>
<ele>21.575519477948546</ele>
</trkpt>
<trkpt lat="35.86225699424692" lon="139.97002505668928">
<time>2026-06-02T08:48:10Z</time>
<ele>24.654265822842717</ele>
</trkpt>
<trkpt lat="35.86231779722722" lon="139.97013493700086">
<time>2026-06-02T08:48:26Z</time>
<ele>24.24621215648949</ele>
</trkpt>
<trkpt lat="35.86233705535648" lon="139.9702437386312">
<time>2026-06-02T08:48:31Z</time>
<ele>24.616798417642713</ele>
</trkpt>
<trkpt lat="35.86240673726184" lon="139.97033001714195">
<time>2026-06-02T08:48:40Z</time>
<ele>24.559315004386008</ele>
</trkpt>
<trkpt lat="35.86249230784569" lon="139.97038332640093">
<time>2026-06-02T08:48:50Z</time>
<ele>25.634294562973082</ele>
</trkpt>
<trkpt lat="35.86258514551942" lon="139.97041672941805">
<time>2026-06-02T08:48:59Z</time>
<ele>25.833254096098244</ele>
</trkpt>
<trkpt lat="35.86267020909482" lon="139.97047504624013">
<time>2026-06-02T08:49:11Z</time>
<ele>23.865637723356485</ele>
</trkpt>
<trkpt lat="35.862726462107126" lon="139.97028325697403">
<time>2026-06-02T08:49:29Z</time>
<ele>38.764801043085754</ele>
</trkpt>
<trkpt lat="35.86275056990484" lon="139.9705453505017">
<time>2026-06-02T08:49:36Z</time>
<ele>38.28018226288259</ele>
</trkpt>
<trkpt lat="35.8628445940116" lon="139.97054293760206">
<time>2026-06-02T08:49:39Z</time>
<ele>35.466034261509776</ele>
</trkpt>
<trkpt lat="35.86255769248666" lon="139.97110208509486">
<time>2026-06-02T08:49:49Z</time>
<ele>33.912017822265625</ele>
</trkpt>
<trkpt lat="35.86258195312433" lon="139.9708979875989">
<time>2026-06-02T08:49:51Z</time>
<ele>25.756361997686327</ele>
</trkpt>
<trkpt lat="35.862585621716725" lon="139.97084649010472">
<time>2026-06-02T08:49:53Z</time>
<ele>25.98103574011475</ele>
</trkpt>
<trkpt lat="35.8625217128442" lon="139.97094697672463">
<time>2026-06-02T08:49:57Z</time>
<ele>26.247664097696543</ele>
</trkpt>
<trkpt lat="35.862435267180956" lon="139.97103175468507">
<time>2026-06-02T08:50:01Z</time>
<ele>26.927341302856803</ele>
</trkpt>
<trkpt lat="35.862406113495545" lon="139.9711382447671">
<time>2026-06-02T08:50:13Z</time>
<ele>26.593327151611447</ele>
</trkpt>
<trkpt lat="35.862359370641215" lon="139.97123603546314">
<time>2026-06-02T08:50:20Z</time>
<ele>27.3139992300421</ele>
</trkpt>
<trkpt lat="35.86231917035068" lon="139.97133752417184">
<time>2026-06-02T08:50:30Z</time>
<ele>26.937430298887193</ele>
</trkpt>
<trkpt lat="35.86225033717217" lon="139.97141879656456">
<time>2026-06-02T08:50:45Z</time>
<ele>27.237444513477385</ele>
</trkpt>
<trkpt lat="35.862170471487396" lon="139.97135636370902">
<time>2026-06-02T08:50:56Z</time>
<ele>26.80195412877947</ele>
</trkpt>
<trkpt lat="35.862090301005125" lon="139.97129741981794">
<time>2026-06-02T08:51:04Z</time>
<ele>27.38460435345769</ele>
</trkpt>
<trkpt lat="35.8620062444491" lon="139.97123659191246">
<time>2026-06-02T08:51:13Z</time>
<ele>27.405643085949123</ele>
</trkpt>
<trkpt lat="35.86192054682831" lon="139.97118724329383">
<time>2026-06-02T08:51:36Z</time>
<ele>18.767456664703786</ele>
</trkpt>
<trkpt lat="35.86183208922911" lon="139.97123245435475">
<time>2026-06-02T08:51:46Z</time>
<ele>21.333424475975335</ele>
</trkpt>
<trkpt lat="35.8618940537825" lon="139.97132687856285">
<time>2026-06-02T08:51:55Z</time>
<ele>24.439044774509966</ele>
</trkpt>
<trkpt lat="35.86181922814491" lon="139.97139341980764">
<time>2026-06-02T08:52:16Z</time>
<ele>26.000536566600204</ele>
</trkpt>
<trkpt lat="35.86173682139085" lon="139.97132401751776">
<time>2026-06-02T08:52:28Z</time>
<ele>26.243242349475622</ele>
</trkpt>
<trkpt lat="35.86165377165744" lon="139.97125980498078">
<time>2026-06-02T08:52:37Z</time>
<ele>27.016975235193968</ele>
</trkpt>
<trkpt lat="35.86156233176407" lon="139.9712988723667">
<time>2026-06-02T08:52:58Z</time>
<ele>26.86941958963871</ele>
</trkpt>
<trkpt lat="35.86151239413249" lon="139.97119810828062">
<time>2026-06-02T08:53:09Z</time>
<ele>26.6373009653762</ele>
</trkpt>
<trkpt lat="35.86145897145658" lon="139.97109858350643">
<time>2026-06-02T08:53:17Z</time>
<ele>27.021385369822383</ele>
</trkpt>
<trkpt lat="35.86140367221093" lon="139.97099808265224">
<time>2026-06-02T08:53:25Z</time>
<ele>27.22109459526837</ele>
</trkpt>
<trkpt lat="35.861323690505515" lon="139.9709279998423">
<time>2026-06-02T08:53:33Z</time>
<ele>25.96194156166166</ele>
</trkpt>
<trkpt lat="35.861298164997145" lon="139.9708214902186">
<time>2026-06-02T08:53:42Z</time>
<ele>25.73873507604003</ele>
</trkpt>
<trkpt lat="35.86119652408062" lon="139.97078138814368">
<time>2026-06-02T08:53:48Z</time>
<ele>25.73879088833928</ele>
</trkpt>
<trkpt lat="35.86108472449561" lon="139.9708031175213">
<time>2026-06-02T08:53:57Z</time>
<ele>25.6651745242998</ele>
</trkpt>
<trkpt lat="35.86099839796079" lon="139.97086673183458">
<time>2026-06-02T08:54:15Z</time>
<ele>25.10935857705772</ele>
</trkpt>
<trkpt lat="35.8610560254139" lon="139.9709526230052">
<time>2026-06-02T08:54:45Z</time>
<ele>26.36719836294651</ele>
</trkpt>
<trkpt lat="35.86098865449065" lon="139.97087758093508">
<time>2026-06-02T08:59:42Z</time>
<ele>25.75450158305466</ele>
</trkpt>
<trkpt lat="35.86108275017234" lon="139.970874785026">
<time>2026-06-02T08:59:56Z</time>
<ele>24.70211185887456</ele>
</trkpt>
<trkpt lat="35.86118496978898" lon="139.9708893391082">
<time>2026-06-02T09:00:00Z</time>
<ele>24.95650313142687</ele>
</trkpt>
<trkpt lat="35.86129567450299" lon="139.97094606634">
<time>2026-06-02T09:00:08Z</time>
<ele>25.079497395083308</ele>
</trkpt>
<trkpt lat="35.86139377239189" lon="139.97099667135598">
<time>2026-06-02T09:00:15Z</time>
<ele>25.657655163668096</ele>
</trkpt>
<trkpt lat="35.861472980903024" lon="139.97105014622136">
<time>2026-06-02T09:00:22Z</time>
<ele>26.058732096105814</ele>
</trkpt>
<trkpt lat="35.86154485749849" lon="139.97097351764273">
<time>2026-06-02T09:00:35Z</time>
<ele>25.01846079248935</ele>
</trkpt>
<trkpt lat="35.861640404913445" lon="139.9710516138009">
<time>2026-06-02T09:00:43Z</time>
<ele>25.391629190184176</ele>
</trkpt>
<trkpt lat="35.86172609311569" lon="139.97111574225644">
<time>2026-06-02T09:00:49Z</time>
<ele>26.006212333217263</ele>
</trkpt>
<trkpt lat="35.86176974741221" lon="139.97124345732155">
<time>2026-06-02T09:00:55Z</time>
<ele>26.31860068626702</ele>
</trkpt>
<trkpt lat="35.8617951816156" lon="139.97135814153552">
<time>2026-06-02T09:00:59Z</time>
<ele>26.648315934464335</ele>
</trkpt>
<trkpt lat="35.86183966347703" lon="139.97146941496908">
<time>2026-06-02T09:01:06Z</time>
<ele>27.236621060408652</ele>
</trkpt>
<trkpt lat="35.86193081868555" lon="139.97143018617516">
<time>2026-06-02T09:01:19Z</time>
<ele>27.478097172454</ele>
</trkpt>
<trkpt lat="35.86191619098867" lon="139.97130784117263">
<time>2026-06-02T09:01:44Z</time>
<ele>28.711869288235903</ele>
</trkpt>
<trkpt lat="35.8620074204103" lon="139.97130201235905">
<time>2026-06-02T09:01:59Z</time>
<ele>28.07891190983355</ele>
</trkpt>
<trkpt lat="35.862095594007975" lon="139.97136023868643">
<time>2026-06-02T09:02:08Z</time>
<ele>28.912598257884383</ele>
</trkpt>
<trkpt lat="35.86218743811349" lon="139.97140023313256">
<time>2026-06-02T09:02:18Z</time>
<ele>29.01348473224789</ele>
</trkpt>
<trkpt lat="35.86226210147739" lon="139.97146456912952">
<time>2026-06-02T09:02:26Z</time>
<ele>27.549715168774128</ele>
</trkpt>
</trkseg>
</trk>
</gpx>