<?xml version="1.0" encoding="UTF-8"?>
<gpx version="1.1" creator="RouteHistory - https://www.ateow.com" xmlns="http://www.topografix.com/GPX/1/1" xmlns:rh="http://www.ateow.com/routehistory">
<trk>
<trkseg>
<trkpt lat="35.86237240699012" lon="139.97149808708195">
<time>2026-06-02T08:28:17Z</time>
<ele>28.532732506282628</ele>
</trkpt>
<trkpt lat="35.862395390850025" lon="139.9715980106728">
<time>2026-06-02T08:28:38Z</time>
<ele>27.213979274965823</ele>
</trkpt>
<trkpt lat="35.86245951865901" lon="139.97169121062225">
<time>2026-06-02T08:28:53Z</time>
<ele>27.04652276262641</ele>
</trkpt>
<trkpt lat="35.862545094098124" lon="139.9717547471523">
<time>2026-06-02T08:29:01Z</time>
<ele>26.95361655484885</ele>
</trkpt>
<trkpt lat="35.862602450701544" lon="139.97185350103362">
<time>2026-06-02T08:29:10Z</time>
<ele>26.788406214676797</ele>
</trkpt>
<trkpt lat="35.86263886596636" lon="139.97196020367232">
<time>2026-06-02T08:29:18Z</time>
<ele>26.539386327378452</ele>
</trkpt>
<trkpt lat="35.862681918183355" lon="139.9720577153211">
<time>2026-06-02T08:29:27Z</time>
<ele>26.527260286733508</ele>
</trkpt>
<trkpt lat="35.86269445748667" lon="139.9721772351436">
<time>2026-06-02T08:29:34Z</time>
<ele>26.97180173639208</ele>
</trkpt>
<trkpt lat="35.862710225020905" lon="139.9722948496161">
<time>2026-06-02T08:29:42Z</time>
<ele>26.499219862744212</ele>
</trkpt>
<trkpt lat="35.86264435095905" lon="139.97238349750398">
<time>2026-06-02T08:29:55Z</time>
<ele>25.99235264584422</ele>
</trkpt>
<trkpt lat="35.86262884140526" lon="139.97252188414706">
<time>2026-06-02T08:30:29Z</time>
<ele>25.39189998898655</ele>
</trkpt>
<trkpt lat="35.86267215557481" lon="139.97262179789485">
<time>2026-06-02T08:30:48Z</time>
<ele>24.45927112083882</ele>
</trkpt>
<trkpt lat="35.862669327483175" lon="139.97273388335876">
<time>2026-06-02T08:30:53Z</time>
<ele>25.701411915011704</ele>
</trkpt>
<trkpt lat="35.86266297056651" lon="139.9728517807531">
<time>2026-06-02T08:31:04Z</time>
<ele>24.38122307881713</ele>
</trkpt>
<trkpt lat="35.862660662009" lon="139.9729651617418">
<time>2026-06-02T08:31:13Z</time>
<ele>23.754134102724493</ele>
</trkpt>
<trkpt lat="35.86264638225304" lon="139.97309098903742">
<time>2026-06-02T08:31:22Z</time>
<ele>24.59985933545977</ele>
</trkpt>
<trkpt lat="35.86262572155163" lon="139.97322426291998">
<time>2026-06-02T08:31:32Z</time>
<ele>24.559867179952562</ele>
</trkpt>
<trkpt lat="35.862578436545476" lon="139.9733283376362">
<time>2026-06-02T08:31:40Z</time>
<ele>24.57925054151565</ele>
</trkpt>
<trkpt lat="35.86256397372018" lon="139.97344091059085">
<time>2026-06-02T08:31:48Z</time>
<ele>24.19667292572558</ele>
</trkpt>
<trkpt lat="35.86257545422508" lon="139.97355555561208">
<time>2026-06-02T08:31:55Z</time>
<ele>23.938117968849838</ele>
</trkpt>
<trkpt lat="35.86255168259542" lon="139.97367626505678">
<time>2026-06-02T08:32:02Z</time>
<ele>25.489042334258556</ele>
</trkpt>
<trkpt lat="35.86246368209588" lon="139.9737002056661">
<time>2026-06-02T08:32:11Z</time>
<ele>22.1869910126552</ele>
</trkpt>
<trkpt lat="35.862493813571305" lon="139.9738077124251">
<time>2026-06-02T08:32:24Z</time>
<ele>22.58648016024381</ele>
</trkpt>
<trkpt lat="35.86250907974101" lon="139.97392437402272">
<time>2026-06-02T08:32:31Z</time>
<ele>22.87905928492546</ele>
</trkpt>
<trkpt lat="35.86249423406593" lon="139.9740611820246">
<time>2026-06-02T08:32:41Z</time>
<ele>24.328799759037793</ele>
</trkpt>
<trkpt lat="35.86248904903531" lon="139.97418526696683">
<time>2026-06-02T08:32:48Z</time>
<ele>24.775501328520477</ele>
</trkpt>
<trkpt lat="35.86247819382266" lon="139.97430453645438">
<time>2026-06-02T08:32:57Z</time>
<ele>25.521533495746553</ele>
</trkpt>
<trkpt lat="35.86244323030464" lon="139.97442232480543">
<time>2026-06-02T08:33:05Z</time>
<ele>25.01734944432974</ele>
</trkpt>
<trkpt lat="35.86242443231778" lon="139.97453808947841">
<time>2026-06-02T08:33:12Z</time>
<ele>25.48620440158993</ele>
</trkpt>
<trkpt lat="35.86243635876644" lon="139.9746485557875">
<time>2026-06-02T08:33:19Z</time>
<ele>25.226723838597536</ele>
</trkpt>
<trkpt lat="35.862420226618184" lon="139.9747604527605">
<time>2026-06-02T08:33:28Z</time>
<ele>24.996980878524482</ele>
</trkpt>
<trkpt lat="35.86242264227456" lon="139.97487499253705">
<time>2026-06-02T08:33:36Z</time>
<ele>24.539957807399333</ele>
</trkpt>
<trkpt lat="35.86240558167981" lon="139.97499026660037">
<time>2026-06-02T08:33:45Z</time>
<ele>25.368139252997935</ele>
</trkpt>
<trkpt lat="35.86240092244612" lon="139.97510260536518">
<time>2026-06-02T08:33:57Z</time>
<ele>25.193916178308427</ele>
</trkpt>
<trkpt lat="35.86237490744945" lon="139.97521830079967">
<time>2026-06-02T08:34:06Z</time>
<ele>25.395472158677876</ele>
</trkpt>
<trkpt lat="35.86236030749178" lon="139.97533511093445">
<time>2026-06-02T08:34:15Z</time>
<ele>25.023923000320792</ele>
</trkpt>
<trkpt lat="35.862332016510635" lon="139.9754424203806">
<time>2026-06-02T08:34:41Z</time>
<ele>25.442848634906113</ele>
</trkpt>
<trkpt lat="35.86231869426045" lon="139.97555701948298">
<time>2026-06-02T08:35:26Z</time>
<ele>23.5360765196383</ele>
</trkpt>
<trkpt lat="35.86221899552775" lon="139.97553626017483">
<time>2026-06-02T08:35:34Z</time>
<ele>24.04186804406345</ele>
</trkpt>
<trkpt lat="35.862122210379134" lon="139.9755125212351">
<time>2026-06-02T08:35:43Z</time>
<ele>24.63540524430573</ele>
</trkpt>
<trkpt lat="35.862024019161026" lon="139.97547414809122">
<time>2026-06-02T08:35:53Z</time>
<ele>24.561905378475785</ele>
</trkpt>
<trkpt lat="35.861934076842694" lon="139.97543182859337">
<time>2026-06-02T08:36:01Z</time>
<ele>24.749682780355215</ele>
</trkpt>
<trkpt lat="35.861843823869265" lon="139.97541143766435">
<time>2026-06-02T08:36:10Z</time>
<ele>24.798342431895435</ele>
</trkpt>
<trkpt lat="35.86174682082499" lon="139.97538894329878">
<time>2026-06-02T08:36:19Z</time>
<ele>25.261708650738</ele>
</trkpt>
<trkpt lat="35.8616565735812" lon="139.97535868447204">
<time>2026-06-02T08:36:29Z</time>
<ele>25.295279287733138</ele>
</trkpt>
<trkpt lat="35.86156953466972" lon="139.97532525784598">
<time>2026-06-02T08:36:35Z</time>
<ele>25.031078218482435</ele>
</trkpt>
<trkpt lat="35.86147975158379" lon="139.97529012782567">
<time>2026-06-02T08:36:44Z</time>
<ele>25.590067639946938</ele>
</trkpt>
<trkpt lat="35.86139553671536" lon="139.9752368354327">
<time>2026-06-02T08:36:53Z</time>
<ele>25.156937199644744</ele>
</trkpt>
<trkpt lat="35.86130616301863" lon="139.9751739296536">
<time>2026-06-02T08:36:59Z</time>
<ele>25.637950539588928</ele>
</trkpt>
<trkpt lat="35.861222327217284" lon="139.97511645658616">
<time>2026-06-02T08:37:06Z</time>
<ele>25.78792587760836</ele>
</trkpt>
<trkpt lat="35.861142515759454" lon="139.97506079880986">
<time>2026-06-02T08:37:15Z</time>
<ele>25.78555257897824</ele>
</trkpt>
<trkpt lat="35.8610792516889" lon="139.97496510809773">
<time>2026-06-02T08:37:24Z</time>
<ele>25.540245410986245</ele>
</trkpt>
<trkpt lat="35.86102063097629" lon="139.97487401524398">
<time>2026-06-02T08:37:31Z</time>
<ele>26.156275674700737</ele>
</trkpt>
<trkpt lat="35.86099422079739" lon="139.97476776221828">
<time>2026-06-02T08:37:37Z</time>
<ele>26.25016670394689</ele>
</trkpt>
<trkpt lat="35.86091578482405" lon="139.97469361244552">
<time>2026-06-02T08:37:46Z</time>
<ele>26.507279112003744</ele>
</trkpt>
<trkpt lat="35.860886295823875" lon="139.97458667716725">
<time>2026-06-02T08:37:53Z</time>
<ele>26.836439445614815</ele>
</trkpt>
<trkpt lat="35.86085526960276" lon="139.97447574113642">
<time>2026-06-02T08:38:03Z</time>
<ele>26.351270341314375</ele>
</trkpt>
<trkpt lat="35.86082289219303" lon="139.9743639962507">
<time>2026-06-02T08:38:11Z</time>
<ele>26.49115816038102</ele>
</trkpt>
<trkpt lat="35.860807110789736" lon="139.97424860596166">
<time>2026-06-02T08:38:19Z</time>
<ele>26.65891568362713</ele>
</trkpt>
<trkpt lat="35.86078300499253" lon="139.9741135559856">
<time>2026-06-02T08:38:26Z</time>
<ele>26.644739851355553</ele>
</trkpt>
<trkpt lat="35.860726814278934" lon="139.97402061581352">
<time>2026-06-02T08:38:32Z</time>
<ele>27.069768781773746</ele>
</trkpt>
<trkpt lat="35.86067021444896" lon="139.9739244610887">
<time>2026-06-02T08:38:42Z</time>
<ele>26.555987179279327</ele>
</trkpt>
<trkpt lat="35.86058309421407" lon="139.97384722519115">
<time>2026-06-02T08:38:45Z</time>
<ele>25.804131142795086</ele>
</trkpt>
<trkpt lat="35.86048087061075" lon="139.9738697876503">
<time>2026-06-02T08:38:52Z</time>
<ele>26.298022205010056</ele>
</trkpt>
<trkpt lat="35.86037496142348" lon="139.97384585511352">
<time>2026-06-02T08:39:02Z</time>
<ele>26.386949736624956</ele>
</trkpt>
<trkpt lat="35.86030119409115" lon="139.97377851854887">
<time>2026-06-02T08:39:44Z</time>
<ele>27.22351142950356</ele>
</trkpt>
<trkpt lat="35.860240280237136" lon="139.97368547410446">
<time>2026-06-02T08:39:54Z</time>
<ele>26.34587776567787</ele>
</trkpt>
<trkpt lat="35.86017247902272" lon="139.97359565510055">
<time>2026-06-02T08:40:01Z</time>
<ele>26.368202017620206</ele>
</trkpt>
<trkpt lat="35.86010281630227" lon="139.97352343415798">
<time>2026-06-02T08:40:12Z</time>
<ele>26.3830190282315</ele>
</trkpt>
<trkpt lat="35.860023421130855" lon="139.9734523460364">
<time>2026-06-02T08:40:27Z</time>
<ele>26.053237776272</ele>
</trkpt>
<trkpt lat="35.85995122610088" lon="139.97337364224072">
<time>2026-06-02T08:40:37Z</time>
<ele>26.37272523343563</ele>
</trkpt>
<trkpt lat="35.85989426590373" lon="139.97325717183404">
<time>2026-06-02T08:40:44Z</time>
<ele>26.73791608028114</ele>
</trkpt>
<trkpt lat="35.85983082537335" lon="139.97317640081428">
<time>2026-06-02T08:40:53Z</time>
<ele>26.146080136299133</ele>
</trkpt>
<trkpt lat="35.85977417741202" lon="139.97308612011585">
<time>2026-06-02T08:41:04Z</time>
<ele>25.87349594384432</ele>
</trkpt>
<trkpt lat="35.85977534320697" lon="139.97296564791688">
<time>2026-06-02T08:41:24Z</time>
<ele>25.246340917423368</ele>
</trkpt>
<trkpt lat="35.85977280437127" lon="139.9728534911455">
<time>2026-06-02T08:41:34Z</time>
<ele>24.108130395412445</ele>
</trkpt>
<trkpt lat="35.859793689326764" lon="139.97273586625562">
<time>2026-06-02T08:41:42Z</time>
<ele>25.52508381381631</ele>
</trkpt>
<trkpt lat="35.85984133630002" lon="139.97262992855465">
<time>2026-06-02T08:41:49Z</time>
<ele>26.220829835161567</ele>
</trkpt>
<trkpt lat="35.859912950476605" lon="139.97254252682998">
<time>2026-06-02T08:42:00Z</time>
<ele>25.476512346416712</ele>
</trkpt>
<trkpt lat="35.85998121278034" lon="139.97245459673806">
<time>2026-06-02T08:42:08Z</time>
<ele>25.65580082591623</ele>
</trkpt>
<trkpt lat="35.860033046327" lon="139.97235110521964">
<time>2026-06-02T08:42:17Z</time>
<ele>25.498597239144146</ele>
</trkpt>
<trkpt lat="35.86007356134857" lon="139.97225077511388">
<time>2026-06-02T08:42:29Z</time>
<ele>25.99708786793053</ele>
</trkpt>
<trkpt lat="35.86011572482791" lon="139.97214553088486">
<time>2026-06-02T08:42:37Z</time>
<ele>26.6499095633626</ele>
</trkpt>
<trkpt lat="35.86013945088877" lon="139.97203791934635">
<time>2026-06-02T08:42:46Z</time>
<ele>26.241851629689336</ele>
</trkpt>
<trkpt lat="35.86013959953255" lon="139.97190667174493">
<time>2026-06-02T08:42:54Z</time>
<ele>26.433381342329085</ele>
</trkpt>
<trkpt lat="35.86013477820905" lon="139.9717940800919">
<time>2026-06-02T08:43:02Z</time>
<ele>25.40185849647969</ele>
</trkpt>
<trkpt lat="35.86017319844388" lon="139.97169271565943">
<time>2026-06-02T08:43:09Z</time>
<ele>25.495977573096752</ele>
</trkpt>
<trkpt lat="35.86015823586898" lon="139.97156118910237">
<time>2026-06-02T08:43:21Z</time>
<ele>25.256033085286617</ele>
</trkpt>
<trkpt lat="35.8601514062501" lon="139.9714451432873">
<time>2026-06-02T08:43:28Z</time>
<ele>24.800656952895224</ele>
</trkpt>
<trkpt lat="35.860158937156875" lon="139.97132689188024">
<time>2026-06-02T08:43:36Z</time>
<ele>24.688798057846725</ele>
</trkpt>
<trkpt lat="35.86018765863181" lon="139.9712165508801">
<time>2026-06-02T08:43:46Z</time>
<ele>24.900276790373027</ele>
</trkpt>
<trkpt lat="35.86019764019892" lon="139.97110186358748">
<time>2026-06-02T08:43:54Z</time>
<ele>24.774749693460763</ele>
</trkpt>
<trkpt lat="35.86023746746732" lon="139.97097793052296">
<time>2026-06-02T08:44:03Z</time>
<ele>24.814551204442978</ele>
</trkpt>
<trkpt lat="35.86032706732099" lon="139.97094091849647">
<time>2026-06-02T08:44:14Z</time>
<ele>24.72962827142328</ele>
</trkpt>
<trkpt lat="35.86041512166997" lon="139.97096511374033">
<time>2026-06-02T08:44:22Z</time>
<ele>24.263848112896085</ele>
</trkpt>
<trkpt lat="35.860509924717974" lon="139.97100336273522">
<time>2026-06-02T08:44:32Z</time>
<ele>24.14706710819155</ele>
</trkpt>
<trkpt lat="35.8605980965783" lon="139.97105318088774">
<time>2026-06-02T08:44:40Z</time>
<ele>24.844923422671854</ele>
</trkpt>
<trkpt lat="35.860688866457195" lon="139.97106825004857">
<time>2026-06-02T08:44:49Z</time>
<ele>24.771335110999644</ele>
</trkpt>
<trkpt lat="35.86076080912775" lon="139.9711550483517">
<time>2026-06-02T08:44:59Z</time>
<ele>25.300590810365975</ele>
</trkpt>
<trkpt lat="35.86085038870234" lon="139.97111150993354">
<time>2026-06-02T08:45:10Z</time>
<ele>25.132470776326954</ele>
</trkpt>
<trkpt lat="35.86094965416356" lon="139.9711148034478">
<time>2026-06-02T08:45:31Z</time>
<ele>24.95697285607457</ele>
</trkpt>
<trkpt lat="35.86095663794284" lon="139.9712297132329">
<time>2026-06-02T08:45:51Z</time>
<ele>25.12606023903936</ele>
</trkpt>
<trkpt lat="35.86089571961801" lon="139.97136629379474">
<time>2026-06-02T08:46:00Z</time>
<ele>25.742118435911834</ele>
</trkpt>
<trkpt lat="35.860784070068384" lon="139.97140719144429">
<time>2026-06-02T08:46:01Z</time>
<ele>25.718034954741597</ele>
</trkpt>
<trkpt lat="35.860730994501445" lon="139.9715029240726">
<time>2026-06-02T08:46:12Z</time>
<ele>25.97525993734598</ele>
</trkpt>
<trkpt lat="35.860813366824964" lon="139.97157798596552">
<time>2026-06-02T08:46:27Z</time>
<ele>25.904731318354607</ele>
</trkpt>
<trkpt lat="35.86089664910625" lon="139.97171460301527">
<time>2026-06-02T08:46:33Z</time>
<ele>26.028596228919923</ele>
</trkpt>
<trkpt lat="35.86098061131401" lon="139.97179955886577">
<time>2026-06-02T08:46:39Z</time>
<ele>26.088029701262712</ele>
</trkpt>
<trkpt lat="35.8610620213884" lon="139.9717226080342">
<time>2026-06-02T08:46:45Z</time>
<ele>26.401281998492777</ele>
</trkpt>
<trkpt lat="35.86127914616627" lon="139.97180225228144">
<time>2026-06-02T08:47:09Z</time>
<ele>26.809460430406034</ele>
</trkpt>
<trkpt lat="35.86136950540491" lon="139.97180085144447">
<time>2026-06-02T08:47:13Z</time>
<ele>27.22677909117192</ele>
</trkpt>
<trkpt lat="35.86146440622835" lon="139.97174416778526">
<time>2026-06-02T08:47:19Z</time>
<ele>27.174326478503644</ele>
</trkpt>
<trkpt lat="35.8614502963531" lon="139.97186948588634">
<time>2026-06-02T08:47:22Z</time>
<ele>27.20217089448124</ele>
</trkpt>
<trkpt lat="35.861478097731734" lon="139.97197936638912">
<time>2026-06-02T08:47:33Z</time>
<ele>26.8621046282351</ele>
</trkpt>
<trkpt lat="35.86157503503874" lon="139.97192635911324">
<time>2026-06-02T08:47:46Z</time>
<ele>27.346625949256122</ele>
</trkpt>
<trkpt lat="35.86169599093111" lon="139.97193491099398">
<time>2026-06-02T08:48:08Z</time>
<ele>38.601837158203125</ele>
</trkpt>
<trkpt lat="35.86166094414712" lon="139.97204164573654">
<time>2026-06-02T08:48:29Z</time>
<ele>34.72482304740697</ele>
</trkpt>
<trkpt lat="35.86157038036139" lon="139.97209548717544">
<time>2026-06-02T08:48:38Z</time>
<ele>29.109405630268157</ele>
</trkpt>
<trkpt lat="35.861475419551944" lon="139.97213286062282">
<time>2026-06-02T08:48:41Z</time>
<ele>27.126747109927237</ele>
</trkpt>
<trkpt lat="35.86141290188355" lon="139.97223742808788">
<time>2026-06-02T08:48:54Z</time>
<ele>27.3847981300205</ele>
</trkpt>
<trkpt lat="35.86137501928011" lon="139.97234873533893">
<time>2026-06-02T08:49:04Z</time>
<ele>27.500822287984192</ele>
</trkpt>
<trkpt lat="35.86129246677586" lon="139.9724478810738">
<time>2026-06-02T08:49:11Z</time>
<ele>27.515321377664804</ele>
</trkpt>
<trkpt lat="35.86122466271988" lon="139.97252179160728">
<time>2026-06-02T08:49:29Z</time>
<ele>26.86193777155131</ele>
</trkpt>
<trkpt lat="35.86116304675468" lon="139.972611879026">
<time>2026-06-02T08:49:38Z</time>
<ele>27.548829082399607</ele>
</trkpt>
<trkpt lat="35.86109943385422" lon="139.97270065497102">
<time>2026-06-02T08:49:44Z</time>
<ele>27.39108630362898</ele>
</trkpt>
<trkpt lat="35.86103509360594" lon="139.97279388785128">
<time>2026-06-02T08:49:50Z</time>
<ele>27.18231035489589</ele>
</trkpt>
<trkpt lat="35.86099388493353" lon="139.97291008066367">
<time>2026-06-02T08:49:56Z</time>
<ele>26.83161497116089</ele>
</trkpt>
<trkpt lat="35.86090893300836" lon="139.97297756780478">
<time>2026-06-02T08:50:05Z</time>
<ele>26.241453532129526</ele>
</trkpt>
<trkpt lat="35.86085255544058" lon="139.97307237089305">
<time>2026-06-02T08:50:14Z</time>
<ele>26.166813514195383</ele>
</trkpt>
<trkpt lat="35.86076891973624" lon="139.97318503517658">
<time>2026-06-02T08:50:28Z</time>
<ele>25.505252422764897</ele>
</trkpt>
<trkpt lat="35.860696065005854" lon="139.97327855929385">
<time>2026-06-02T08:50:37Z</time>
<ele>25.891958186402917</ele>
</trkpt>
<trkpt lat="35.86061983430114" lon="139.97335605631403">
<time>2026-06-02T08:50:44Z</time>
<ele>26.302481511607766</ele>
</trkpt>
<trkpt lat="35.860548906118304" lon="139.9734348296856">
<time>2026-06-02T08:50:50Z</time>
<ele>26.573614032939076</ele>
</trkpt>
<trkpt lat="35.8604829180892" lon="139.9735430570576">
<time>2026-06-02T08:50:58Z</time>
<ele>25.106673073023558</ele>
</trkpt>
<trkpt lat="35.86055060598219" lon="139.9734643451582">
<time>2026-06-02T08:51:21Z</time>
<ele>26.78843631222844</ele>
</trkpt>
<trkpt lat="35.86062244863375" lon="139.97338855625026">
<time>2026-06-02T08:51:30Z</time>
<ele>27.216814232058823</ele>
</trkpt>
<trkpt lat="35.86069530145796" lon="139.97331853862812">
<time>2026-06-02T08:51:40Z</time>
<ele>26.44546018075198</ele>
</trkpt>
<trkpt lat="35.86077436196893" lon="139.97324230192152">
<time>2026-06-02T08:51:51Z</time>
<ele>27.2346176719293</ele>
</trkpt>
<trkpt lat="35.86086177968642" lon="139.97319251944907">
<time>2026-06-02T08:51:56Z</time>
<ele>27.382122799754143</ele>
</trkpt>
<trkpt lat="35.860925245959315" lon="139.97309468847567">
<time>2026-06-02T08:52:08Z</time>
<ele>26.937842979095876</ele>
</trkpt>
<trkpt lat="35.861008944408205" lon="139.97302674040304">
<time>2026-06-02T08:52:14Z</time>
<ele>26.79641460534185</ele>
</trkpt>
<trkpt lat="35.86109207213291" lon="139.97297419658537">
<time>2026-06-02T08:52:20Z</time>
<ele>27.733105957508087</ele>
</trkpt>
<trkpt lat="35.86116543645952" lon="139.97289809086018">
<time>2026-06-02T08:52:28Z</time>
<ele>27.34466143231839</ele>
</trkpt>
<trkpt lat="35.861249833031756" lon="139.97283879453713">
<time>2026-06-02T08:52:37Z</time>
<ele>26.83648829255253</ele>
</trkpt>
<trkpt lat="35.86129374240816" lon="139.97272751751237">
<time>2026-06-02T08:52:51Z</time>
<ele>26.092407342977822</ele>
</trkpt>
<trkpt lat="35.861343793358145" lon="139.97262437502343">
<time>2026-06-02T08:52:59Z</time>
<ele>26.85819904692471</ele>
</trkpt>
<trkpt lat="35.86141187157701" lon="139.9725367662548">
<time>2026-06-02T08:53:05Z</time>
<ele>27.17825871706009</ele>
</trkpt>
<trkpt lat="35.86149325265384" lon="139.97245765024195">
<time>2026-06-02T08:53:13Z</time>
<ele>27.086822979152203</ele>
</trkpt>
<trkpt lat="35.86156935194291" lon="139.9723832745255">
<time>2026-06-02T08:53:20Z</time>
<ele>27.440806144848466</ele>
</trkpt>
<trkpt lat="35.86162788512364" lon="139.9722936660979">
<time>2026-06-02T08:53:27Z</time>
<ele>27.598282929509878</ele>
</trkpt>
<trkpt lat="35.86169125913125" lon="139.97220326113901">
<time>2026-06-02T08:53:35Z</time>
<ele>27.84656027983874</ele>
</trkpt>
<trkpt lat="35.86173531569169" lon="139.9721051291138">
<time>2026-06-02T08:53:44Z</time>
<ele>27.199890728108585</ele>
</trkpt>
<trkpt lat="35.86176349772095" lon="139.97199419751541">
<time>2026-06-02T08:53:58Z</time>
<ele>27.19331752229482</ele>
</trkpt>
<trkpt lat="35.861853090698546" lon="139.97196382337154">
<time>2026-06-02T08:54:10Z</time>
<ele>27.805002660490572</ele>
</trkpt>
<trkpt lat="35.861916422115044" lon="139.97187497015057">
<time>2026-06-02T08:54:21Z</time>
<ele>26.891807306557894</ele>
</trkpt>
<trkpt lat="35.86200768721312" lon="139.97175963699408">
<time>2026-06-02T08:55:07Z</time>
<ele>29.09993947390467</ele>
</trkpt>
<trkpt lat="35.8620609730685" lon="139.97165819176834">
<time>2026-06-02T08:55:20Z</time>
<ele>27.335811079479754</ele>
</trkpt>
<trkpt lat="35.8621620162606" lon="139.97163203831843">
<time>2026-06-02T08:55:26Z</time>
<ele>27.26188432238996</ele>
</trkpt>
<trkpt lat="35.86223741351779" lon="139.97154824276555">
<time>2026-06-02T08:55:32Z</time>
<ele>27.97488907445222</ele>
</trkpt>
<trkpt lat="35.86228500500667" lon="139.97143525701279">
<time>2026-06-02T08:55:41Z</time>
<ele>27.3850244153291</ele>
</trkpt>
<trkpt lat="35.86233773943263" lon="139.97132590756343">
<time>2026-06-02T08:55:52Z</time>
<ele>27.388184600509703</ele>
</trkpt>
<trkpt lat="35.86239984352335" lon="139.9712242057839">
<time>2026-06-02T08:56:00Z</time>
<ele>27.294946206733584</ele>
</trkpt>
<trkpt lat="35.86246137498826" lon="139.97113323990396">
<time>2026-06-02T08:56:06Z</time>
<ele>27.21104991622269</ele>
</trkpt>
<trkpt lat="35.86250113918988" lon="139.97102753588214">
<time>2026-06-02T08:56:18Z</time>
<ele>26.649035960435867</ele>
</trkpt>
<trkpt lat="35.862470589377075" lon="139.97085491205405">
<time>2026-06-02T08:56:42Z</time>
<ele>28.2609023499175</ele>
</trkpt>
<trkpt lat="35.86253896098574" lon="139.97069863916988">
<time>2026-06-02T08:56:52Z</time>
<ele>21.961929321289062</ele>
</trkpt>
<trkpt lat="35.862180931920726" lon="139.97012117258498">
<time>2026-06-02T08:57:01Z</time>
<ele>26.661420823074877</ele>
</trkpt>
<trkpt lat="35.862490296227726" lon="139.97035781305908">
<time>2026-06-02T08:57:02Z</time>
<ele>25.22666563745588</ele>
</trkpt>
<trkpt lat="35.862593294996756" lon="139.9702420592165">
<time>2026-06-02T08:57:03Z</time>
<ele>24.82442468497902</ele>
</trkpt>
<trkpt lat="35.86270756833462" lon="139.97015283347176">
<time>2026-06-02T08:57:04Z</time>
<ele>24.627673194743693</ele>
</trkpt>
<trkpt lat="35.86289949134543" lon="139.97016920554856">
<time>2026-06-02T08:57:09Z</time>
<ele>24.414681293070316</ele>
</trkpt>
<trkpt lat="35.86280237028598" lon="139.97014253206646">
<time>2026-06-02T08:57:35Z</time>
<ele>23.226635151542723</ele>
</trkpt>
<trkpt lat="35.862760130439696" lon="139.9700402914962">
<time>2026-06-02T08:57:59Z</time>
<ele>23.39966897852719</ele>
</trkpt>
<trkpt lat="35.86268608394022" lon="139.9699661656516">
<time>2026-06-02T08:58:07Z</time>
<ele>23.60759884957224</ele>
</trkpt>
<trkpt lat="35.86260115928063" lon="139.96992680412475">
<time>2026-06-02T08:58:16Z</time>
<ele>23.390456193126738</ele>
</trkpt>
<trkpt lat="35.86253532642484" lon="139.96983104909967">
<time>2026-06-02T08:58:29Z</time>
<ele>23.019222423434258</ele>
</trkpt>
<trkpt lat="35.86248147834119" lon="139.96974077974812">
<time>2026-06-02T08:58:35Z</time>
<ele>23.11436452716589</ele>
</trkpt>
<trkpt lat="35.86235456328944" lon="139.96968827645452">
<time>2026-06-02T08:58:38Z</time>
<ele>22.719274189323187</ele>
</trkpt>
<trkpt lat="35.8622881112653" lon="139.96959995345983">
<time>2026-06-02T08:58:45Z</time>
<ele>22.66485394909978</ele>
</trkpt>
<trkpt lat="35.862263738656246" lon="139.9694841446856">
<time>2026-06-02T08:58:54Z</time>
<ele>23.095026560127735</ele>
</trkpt>
<trkpt lat="35.86226088271411" lon="139.96936738326306">
<time>2026-06-02T08:59:02Z</time>
<ele>22.17968390136957</ele>
</trkpt>
<trkpt lat="35.86227600422375" lon="139.96925129035222">
<time>2026-06-02T08:59:09Z</time>
<ele>21.558319808915257</ele>
</trkpt>
<trkpt lat="35.8623721479418" lon="139.969252365246">
<time>2026-06-02T08:59:18Z</time>
<ele>22.145867533050478</ele>
</trkpt>
<trkpt lat="35.862466958852806" lon="139.96927978951362">
<time>2026-06-02T08:59:25Z</time>
<ele>21.947653463110328</ele>
</trkpt>
<trkpt lat="35.862549154793015" lon="139.96935657905388">
<time>2026-06-02T08:59:35Z</time>
<ele>22.247867955826223</ele>
</trkpt>
<trkpt lat="35.86263632697575" lon="139.96940548324554">
<time>2026-06-02T08:59:43Z</time>
<ele>22.253799935802817</ele>
</trkpt>
<trkpt lat="35.86273704816825" lon="139.96942721800306">
<time>2026-06-02T08:59:48Z</time>
<ele>22.47861803881824</ele>
</trkpt>
<trkpt lat="35.8628313844811" lon="139.96943196243802">
<time>2026-06-02T08:59:52Z</time>
<ele>22.370928584598005</ele>
</trkpt>
<trkpt lat="35.8629208427256" lon="139.96945397038408">
<time>2026-06-02T09:00:06Z</time>
<ele>21.708335769362748</ele>
</trkpt>
<trkpt lat="35.86291995441592" lon="139.9693387923844">
<time>2026-06-02T09:00:14Z</time>
<ele>20.579063069075346</ele>
</trkpt>
<trkpt lat="35.862949659238176" lon="139.9692334721798">
<time>2026-06-02T09:00:20Z</time>
<ele>22.1342930868268</ele>
</trkpt>
<trkpt lat="35.86298800985736" lon="139.96913307655166">
<time>2026-06-02T09:00:27Z</time>
<ele>22.143192972056568</ele>
</trkpt>
<trkpt lat="35.86303168205766" lon="139.96902168517573">
<time>2026-06-02T09:00:35Z</time>
<ele>22.26223541609943</ele>
</trkpt>
<trkpt lat="35.863087478867854" lon="139.96891580772433">
<time>2026-06-02T09:00:44Z</time>
<ele>21.469598177820444</ele>
</trkpt>
<trkpt lat="35.86314952446373" lon="139.9688297111423">
<time>2026-06-02T09:00:51Z</time>
<ele>21.039371211081743</ele>
</trkpt>
<trkpt lat="35.863222487983755" lon="139.9687546197512">
<time>2026-06-02T09:00:59Z</time>
<ele>19.811154233291745</ele>
</trkpt>
<trkpt lat="35.863289954746186" lon="139.9686811045918">
<time>2026-06-02T09:01:07Z</time>
<ele>20.05754921399057</ele>
</trkpt>
<trkpt lat="35.863329414813705" lon="139.96857238591204">
<time>2026-06-02T09:01:14Z</time>
<ele>21.212391728535295</ele>
</trkpt>
<trkpt lat="35.86337305027791" lon="139.96846820398153">
<time>2026-06-02T09:01:21Z</time>
<ele>21.654545758850873</ele>
</trkpt>
<trkpt lat="35.86342109416491" lon="139.96836817437773">
<time>2026-06-02T09:01:29Z</time>
<ele>21.805773405358195</ele>
</trkpt>
<trkpt lat="35.86347401592573" lon="139.96826565000433">
<time>2026-06-02T09:01:37Z</time>
<ele>21.77556110545993</ele>
</trkpt>
<trkpt lat="35.863568910654394" lon="139.9682832489932">
<time>2026-06-02T09:01:45Z</time>
<ele>22.03095283266157</ele>
</trkpt>
<trkpt lat="35.86365447380757" lon="139.96822172993072">
<time>2026-06-02T09:03:10Z</time>
<ele>21.63095594011247</ele>
</trkpt>
<trkpt lat="35.86375237874112" lon="139.9682530741133">
<time>2026-06-02T09:03:18Z</time>
<ele>20.60811850707978</ele>
</trkpt>
<trkpt lat="35.86384935398755" lon="139.9682646520722">
<time>2026-06-02T09:03:26Z</time>
<ele>21.144901655614376</ele>
</trkpt>
<trkpt lat="35.86394251776634" lon="139.9682941588457">
<time>2026-06-02T09:03:34Z</time>
<ele>22.065046577714384</ele>
</trkpt>
<trkpt lat="35.86403554288153" lon="139.96834308112142">
<time>2026-06-02T09:03:44Z</time>
<ele>22.16194484848529</ele>
</trkpt>
<trkpt lat="35.86411857165226" lon="139.96838976456252">
<time>2026-06-02T09:03:52Z</time>
<ele>22.12375437654555</ele>
</trkpt>
<trkpt lat="35.864203916639816" lon="139.96844492628102">
<time>2026-06-02T09:04:01Z</time>
<ele>22.124029528349638</ele>
</trkpt>
<trkpt lat="35.86428866941538" lon="139.96850365323635">
<time>2026-06-02T09:04:09Z</time>
<ele>22.24754271004349</ele>
</trkpt>
<trkpt lat="35.864367079545524" lon="139.96855893080485">
<time>2026-06-02T09:04:17Z</time>
<ele>21.71801639907062</ele>
</trkpt>
<trkpt lat="35.86445468906984" lon="139.96861224340608">
<time>2026-06-02T09:04:25Z</time>
<ele>22.70827199704945</ele>
</trkpt>
<trkpt lat="35.86454250667403" lon="139.96866945406165">
<time>2026-06-02T09:04:33Z</time>
<ele>22.950177687220275</ele>
</trkpt>
<trkpt lat="35.86462645579111" lon="139.9687262884216">
<time>2026-06-02T09:04:41Z</time>
<ele>22.68127396609634</ele>
</trkpt>
<trkpt lat="35.86470803366962" lon="139.96879693717472">
<time>2026-06-02T09:04:49Z</time>
<ele>23.288659950718284</ele>
</trkpt>
<trkpt lat="35.864790690070855" lon="139.96887002133593">
<time>2026-06-02T09:04:58Z</time>
<ele>23.32398127578199</ele>
</trkpt>
<trkpt lat="35.86486681590423" lon="139.96893915678237">
<time>2026-06-02T09:05:08Z</time>
<ele>22.52586641255766</ele>
</trkpt>
<trkpt lat="35.86495609377703" lon="139.96898761467241">
<time>2026-06-02T09:05:15Z</time>
<ele>23.44541712384671</ele>
</trkpt>
<trkpt lat="35.86502272499456" lon="139.96907656639377">
<time>2026-06-02T09:05:25Z</time>
<ele>23.176971269771457</ele>
</trkpt>
<trkpt lat="35.86509241365406" lon="139.96915191105907">
<time>2026-06-02T09:05:32Z</time>
<ele>23.366805588826537</ele>
</trkpt>
<trkpt lat="35.86517470199989" lon="139.9692259317738">
<time>2026-06-02T09:05:40Z</time>
<ele>23.70535075198859</ele>
</trkpt>
<trkpt lat="35.86524607992138" lon="139.96930606982656">
<time>2026-06-02T09:05:48Z</time>
<ele>24.166414410807192</ele>
</trkpt>
<trkpt lat="35.865254938409414" lon="139.9694175340854">
<time>2026-06-02T09:05:56Z</time>
<ele>23.748792639002204</ele>
</trkpt>
<trkpt lat="35.865249352793114" lon="139.96953148676894">
<time>2026-06-02T09:06:04Z</time>
<ele>24.14782424364239</ele>
</trkpt>
<trkpt lat="35.865170995989665" lon="139.9696011395669">
<time>2026-06-02T09:06:13Z</time>
<ele>24.115485079586506</ele>
</trkpt>
<trkpt lat="35.86507819782732" lon="139.96963488893644">
<time>2026-06-02T09:06:21Z</time>
<ele>23.250625820830464</ele>
</trkpt>
<trkpt lat="35.864990750487074" lon="139.96968257001916">
<time>2026-06-02T09:06:29Z</time>
<ele>23.020168006420135</ele>
</trkpt>
<trkpt lat="35.8649018537954" lon="139.9697085729892">
<time>2026-06-02T09:06:38Z</time>
<ele>22.226949010044336</ele>
</trkpt>
<trkpt lat="35.86481941001035" lon="139.9697760727672">
<time>2026-06-02T09:06:45Z</time>
<ele>21.772998767904937</ele>
</trkpt>
<trkpt lat="35.86472963527573" lon="139.9698061513803">
<time>2026-06-02T09:06:53Z</time>
<ele>22.350648562423885</ele>
</trkpt>
<trkpt lat="35.86463557506965" lon="139.96984032547454">
<time>2026-06-02T09:07:01Z</time>
<ele>21.961157984100282</ele>
</trkpt>
<trkpt lat="35.864534570968" lon="139.96985365748003">
<time>2026-06-02T09:07:09Z</time>
<ele>22.33333854470402</ele>
</trkpt>
<trkpt lat="35.86443396040857" lon="139.9698733776911">
<time>2026-06-02T09:07:18Z</time>
<ele>22.223107053898275</ele>
</trkpt>
<trkpt lat="35.864341957997155" lon="139.96988512392133">
<time>2026-06-02T09:07:25Z</time>
<ele>22.238053562119603</ele>
</trkpt>
<trkpt lat="35.8642473345835" lon="139.9699211584125">
<time>2026-06-02T09:07:33Z</time>
<ele>22.36865843925625</ele>
</trkpt>
<trkpt lat="35.8641501075707" lon="139.9699344949555">
<time>2026-06-02T09:07:41Z</time>
<ele>22.316598244011402</ele>
</trkpt>
<trkpt lat="35.86404300090375" lon="139.9699514144175">
<time>2026-06-02T09:07:50Z</time>
<ele>21.948411179706454</ele>
</trkpt>
<trkpt lat="35.863972014219875" lon="139.97004073707043">
<time>2026-06-02T09:07:59Z</time>
<ele>22.483256028033793</ele>
</trkpt>
<trkpt lat="35.86387417395429" lon="139.97004916411294">
<time>2026-06-02T09:08:06Z</time>
<ele>21.86503007542342</ele>
</trkpt>
<trkpt lat="35.86377633239739" lon="139.97007984930968">
<time>2026-06-02T09:08:15Z</time>
<ele>22.904385940171778</ele>
</trkpt>
<trkpt lat="35.863692209077406" lon="139.97013159136466">
<time>2026-06-02T09:08:24Z</time>
<ele>22.125756763853133</ele>
</trkpt>
<trkpt lat="35.86360988155734" lon="139.970186698575">
<time>2026-06-02T09:08:33Z</time>
<ele>23.075200092978776</ele>
</trkpt>
<trkpt lat="35.863538653294135" lon="139.9702603840384">
<time>2026-06-02T09:08:41Z</time>
<ele>23.06498457491398</ele>
</trkpt>
<trkpt lat="35.863445369173554" lon="139.97027428485794">
<time>2026-06-02T09:08:51Z</time>
<ele>23.694955995306373</ele>
</trkpt>
<trkpt lat="35.863347241604934" lon="139.9703147913864">
<time>2026-06-02T09:08:59Z</time>
<ele>23.377356556244195</ele>
</trkpt>
<trkpt lat="35.863260090836455" lon="139.97035500124608">
<time>2026-06-02T09:09:06Z</time>
<ele>23.47082205209881</ele>
</trkpt>
<trkpt lat="35.86316126532839" lon="139.97040014346152">
<time>2026-06-02T09:09:11Z</time>
<ele>23.169638011604548</ele>
</trkpt>
<trkpt lat="35.86306390084141" lon="139.97038513737976">
<time>2026-06-02T09:09:18Z</time>
<ele>22.874299008399248</ele>
</trkpt>
<trkpt lat="35.86299596295526" lon="139.97030570579867">
<time>2026-06-02T09:09:25Z</time>
<ele>23.66959398984909</ele>
</trkpt>
<trkpt lat="35.86288490375016" lon="139.97034273231793">
<time>2026-06-02T09:09:35Z</time>
<ele>25.000496652908623</ele>
</trkpt>
<trkpt lat="35.862797417027885" lon="139.97030739846133">
<time>2026-06-02T09:10:30Z</time>
<ele>24.037323717959225</ele>
</trkpt>
<trkpt lat="35.862704843149416" lon="139.97028108762723">
<time>2026-06-02T09:10:40Z</time>
<ele>24.675582823343575</ele>
</trkpt>
<trkpt lat="35.86282209962232" lon="139.97028828611596">
<time>2026-06-02T09:10:43Z</time>
<ele>44.91049196198583</ele>
</trkpt>
<trkpt lat="35.86258673325721" lon="139.97068517670724">
<time>2026-06-02T09:11:03Z</time>
<ele>29.812669677734377</ele>
</trkpt>
<trkpt lat="35.862553747704474" lon="139.9707890043275">
<time>2026-06-02T09:11:05Z</time>
<ele>29.812852783203127</ele>
</trkpt>
<trkpt lat="35.86240767885596" lon="139.97102838234707">
<time>2026-06-02T09:11:13Z</time>
<ele>24.39209063537419</ele>
</trkpt>
<trkpt lat="35.86252293855588" lon="139.97115053317341">
<time>2026-06-02T09:11:14Z</time>
<ele>25.548014315776527</ele>
</trkpt>
<trkpt lat="35.86250702313095" lon="139.97100477921686">
<time>2026-06-02T09:11:17Z</time>
<ele>26.37859035562724</ele>
</trkpt>
<trkpt lat="35.862452972534825" lon="139.97110064596572">
<time>2026-06-02T09:11:28Z</time>
<ele>27.070699781179428</ele>
</trkpt>
<trkpt lat="35.862401939829255" lon="139.97119565192776">
<time>2026-06-02T09:11:36Z</time>
<ele>27.23405636381358</ele>
</trkpt>
<trkpt lat="35.86235836930063" lon="139.97131131443953">
<time>2026-06-02T09:11:46Z</time>
<ele>27.036753790453076</ele>
</trkpt>
<trkpt lat="35.862297048793366" lon="139.971425525367">
<time>2026-06-02T09:11:54Z</time>
<ele>26.555585798807442</ele>
</trkpt>
</trkseg>
</trk>
</gpx>