<?xml version="1.0" encoding="UTF-8"?>
<gpx version="1.1" creator="RouteHistory - https://www.ateow.com" xmlns="http://www.topografix.com/GPX/1/1" xmlns:rh="http://www.ateow.com/routehistory">
<trk>
<trkseg>
<trkpt lat="35.86235464779071" lon="139.97152548877824">
<time>2026-06-02T08:28:16Z</time>
<ele>28.100195419043303</ele>
</trkpt>
<trkpt lat="35.86241987657043" lon="139.97162468843547">
<time>2026-06-02T08:28:31Z</time>
<ele>28.275053809396923</ele>
</trkpt>
<trkpt lat="35.86247894612152" lon="139.97171731489865">
<time>2026-06-02T08:28:42Z</time>
<ele>27.636986234225333</ele>
</trkpt>
<trkpt lat="35.86255568820818" lon="139.97179385429934">
<time>2026-06-02T08:28:51Z</time>
<ele>27.441037154756486</ele>
</trkpt>
<trkpt lat="35.862602119875255" lon="139.97189886552627">
<time>2026-06-02T08:29:00Z</time>
<ele>27.243861638009548</ele>
</trkpt>
<trkpt lat="35.862658906052374" lon="139.97198800858726">
<time>2026-06-02T08:29:09Z</time>
<ele>27.253552094101906</ele>
</trkpt>
<trkpt lat="35.862687217143126" lon="139.97209778659771">
<time>2026-06-02T08:29:18Z</time>
<ele>27.14684936311096</ele>
</trkpt>
<trkpt lat="35.86269598880805" lon="139.97221499743176">
<time>2026-06-02T08:29:28Z</time>
<ele>26.598679261282086</ele>
</trkpt>
<trkpt lat="35.862698988482705" lon="139.97232674521962">
<time>2026-06-02T08:29:38Z</time>
<ele>25.988027623854578</ele>
</trkpt>
<trkpt lat="35.86275332011429" lon="139.97242393482244">
<time>2026-06-02T08:30:03Z</time>
<ele>26.204312125220895</ele>
</trkpt>
<trkpt lat="35.86282025127479" lon="139.97250704132753">
<time>2026-06-02T08:30:19Z</time>
<ele>25.43180244229734</ele>
</trkpt>
<trkpt lat="35.862743030346515" lon="139.97260799922512">
<time>2026-06-02T08:30:33Z</time>
<ele>23.81257397029549</ele>
</trkpt>
<trkpt lat="35.86268026339585" lon="139.97270028673714">
<time>2026-06-02T08:30:40Z</time>
<ele>24.922527781687677</ele>
</trkpt>
<trkpt lat="35.86276711593908" lon="139.9727783415444">
<time>2026-06-02T08:31:07Z</time>
<ele>26.57365767750889</ele>
</trkpt>
<trkpt lat="35.862805667249425" lon="139.97287974361984">
<time>2026-06-02T08:31:17Z</time>
<ele>25.679556858725846</ele>
</trkpt>
<trkpt lat="35.862785528389615" lon="139.97299367028688">
<time>2026-06-02T08:31:26Z</time>
<ele>25.683752157725394</ele>
</trkpt>
<trkpt lat="35.86276769242801" lon="139.97310488721573">
<time>2026-06-02T08:31:34Z</time>
<ele>25.42774413805455</ele>
</trkpt>
<trkpt lat="35.8627355451402" lon="139.97321586967553">
<time>2026-06-02T08:31:49Z</time>
<ele>24.269526451826096</ele>
</trkpt>
<trkpt lat="35.86270931861315" lon="139.97333562895122">
<time>2026-06-02T08:31:58Z</time>
<ele>25.044997206889093</ele>
</trkpt>
<trkpt lat="35.86269038808596" lon="139.9734443262572">
<time>2026-06-02T08:32:06Z</time>
<ele>25.44762181211263</ele>
</trkpt>
<trkpt lat="35.862677438278666" lon="139.97355540982437">
<time>2026-06-02T08:32:14Z</time>
<ele>25.340675096958876</ele>
</trkpt>
<trkpt lat="35.862649825059385" lon="139.9736691088174">
<time>2026-06-02T08:32:23Z</time>
<ele>25.537590831518173</ele>
</trkpt>
<trkpt lat="35.862617831165835" lon="139.97378092727885">
<time>2026-06-02T08:32:32Z</time>
<ele>25.467861286364496</ele>
</trkpt>
<trkpt lat="35.862599185209575" lon="139.97389422352916">
<time>2026-06-02T08:32:41Z</time>
<ele>25.531078597530723</ele>
</trkpt>
<trkpt lat="35.862613296073945" lon="139.97400512079062">
<time>2026-06-02T08:32:49Z</time>
<ele>25.874463620595634</ele>
</trkpt>
<trkpt lat="35.862579732729394" lon="139.97412000911612">
<time>2026-06-02T08:32:58Z</time>
<ele>25.630853842012584</ele>
</trkpt>
<trkpt lat="35.86254660414482" lon="139.97423533363246">
<time>2026-06-02T08:33:06Z</time>
<ele>25.139563522301614</ele>
</trkpt>
<trkpt lat="35.86255528901808" lon="139.97436701745264">
<time>2026-06-02T08:33:14Z</time>
<ele>25.894969693385065</ele>
</trkpt>
<trkpt lat="35.86253740664621" lon="139.97447637469912">
<time>2026-06-02T08:34:16Z</time>
<ele>25.63543768133968</ele>
</trkpt>
<trkpt lat="35.86251986370966" lon="139.9745980271312">
<time>2026-06-02T08:34:27Z</time>
<ele>26.330911936238408</ele>
</trkpt>
<trkpt lat="35.86248846844967" lon="139.974703198763">
<time>2026-06-02T08:34:37Z</time>
<ele>26.62840023636818</ele>
</trkpt>
<trkpt lat="35.86248227185205" lon="139.97481714553123">
<time>2026-06-02T08:34:47Z</time>
<ele>25.88602446578443</ele>
</trkpt>
<trkpt lat="35.86246577265511" lon="139.97492607946575">
<time>2026-06-02T08:34:57Z</time>
<ele>25.967448556795716</ele>
</trkpt>
<trkpt lat="35.86245236746643" lon="139.9750455352393">
<time>2026-06-02T08:35:07Z</time>
<ele>25.909343652427197</ele>
</trkpt>
<trkpt lat="35.8624200417184" lon="139.97515281061345">
<time>2026-06-02T08:35:14Z</time>
<ele>26.99371548369527</ele>
</trkpt>
<trkpt lat="35.86240971071521" lon="139.97527520348237">
<time>2026-06-02T08:35:23Z</time>
<ele>25.623225945048034</ele>
</trkpt>
<trkpt lat="35.86238851616173" lon="139.97539026081668">
<time>2026-06-02T08:35:33Z</time>
<ele>25.167571805417538</ele>
</trkpt>
<trkpt lat="35.86229289823776" lon="139.97539902891447">
<time>2026-06-02T08:35:53Z</time>
<ele>25.03939228039235</ele>
</trkpt>
<trkpt lat="35.86220308987855" lon="139.97538561190902">
<time>2026-06-02T08:36:02Z</time>
<ele>24.78932153712958</ele>
</trkpt>
<trkpt lat="35.86210431559635" lon="139.97535998658222">
<time>2026-06-02T08:36:11Z</time>
<ele>24.881387973204255</ele>
</trkpt>
<trkpt lat="35.862003346105645" lon="139.97533688965908">
<time>2026-06-02T08:36:22Z</time>
<ele>25.574780789203942</ele>
</trkpt>
<trkpt lat="35.86191312438746" lon="139.97531754451555">
<time>2026-06-02T08:36:31Z</time>
<ele>25.59590067435056</ele>
</trkpt>
<trkpt lat="35.86181858245397" lon="139.97528885568914">
<time>2026-06-02T08:36:41Z</time>
<ele>24.870838117785752</ele>
</trkpt>
<trkpt lat="35.86173191122453" lon="139.97525640462203">
<time>2026-06-02T08:36:50Z</time>
<ele>24.689925787970424</ele>
</trkpt>
<trkpt lat="35.86165034864776" lon="139.97533667253757">
<time>2026-06-02T08:37:05Z</time>
<ele>25.926627788692713</ele>
</trkpt>
<trkpt lat="35.86158083835282" lon="139.97525985101188">
<time>2026-06-02T08:37:38Z</time>
<ele>26.675478915683925</ele>
</trkpt>
<trkpt lat="35.861489914417184" lon="139.97522691068656">
<time>2026-06-02T08:37:49Z</time>
<ele>25.776914689689875</ele>
</trkpt>
<trkpt lat="35.861402491127095" lon="139.97516849208222">
<time>2026-06-02T08:38:04Z</time>
<ele>25.409389383159578</ele>
</trkpt>
<trkpt lat="35.86131558650689" lon="139.97512379978494">
<time>2026-06-02T08:38:13Z</time>
<ele>25.155536931939423</ele>
</trkpt>
<trkpt lat="35.8612411083109" lon="139.97505595402606">
<time>2026-06-02T08:38:23Z</time>
<ele>25.45416395086795</ele>
</trkpt>
<trkpt lat="35.86115983504314" lon="139.97499329740822">
<time>2026-06-02T08:38:37Z</time>
<ele>26.43056640960276</ele>
</trkpt>
<trkpt lat="35.86108785928925" lon="139.97491628212762">
<time>2026-06-02T08:38:47Z</time>
<ele>25.38768144790083</ele>
</trkpt>
<trkpt lat="35.861024780334645" lon="139.97483411688904">
<time>2026-06-02T08:38:57Z</time>
<ele>26.260173586197197</ele>
</trkpt>
<trkpt lat="35.86098273142869" lon="139.97472852417172">
<time>2026-06-02T08:39:10Z</time>
<ele>26.4037344167009</ele>
</trkpt>
<trkpt lat="35.86095892827626" lon="139.9746142507597">
<time>2026-06-02T08:39:21Z</time>
<ele>25.856671056710184</ele>
</trkpt>
<trkpt lat="35.86091358818705" lon="139.97451230599407">
<time>2026-06-02T08:39:37Z</time>
<ele>26.40041328035295</ele>
</trkpt>
<trkpt lat="35.86084526574574" lon="139.9744304819296">
<time>2026-06-02T08:39:50Z</time>
<ele>26.472503546625376</ele>
</trkpt>
<trkpt lat="35.86078404572985" lon="139.97433648804133">
<time>2026-06-02T08:40:02Z</time>
<ele>26.68549002893269</ele>
</trkpt>
<trkpt lat="35.86072467467928" lon="139.97425252908863">
<time>2026-06-02T08:40:12Z</time>
<ele>26.567396313883364</ele>
</trkpt>
<trkpt lat="35.860687035272186" lon="139.97415064059567">
<time>2026-06-02T08:40:23Z</time>
<ele>26.469653544947505</ele>
</trkpt>
<trkpt lat="35.86071640997756" lon="139.97404521975602">
<time>2026-06-02T08:40:56Z</time>
<ele>26.644970130175352</ele>
</trkpt>
<trkpt lat="35.860646501673656" lon="139.97396917071933">
<time>2026-06-02T08:41:10Z</time>
<ele>26.45869320165366</ele>
</trkpt>
<trkpt lat="35.860569999982864" lon="139.97390475867454">
<time>2026-06-02T08:41:18Z</time>
<ele>26.992137741297483</ele>
</trkpt>
<trkpt lat="35.86049641392328" lon="139.97383884868955">
<time>2026-06-02T08:41:28Z</time>
<ele>27.053348410874605</ele>
</trkpt>
<trkpt lat="35.86045831575863" lon="139.97372958568184">
<time>2026-06-02T08:41:45Z</time>
<ele>25.59244145359844</ele>
</trkpt>
<trkpt lat="35.86044523544136" lon="139.9735645191617">
<time>2026-06-02T08:41:51Z</time>
<ele>25.724666438996792</ele>
</trkpt>
<trkpt lat="35.86053823112077" lon="139.97355586345654">
<time>2026-06-02T08:42:00Z</time>
<ele>27.370999608188868</ele>
</trkpt>
<trkpt lat="35.86058022630542" lon="139.9734564161054">
<time>2026-06-02T08:42:33Z</time>
<ele>27.23751448933035</ele>
</trkpt>
<trkpt lat="35.860640545399406" lon="139.97336565570816">
<time>2026-06-02T08:43:14Z</time>
<ele>27.15570339653641</ele>
</trkpt>
<trkpt lat="35.860727506168516" lon="139.97332430181672">
<time>2026-06-02T08:44:20Z</time>
<ele>26.190567346289754</ele>
</trkpt>
<trkpt lat="35.86078775861232" lon="139.97323753454987">
<time>2026-06-02T08:44:30Z</time>
<ele>26.316862490028143</ele>
</trkpt>
<trkpt lat="35.8608541218358" lon="139.97315606071535">
<time>2026-06-02T08:46:06Z</time>
<ele>25.358699313364923</ele>
</trkpt>
<trkpt lat="35.86089970447585" lon="139.9732635729314">
<time>2026-06-02T08:46:23Z</time>
<ele>26.090129896998405</ele>
</trkpt>
<trkpt lat="35.86096393882041" lon="139.97335469093304">
<time>2026-06-02T08:46:41Z</time>
<ele>25.73971559293568</ele>
</trkpt>
<trkpt lat="35.8609767842133" lon="139.97346853809154">
<time>2026-06-02T08:47:06Z</time>
<ele>26.536584785208106</ele>
</trkpt>
<trkpt lat="35.86104035347487" lon="139.97354710631166">
<time>2026-06-02T08:47:20Z</time>
<ele>26.61671568173915</ele>
</trkpt>
<trkpt lat="35.861107970710925" lon="139.9736287745328">
<time>2026-06-02T08:47:45Z</time>
<ele>26.777663404121995</ele>
</trkpt>
<trkpt lat="35.86118834368485" lon="139.97368150665886">
<time>2026-06-02T08:48:01Z</time>
<ele>26.379363282583654</ele>
</trkpt>
<trkpt lat="35.86127249988778" lon="139.97373068737807">
<time>2026-06-02T08:48:18Z</time>
<ele>26.633042838424444</ele>
</trkpt>
<trkpt lat="35.86135645569511" lon="139.97378976756102">
<time>2026-06-02T08:48:27Z</time>
<ele>26.26645183376968</ele>
</trkpt>
<trkpt lat="35.86145561693796" lon="139.97377599150414">
<time>2026-06-02T08:49:09Z</time>
<ele>26.139736169949174</ele>
</trkpt>
<trkpt lat="35.861539521401255" lon="139.97381852045945">
<time>2026-06-02T08:49:40Z</time>
<ele>26.452991973608732</ele>
</trkpt>
<trkpt lat="35.86163072551887" lon="139.97383130720505">
<time>2026-06-02T08:49:53Z</time>
<ele>26.125780425965786</ele>
</trkpt>
<trkpt lat="35.86172546391869" lon="139.97385832238518">
<time>2026-06-02T08:50:10Z</time>
<ele>25.815017213113606</ele>
</trkpt>
<trkpt lat="35.86182105418325" lon="139.97388102203158">
<time>2026-06-02T08:50:39Z</time>
<ele>26.05549960024655</ele>
</trkpt>
<trkpt lat="35.8618850326889" lon="139.97396186705808">
<time>2026-06-02T08:50:48Z</time>
<ele>24.78345517627895</ele>
</trkpt>
<trkpt lat="35.86197530736502" lon="139.97398368816144">
<time>2026-06-02T08:51:06Z</time>
<ele>26.407478785142303</ele>
</trkpt>
<trkpt lat="35.8620651609138" lon="139.97401990751413">
<time>2026-06-02T08:51:22Z</time>
<ele>25.90139387268573</ele>
</trkpt>
<trkpt lat="35.86206850451611" lon="139.97413536256818">
<time>2026-06-02T08:52:22Z</time>
<ele>25.487934041768312</ele>
</trkpt>
<trkpt lat="35.862150157637046" lon="139.97408143381378">
<time>2026-06-02T08:52:51Z</time>
<ele>25.66489250957966</ele>
</trkpt>
<trkpt lat="35.862236616971416" lon="139.97402930627962">
<time>2026-06-02T08:53:02Z</time>
<ele>26.47840305045247</ele>
</trkpt>
<trkpt lat="35.862326905527915" lon="139.97407038718308">
<time>2026-06-02T08:53:15Z</time>
<ele>26.105737171135843</ele>
</trkpt>
<trkpt lat="35.86241648521429" lon="139.974126919348">
<time>2026-06-02T08:53:29Z</time>
<ele>25.604044475592673</ele>
</trkpt>
<trkpt lat="35.862431736337186" lon="139.97424385612362">
<time>2026-06-02T08:54:06Z</time>
<ele>24.445245600305498</ele>
</trkpt>
<trkpt lat="35.862444984503234" lon="139.9743644349686">
<time>2026-06-02T08:54:20Z</time>
<ele>25.189126072451472</ele>
</trkpt>
<trkpt lat="35.86244881140398" lon="139.9744768095351">
<time>2026-06-02T08:54:30Z</time>
<ele>25.46785130351782</ele>
</trkpt>
<trkpt lat="35.862450814638834" lon="139.9745908080763">
<time>2026-06-02T08:55:05Z</time>
<ele>25.54734757822007</ele>
</trkpt>
<trkpt lat="35.86243268701846" lon="139.9747093716732">
<time>2026-06-02T08:55:18Z</time>
<ele>25.937617296352983</ele>
</trkpt>
<trkpt lat="35.86242184946804" lon="139.97482869175414">
<time>2026-06-02T08:55:30Z</time>
<ele>25.895378063432872</ele>
</trkpt>
<trkpt lat="35.862412512726955" lon="139.9749525915084">
<time>2026-06-02T08:55:40Z</time>
<ele>25.491702226921916</ele>
</trkpt>
<trkpt lat="35.86239339238724" lon="139.97506808703588">
<time>2026-06-02T08:56:04Z</time>
<ele>25.529683484695852</ele>
</trkpt>
<trkpt lat="35.8623919537941" lon="139.9751872638242">
<time>2026-06-02T08:56:16Z</time>
<ele>25.305647427216172</ele>
</trkpt>
<trkpt lat="35.86238877104706" lon="139.97530236583933">
<time>2026-06-02T08:56:26Z</time>
<ele>25.588499788194895</ele>
</trkpt>
<trkpt lat="35.86234799727519" lon="139.97540413315124">
<time>2026-06-02T08:56:36Z</time>
<ele>24.79816020745784</ele>
</trkpt>
<trkpt lat="35.8622539075463" lon="139.97538863611348">
<time>2026-06-02T08:56:44Z</time>
<ele>25.00518927630037</ele>
</trkpt>
<trkpt lat="35.86216059924544" lon="139.97535900520097">
<time>2026-06-02T08:56:54Z</time>
<ele>25.20225013140589</ele>
</trkpt>
<trkpt lat="35.86207038435818" lon="139.97534324019185">
<time>2026-06-02T08:57:03Z</time>
<ele>25.400387779809535</ele>
</trkpt>
<trkpt lat="35.86201134867902" lon="139.9752541001689">
<time>2026-06-02T08:57:27Z</time>
<ele>25.40781082585454</ele>
</trkpt>
<trkpt lat="35.86201160561647" lon="139.97514198532943">
<time>2026-06-02T08:57:36Z</time>
<ele>25.70576354302466</ele>
</trkpt>
<trkpt lat="35.86201380685901" lon="139.97502525189762">
<time>2026-06-02T08:57:53Z</time>
<ele>24.62376626301557</ele>
</trkpt>
<trkpt lat="35.862005430540925" lon="139.97490516580555">
<time>2026-06-02T08:58:08Z</time>
<ele>26.082732994109392</ele>
</trkpt>
<trkpt lat="35.862033447478225" lon="139.97479341766413">
<time>2026-06-02T08:58:19Z</time>
<ele>25.647612468339503</ele>
</trkpt>
<trkpt lat="35.862063625145744" lon="139.9746846135799">
<time>2026-06-02T08:58:30Z</time>
<ele>25.80732173845172</ele>
</trkpt>
<trkpt lat="35.862098619997425" lon="139.97457938071028">
<time>2026-06-02T08:58:47Z</time>
<ele>26.117603465914726</ele>
</trkpt>
<trkpt lat="35.862125396516205" lon="139.9744613147751">
<time>2026-06-02T08:58:57Z</time>
<ele>25.822943795472383</ele>
</trkpt>
<trkpt lat="35.86211152086688" lon="139.9743393042712">
<time>2026-06-02T08:59:10Z</time>
<ele>25.458834156394005</ele>
</trkpt>
<trkpt lat="35.86211348272748" lon="139.9742242912626">
<time>2026-06-02T08:59:38Z</time>
<ele>25.927649748511612</ele>
</trkpt>
<trkpt lat="35.86211175246459" lon="139.97411193961617">
<time>2026-06-02T08:59:50Z</time>
<ele>25.453249318525195</ele>
</trkpt>
<trkpt lat="35.86201472222933" lon="139.97409007757207">
<time>2026-06-02T08:59:58Z</time>
<ele>25.644353016279638</ele>
</trkpt>
<trkpt lat="35.86192719129391" lon="139.97404634045307">
<time>2026-06-02T09:00:09Z</time>
<ele>25.941645305603743</ele>
</trkpt>
<trkpt lat="35.86184196196507" lon="139.97399537301342">
<time>2026-06-02T09:00:20Z</time>
<ele>25.92041303217411</ele>
</trkpt>
<trkpt lat="35.861752267980656" lon="139.9739652283098">
<time>2026-06-02T09:00:30Z</time>
<ele>25.84667266625911</ele>
</trkpt>
<trkpt lat="35.86166115570914" lon="139.97395710740605">
<time>2026-06-02T09:00:43Z</time>
<ele>26.00393365882337</ele>
</trkpt>
<trkpt lat="35.861571837975525" lon="139.97394015294807">
<time>2026-06-02T09:00:53Z</time>
<ele>26.366093550808728</ele>
</trkpt>
<trkpt lat="35.86150197279766" lon="139.97401542644405">
<time>2026-06-02T09:01:19Z</time>
<ele>26.181323044002056</ele>
</trkpt>
<trkpt lat="35.86148780577319" lon="139.97412650110246">
<time>2026-06-02T09:01:47Z</time>
<ele>25.910014267079532</ele>
</trkpt>
<trkpt lat="35.86148101177764" lon="139.97424053406382">
<time>2026-06-02T09:02:43Z</time>
<ele>26.498430258594453</ele>
</trkpt>
<trkpt lat="35.86149568454274" lon="139.9743519078466">
<time>2026-06-02T09:02:58Z</time>
<ele>26.85183867625892</ele>
</trkpt>
<trkpt lat="35.861488062162245" lon="139.97446699688942">
<time>2026-06-02T09:03:10Z</time>
<ele>26.619948282837868</ele>
</trkpt>
<trkpt lat="35.861475382204574" lon="139.9745776665633">
<time>2026-06-02T09:03:21Z</time>
<ele>26.781783876940608</ele>
</trkpt>
<trkpt lat="35.861465940339265" lon="139.97469517344646">
<time>2026-06-02T09:03:52Z</time>
<ele>26.313359877094626</ele>
</trkpt>
<trkpt lat="35.8614538797494" lon="139.97481280079054">
<time>2026-06-02T09:04:01Z</time>
<ele>26.495784047991037</ele>
</trkpt>
<trkpt lat="35.861420715471496" lon="139.97493443687696">
<time>2026-06-02T09:04:15Z</time>
<ele>25.491731562651694</ele>
</trkpt>
<trkpt lat="35.86139346450014" lon="139.97505162684268">
<time>2026-06-02T09:04:24Z</time>
<ele>24.896232303231955</ele>
</trkpt>
<trkpt lat="35.86145052967626" lon="139.97514252665349">
<time>2026-06-02T09:05:05Z</time>
<ele>25.388384671881795</ele>
</trkpt>
<trkpt lat="35.861537140731144" lon="139.97518739929583">
<time>2026-06-02T09:05:10Z</time>
<ele>25.562040564604104</ele>
</trkpt>
<trkpt lat="35.861635391876696" lon="139.97523093303957">
<time>2026-06-02T09:05:18Z</time>
<ele>25.787554695270956</ele>
</trkpt>
<trkpt lat="35.861729965272296" lon="139.9752816951728">
<time>2026-06-02T09:05:31Z</time>
<ele>26.008701719343662</ele>
</trkpt>
<trkpt lat="35.861816540972626" lon="139.97531282996565">
<time>2026-06-02T09:05:41Z</time>
<ele>25.384556251578033</ele>
</trkpt>
<trkpt lat="35.86190383936474" lon="139.97534689966403">
<time>2026-06-02T09:05:51Z</time>
<ele>24.64849196653813</ele>
</trkpt>
<trkpt lat="35.86199426002355" lon="139.97534819867627">
<time>2026-06-02T09:06:03Z</time>
<ele>25.40973201394081</ele>
</trkpt>
<trkpt lat="35.86209315336894" lon="139.97535998702259">
<time>2026-06-02T09:06:12Z</time>
<ele>25.525220540352166</ele>
</trkpt>
<trkpt lat="35.86218723016114" lon="139.97536816882115">
<time>2026-06-02T09:06:31Z</time>
<ele>25.385967179201543</ele>
</trkpt>
<trkpt lat="35.862278920463446" lon="139.97536231342852">
<time>2026-06-02T09:06:42Z</time>
<ele>24.882290238514543</ele>
</trkpt>
<trkpt lat="35.86233272494156" lon="139.97526448598907">
<time>2026-06-02T09:06:54Z</time>
<ele>25.047771935351193</ele>
</trkpt>
<trkpt lat="35.86237289025836" lon="139.97516290767564">
<time>2026-06-02T09:07:03Z</time>
<ele>24.382119302637875</ele>
</trkpt>
<trkpt lat="35.86241749263787" lon="139.975062529723">
<time>2026-06-02T09:07:14Z</time>
<ele>25.123173183761537</ele>
</trkpt>
<trkpt lat="35.86243667840227" lon="139.97495420179553">
<time>2026-06-02T09:07:31Z</time>
<ele>26.108451982028782</ele>
</trkpt>
<trkpt lat="35.86243624160824" lon="139.97483572479914">
<time>2026-06-02T09:07:46Z</time>
<ele>25.265332566574216</ele>
</trkpt>
<trkpt lat="35.862429997946364" lon="139.9747099822823">
<time>2026-06-02T09:07:57Z</time>
<ele>25.077165839262307</ele>
</trkpt>
<trkpt lat="35.86243030699665" lon="139.9745895779007">
<time>2026-06-02T09:08:09Z</time>
<ele>26.294604409486055</ele>
</trkpt>
<trkpt lat="35.86245652407264" lon="139.97447831832827">
<time>2026-06-02T09:08:16Z</time>
<ele>25.525132067501545</ele>
</trkpt>
<trkpt lat="35.86245139335639" lon="139.97436202846225">
<time>2026-06-02T09:08:27Z</time>
<ele>25.021200878545642</ele>
</trkpt>
<trkpt lat="35.8624954384841" lon="139.97425138141745">
<time>2026-06-02T09:08:36Z</time>
<ele>25.50630788411945</ele>
</trkpt>
<trkpt lat="35.862490158580975" lon="139.97412944272696">
<time>2026-06-02T09:08:46Z</time>
<ele>24.805534288287163</ele>
</trkpt>
<trkpt lat="35.86251465042606" lon="139.97401932915946">
<time>2026-06-02T09:09:00Z</time>
<ele>25.521246780641377</ele>
</trkpt>
<trkpt lat="35.86253028023954" lon="139.97389662466048">
<time>2026-06-02T09:09:10Z</time>
<ele>25.507839237339795</ele>
</trkpt>
<trkpt lat="35.86256873310887" lon="139.9737934801188">
<time>2026-06-02T09:09:19Z</time>
<ele>24.53612497076392</ele>
</trkpt>
<trkpt lat="35.86257650151239" lon="139.97365906087273">
<time>2026-06-02T09:09:30Z</time>
<ele>24.921753636561334</ele>
</trkpt>
<trkpt lat="35.8625962048612" lon="139.97353482212048">
<time>2026-06-02T09:09:41Z</time>
<ele>25.236154665239155</ele>
</trkpt>
<trkpt lat="35.86264708382402" lon="139.97343177303512">
<time>2026-06-02T09:09:50Z</time>
<ele>25.334334205836058</ele>
</trkpt>
<trkpt lat="35.86269328346231" lon="139.97333190615532">
<time>2026-06-02T09:10:01Z</time>
<ele>25.326675033196807</ele>
</trkpt>
<trkpt lat="35.86271057224518" lon="139.97321508011532">
<time>2026-06-02T09:10:10Z</time>
<ele>24.89765530359</ele>
</trkpt>
<trkpt lat="35.86274852507521" lon="139.97310113457195">
<time>2026-06-02T09:10:18Z</time>
<ele>25.43901781924069</ele>
</trkpt>
<trkpt lat="35.86271697330409" lon="139.97298161435975">
<time>2026-06-02T09:10:26Z</time>
<ele>25.19873874913901</ele>
</trkpt>
<trkpt lat="35.862739322548634" lon="139.97287187231774">
<time>2026-06-02T09:10:37Z</time>
<ele>25.488515121862292</ele>
</trkpt>
<trkpt lat="35.86275392698368" lon="139.97275566886043">
<time>2026-06-02T09:10:46Z</time>
<ele>25.558916463516653</ele>
</trkpt>
<trkpt lat="35.86270392406616" lon="139.97266269102167">
<time>2026-06-02T09:10:57Z</time>
<ele>25.95880634151399</ele>
</trkpt>
<trkpt lat="35.86274208319936" lon="139.97255487573707">
<time>2026-06-02T09:11:06Z</time>
<ele>26.931740939617157</ele>
</trkpt>
<trkpt lat="35.862812553346366" lon="139.97246959647603">
<time>2026-06-02T09:11:35Z</time>
<ele>26.302511986345053</ele>
</trkpt>
<trkpt lat="35.86280438807072" lon="139.97235715872415">
<time>2026-06-02T09:11:53Z</time>
<ele>26.067497863434255</ele>
</trkpt>
<trkpt lat="35.86273858453375" lon="139.9722498865109">
<time>2026-06-02T09:12:01Z</time>
<ele>26.645438872277737</ele>
</trkpt>
<trkpt lat="35.86267594606606" lon="139.97214868285297">
<time>2026-06-02T09:12:08Z</time>
<ele>26.83980106189847</ele>
</trkpt>
<trkpt lat="35.86260456466523" lon="139.97206207058412">
<time>2026-06-02T09:12:15Z</time>
<ele>26.090008890256286</ele>
</trkpt>
<trkpt lat="35.86254134388204" lon="139.97197328142352">
<time>2026-06-02T09:12:23Z</time>
<ele>26.78768082521856</ele>
</trkpt>
<trkpt lat="35.86246341364805" lon="139.9718709053587">
<time>2026-06-02T09:12:32Z</time>
<ele>27.100176715292037</ele>
</trkpt>
<trkpt lat="35.86241151386479" lon="139.97176238527268">
<time>2026-06-02T09:12:40Z</time>
<ele>27.15370811522007</ele>
</trkpt>
<trkpt lat="35.86235632052211" lon="139.97167383422664">
<time>2026-06-02T09:12:47Z</time>
<ele>26.32024948298931</ele>
</trkpt>
<trkpt lat="35.8623130846868" lon="139.97157632549357">
<time>2026-06-02T09:12:53Z</time>
<ele>26.399411046877503</ele>
</trkpt>
</trkseg>
</trk>
</gpx>